{"type":"FeatureCollection","features":[{"type":"Feature","properties":{"code":"11010","name":"종로구"},"geometry":{"type":"MultiPolygon","coordinates":[[[[126.975,37.629],[126.9799,37.6286],[126.9796,37.6264],[126.9837,37.6212],[126.9832,37.6192],[126.9859,37.6122],[126.9868,37.6061],[126.9867,37.604],[126.9785,37.601],[126.9767,37.5979],[126.9815,37.5953],[126.9854,37.5944],[126.9891,37.5914],[126.9985,37.5925],[127.0018,37.5912],[127.0066,37.5855],[127.0086,37.5805],[127.0105,37.5803],[127.0118,37.5816],[127.0148,37.5823],[127.0167,37.5817],[127.0188,37.5775],[127.0218,37.5789],[127.0231,37.578],[127.0234,37.5719],[127.0173,37.5701],[126.9902,37.5681],[126.9757,37.5694],[126.9691,37.5682],[126.9667,37.5658],[126.9536,37.5787],[126.9572,37.5799],[126.958,37.5841],[126.9575,37.5901],[126.959,37.5951],[126.958,37.5982],[126.9541,37.5991],[126.9526,37.6012],[126.9524,37.6025],[126.9539,37.6048],[126.9503,37.6091],[126.9498,37.6117],[126.9507,37.6155],[126.949,37.6243],[126.9505,37.6264],[126.9584,37.6295],[126.973,37.6324],[126.9754,37.6317],[126.975,37.629]]]]}},{"type":"Feature","properties":{"code":"11020","name":"중구"},"geometry":{"type":"MultiPolygon","coordinates":[[[[127.0236,37.5652],[127.0268,37.565],[127.0265,37.5634],[127.0234,37.5607],[127.0229,37.5579],[127.0181,37.5569],[127.0163,37.553],[127.0097,37.5479],[127.0082,37.545],[127.009,37.5441],[127.0073,37.5439],[127.005,37.5462],[127.0057,37.5477],[127.0043,37.5502],[126.9983,37.5497],[126.9952,37.5472],[126.9923,37.5501],[126.9877,37.5515],[126.9854,37.5537],[126.9764,37.5531],[126.9699,37.554],[126.9692,37.5557],[126.9624,37.5516],[126.9634,37.5568],[126.9617,37.559],[126.9695,37.562],[126.9667,37.5658],[126.9691,37.5682],[126.9757,37.5694],[126.9902,37.5681],[127.0173,37.5701],[127.0234,37.5719],[127.0236,37.5652]]]]}},{"type":"Feature","properties":{"code":"11030","name":"용산구"},"geometry":{"type":"MultiPolygon","coordinates":[[[[126.9764,37.5531],[126.9854,37.5537],[126.9877,37.5515],[126.9923,37.5501],[126.9952,37.5472],[126.9983,37.5497],[127.0043,37.5502],[127.0057,37.5477],[127.005,37.5462],[127.0073,37.5439],[127.009,37.5441],[127.0096,37.5396],[127.0175,37.5377],[127.0174,37.534],[127.0032,37.5212],[126.9907,37.5131],[126.9855,37.5065],[126.9787,37.5066],[126.9669,37.5099],[126.9619,37.5131],[126.9499,37.5175],[126.9499,37.527],[126.9446,37.5338],[126.9463,37.5357],[126.9513,37.5363],[126.9557,37.5395],[126.9579,37.5455],[126.9633,37.5486],[126.9635,37.5502],[126.9624,37.5516],[126.9692,37.5557],[126.9693,37.5543],[126.9764,37.5531]]]]}},{"type":"Feature","properties":{"code":"11040","name":"성동구"},"geometry":{"type":"MultiPolygon","coordinates":[[[[127.048,37.5704],[127.0588,37.5623],[127.0711,37.5606],[127.0737,37.5594],[127.0562,37.5283],[127.046,37.5342],[127.0404,37.5358],[127.0212,37.5358],[127.0174,37.534],[127.0175,37.5377],[127.0096,37.5396],[127.0082,37.545],[127.0093,37.5475],[127.0163,37.553],[127.0181,37.5569],[127.0229,37.5579],[127.0234,37.5607],[127.0266,37.5636],[127.0268,37.565],[127.0236,37.5652],[127.0234,37.5719],[127.031,37.5698],[127.04,37.573],[127.048,37.5704]]]]}},{"type":"Feature","properties":{"code":"11050","name":"광진구"},"geometry":{"type":"MultiPolygon","coordinates":[[[[127.1012,37.5616],[127.1019,37.5595],[127.1049,37.5564],[127.113,37.5588],[127.1152,37.5568],[127.1115,37.5504],[127.1115,37.5469],[127.1083,37.5414],[127.0898,37.5268],[127.08,37.5229],[127.0743,37.5229],[127.0562,37.5283],[127.0737,37.5594],[127.0724,37.56],[127.0782,37.5719],[127.0882,37.5708],[127.0905,37.5697],[127.0956,37.5706],[127.1009,37.5738],[127.1017,37.5724],[127.1042,37.5714],[127.1012,37.5616]]]]}},{"type":"Feature","properties":{"code":"11060","name":"동대문구"},"geometry":{"type":"MultiPolygon","coordinates":[[[[127.0707,37.5985],[127.0694,37.5953],[127.0722,37.585],[127.0763,37.58],[127.0782,37.5719],[127.0724,37.56],[127.0588,37.5623],[127.048,37.5704],[127.0426,37.5727],[127.0362,37.5722],[127.031,37.5698],[127.0234,37.5719],[127.0231,37.578],[127.0295,37.5827],[127.0355,37.589],[127.0362,37.5912],[127.0388,37.5913],[127.0411,37.5956],[127.043,37.597],[127.0473,37.5961],[127.051,37.6012],[127.0521,37.6001],[127.0601,37.6021],[127.0622,37.6051],[127.066,37.6056],[127.0679,37.6068],[127.0688,37.609],[127.0711,37.6076],[127.0725,37.6002],[127.0707,37.5985]]]]}},{"type":"Feature","properties":{"code":"11070","name":"중랑구"},"geometry":{"type":"MultiPolygon","coordinates":[[[[127.1173,37.6167],[127.1167,37.6088],[127.1181,37.6054],[127.1141,37.6001],[127.1169,37.5955],[127.1167,37.594],[127.1133,37.5933],[127.109,37.5834],[127.1034,37.5806],[127.1009,37.5738],[127.0956,37.5706],[127.0905,37.5697],[127.0882,37.5708],[127.0782,37.5719],[127.0763,37.58],[127.0722,37.585],[127.0694,37.5953],[127.0729,37.6011],[127.0711,37.6073],[127.0717,37.6135],[127.0701,37.6154],[127.0861,37.6203],[127.0932,37.618],[127.0988,37.6204],[127.1009,37.6194],[127.1113,37.6207],[127.115,37.6195],[127.1173,37.6167]]]]}},{"type":"Feature","properties":{"code":"11080","name":"성북구"},"geometry":{"type":"MultiPolygon","coordinates":[[[[126.9993,37.6262],[127.0052,37.624],[127.0079,37.624],[127.0072,37.6205],[127.0102,37.6168],[127.0145,37.6147],[127.0175,37.6146],[127.0222,37.6114],[127.0267,37.6127],[127.0302,37.6124],[127.0304,37.6091],[127.0372,37.6127],[127.0439,37.6186],[127.0465,37.6223],[127.0497,37.6243],[127.0618,37.6145],[127.0701,37.6154],[127.0711,37.6148],[127.0711,37.6076],[127.0688,37.609],[127.0679,37.6068],[127.066,37.6056],[127.0622,37.6051],[127.0601,37.6021],[127.0521,37.6001],[127.051,37.6012],[127.0473,37.5961],[127.043,37.597],[127.0411,37.5956],[127.0388,37.5913],[127.0362,37.5912],[127.0355,37.589],[127.0295,37.5827],[127.0231,37.578],[127.0218,37.5789],[127.0188,37.5775],[127.0167,37.5817],[127.0148,37.5823],[127.0118,37.5816],[127.0105,37.5803],[127.0086,37.5805],[127.0066,37.5855],[127.0018,37.5912],[126.9985,37.5925],[126.9891,37.5914],[126.9854,37.5944],[126.9815,37.5953],[126.9767,37.5979],[126.9785,37.601],[126.9867,37.604],[126.9868,37.6061],[126.9859,37.6122],[126.9832,37.6192],[126.9837,37.6212],[126.9796,37.6264],[126.9799,37.6286],[126.975,37.629],[126.9754,37.6317],[126.984,37.6364],[126.9954,37.6302],[126.9993,37.6262]]]]}},{"type":"Feature","properties":{"code":"11090","name":"강북구"},"geometry":{"type":"MultiPolygon","coordinates":[[[[127.0187,37.6709],[127.0184,37.6689],[127.0155,37.6661],[127.0153,37.6636],[127.0169,37.6622],[127.0149,37.6616],[127.0144,37.6604],[127.0125,37.6522],[127.0129,37.6507],[127.0173,37.6487],[127.0214,37.6489],[127.0324,37.6418],[127.0346,37.6378],[127.0375,37.6364],[127.0386,37.6337],[127.0471,37.6275],[127.0497,37.6243],[127.0465,37.6223],[127.0439,37.6186],[127.0372,37.6127],[127.0304,37.6091],[127.0302,37.6124],[127.0267,37.6127],[127.0222,37.6114],[127.0175,37.6146],[127.0145,37.6147],[127.011,37.6163],[127.0072,37.6205],[127.0079,37.624],[127.0052,37.624],[126.9993,37.6262],[126.9941,37.6311],[126.9842,37.6363],[126.9859,37.6406],[126.9832,37.6437],[126.9851,37.6459],[126.9839,37.6496],[126.981,37.6527],[126.9797,37.656],[126.9829,37.6564],[126.9865,37.6595],[126.9883,37.6644],[126.9922,37.6652],[126.994,37.6668],[126.994,37.6749],[126.9922,37.6796],[126.997,37.6826],[127.0046,37.6851],[127.0087,37.6844],[127.0094,37.6796],[127.0114,37.6792],[127.0179,37.6708],[127.0187,37.6709]]]]}},{"type":"Feature","properties":{"code":"11100","name":"도봉구"},"geometry":{"type":"MultiPolygon","coordinates":[[[[127.0253,37.6996],[127.0277,37.7009],[127.0293,37.6993],[127.0302,37.6952],[127.0324,37.6918],[127.0368,37.6926],[127.0411,37.6953],[127.0431,37.6952],[127.0451,37.6924],[127.0486,37.6941],[127.0498,37.688],[127.0522,37.685],[127.0482,37.6712],[127.0489,37.6676],[127.0516,37.664],[127.0518,37.6606],[127.054,37.6553],[127.0539,37.6506],[127.0558,37.647],[127.055,37.6424],[127.0558,37.6406],[127.0547,37.6401],[127.0514,37.6448],[127.0505,37.6448],[127.0468,37.6397],[127.044,37.6336],[127.0417,37.6315],[127.0424,37.6305],[127.0386,37.6337],[127.0375,37.6364],[127.0346,37.6378],[127.0319,37.6422],[127.0247,37.6473],[127.0212,37.649],[127.0151,37.6493],[127.0125,37.6518],[127.0146,37.661],[127.0169,37.6622],[127.0153,37.6636],[127.0158,37.667],[127.0184,37.6689],[127.0187,37.6709],[127.0179,37.6708],[127.0114,37.6792],[127.0094,37.6796],[127.0083,37.6901],[127.0097,37.6934],[127.0097,37.6967],[127.0139,37.6988],[127.0154,37.7015],[127.0198,37.701],[127.0221,37.6997],[127.0253,37.6996]]]]}},{"type":"Feature","properties":{"code":"11110","name":"노원구"},"geometry":{"type":"MultiPolygon","coordinates":[[[[127.0839,37.6918],[127.0852,37.6904],[127.096,37.6891],[127.0964,37.6856],[127.0919,37.6792],[127.0964,37.6697],[127.0946,37.6662],[127.0954,37.6639],[127.0912,37.6593],[127.094,37.6525],[127.0927,37.6486],[127.0946,37.6446],[127.0989,37.644],[127.1029,37.6454],[127.1066,37.6454],[127.1093,37.6429],[127.1113,37.6424],[127.1118,37.6407],[127.1109,37.6383],[127.1125,37.6365],[127.1122,37.6326],[127.106,37.6273],[127.1041,37.6217],[127.1057,37.6204],[127.1049,37.6201],[127.1009,37.6194],[127.0988,37.6204],[127.0932,37.618],[127.0861,37.6203],[127.0702,37.6154],[127.0621,37.6144],[127.0544,37.6198],[127.0476,37.6271],[127.0417,37.6315],[127.044,37.6336],[127.0468,37.6397],[127.0505,37.6448],[127.0514,37.6448],[127.0547,37.6401],[127.0558,37.6406],[127.055,37.6424],[127.0558,37.647],[127.0539,37.6506],[127.054,37.6553],[127.0518,37.6606],[127.0516,37.664],[127.0489,37.6676],[127.0482,37.6712],[127.0521,37.6829],[127.0518,37.6871],[127.0597,37.6903],[127.0634,37.6949],[127.0727,37.6938],[127.0749,37.6952],[127.0811,37.6961],[127.0838,37.6943],[127.0839,37.6918]]]]}},{"type":"Feature","properties":{"code":"11120","name":"은평구"},"geometry":{"type":"MultiPolygon","coordinates":[[[[126.954,37.655],[126.9571,37.6528],[126.9593,37.6421],[126.9633,37.6332],[126.9598,37.6298],[126.9505,37.6264],[126.949,37.6243],[126.9507,37.6155],[126.9498,37.6117],[126.9504,37.6106],[126.9437,37.6062],[126.9407,37.6031],[126.9404,37.6016],[126.9414,37.6007],[126.9409,37.5987],[126.9328,37.5963],[126.9302,37.5945],[126.9278,37.5916],[126.9277,37.5889],[126.9228,37.5856],[126.9209,37.5829],[126.9159,37.5831],[126.9157,37.586],[126.9128,37.5872],[126.9021,37.576],[126.8889,37.5846],[126.8821,37.5908],[126.8853,37.5939],[126.8873,37.5939],[126.8855,37.5911],[126.8858,37.5895],[126.8876,37.5887],[126.8964,37.5887],[126.8996,37.5898],[126.9012,37.5963],[126.9002,37.6031],[126.9021,37.6037],[126.9003,37.6112],[126.9034,37.6188],[126.9052,37.6191],[126.9071,37.6219],[126.9088,37.6291],[126.9062,37.6332],[126.9112,37.6359],[126.9112,37.641],[126.9123,37.6443],[126.9048,37.6491],[126.9137,37.6448],[126.9229,37.6459],[126.9315,37.6503],[126.9357,37.6512],[126.9397,37.6562],[126.9427,37.6579],[126.9475,37.6592],[126.9479,37.6571],[126.9517,37.6549],[126.954,37.655]]]]}},{"type":"Feature","properties":{"code":"11130","name":"서대문구"},"geometry":{"type":"MultiPolygon","coordinates":[[[[126.959,37.5948],[126.9575,37.5901],[126.958,37.5841],[126.9572,37.5799],[126.9536,37.5787],[126.9667,37.5658],[126.9695,37.562],[126.9616,37.5591],[126.9599,37.5576],[126.9414,37.5565],[126.9369,37.5551],[126.9266,37.5588],[126.9267,37.561],[126.9283,37.5633],[126.926,37.5651],[126.9184,37.5671],[126.9098,37.571],[126.9021,37.576],[126.9128,37.5872],[126.9157,37.586],[126.9159,37.5831],[126.9209,37.5829],[126.9228,37.5856],[126.9277,37.5889],[126.9278,37.5916],[126.9302,37.5945],[126.9328,37.5963],[126.9409,37.5987],[126.9414,37.6007],[126.9404,37.6016],[126.9407,37.6031],[126.9437,37.6062],[126.9504,37.6106],[126.9506,37.6084],[126.9539,37.6048],[126.9524,37.6025],[126.9534,37.5995],[126.9583,37.5978],[126.959,37.5948]]]]}},{"type":"Feature","properties":{"code":"11140","name":"마포구"},"geometry":{"type":"MultiPolygon","coordinates":[[[[126.9098,37.571],[126.9184,37.5671],[126.926,37.5651],[126.9283,37.5633],[126.9267,37.561],[126.9266,37.5588],[126.9369,37.5551],[126.9414,37.5565],[126.9582,37.5573],[126.9616,37.5591],[126.9634,37.557],[126.9622,37.5533],[126.9633,37.5486],[126.9579,37.5455],[126.9567,37.5406],[126.9534,37.5375],[126.9509,37.5362],[126.9463,37.5357],[126.9446,37.5338],[126.9303,37.5414],[126.9271,37.539],[126.9224,37.5414],[126.9048,37.5414],[126.8989,37.548],[126.8881,37.5523],[126.8663,37.5631],[126.8536,37.5718],[126.8536,37.5738],[126.8634,37.5769],[126.8763,37.5782],[126.8776,37.5797],[126.8767,37.5846],[126.8821,37.5908],[126.8889,37.5846],[126.9098,37.571]]]]}},{"type":"Feature","properties":{"code":"11150","name":"양천구"},"geometry":{"type":"MultiPolygon","coordinates":[[[[126.8738,37.509],[126.8747,37.5066],[126.8736,37.5036],[126.8703,37.5058],[126.8692,37.5049],[126.8635,37.5051],[126.8622,37.5073],[126.8603,37.5066],[126.8583,37.5099],[126.8529,37.5106],[126.8473,37.5095],[126.8444,37.5065],[126.8364,37.503],[126.834,37.5034],[126.8306,37.5063],[126.831,37.508],[126.827,37.5085],[126.827,37.5104],[126.8242,37.5105],[126.8246,37.518],[126.8261,37.5243],[126.8284,37.5267],[126.8282,37.529],[126.8253,37.53],[126.8219,37.535],[126.8221,37.5407],[126.8254,37.5417],[126.826,37.5449],[126.828,37.5476],[126.8298,37.5477],[126.83,37.5426],[126.8305,37.5418],[126.8331,37.5418],[126.8352,37.5369],[126.8344,37.5365],[126.8405,37.5265],[126.864,37.5298],[126.8638,37.5407],[126.8621,37.5444],[126.8642,37.5512],[126.8726,37.5471],[126.878,37.5471],[126.8807,37.5482],[126.8899,37.5348],[126.8905,37.5317],[126.8897,37.5304],[126.8877,37.5304],[126.8808,37.5276],[126.8788,37.5254],[126.8794,37.5205],[126.8782,37.5189],[126.8791,37.5179],[126.8777,37.5137],[126.8751,37.5124],[126.874,37.5113],[126.8747,37.5107],[126.8738,37.509]]]]}},{"type":"Feature","properties":{"code":"11160","name":"강서구"},"geometry":{"type":"MultiPolygon","coordinates":[[[[126.8418,37.5796],[126.8638,37.5645],[126.8805,37.5563],[126.878,37.553],[126.8803,37.5477],[126.8724,37.5471],[126.8642,37.5512],[126.8621,37.5444],[126.8638,37.5407],[126.864,37.5298],[126.8405,37.5265],[126.8344,37.5365],[126.8352,37.5369],[126.8331,37.5418],[126.8305,37.5418],[126.83,37.5426],[126.8298,37.5477],[126.828,37.5476],[126.826,37.5449],[126.8254,37.5417],[126.8221,37.5407],[126.8131,37.5407],[126.8072,37.5437],[126.804,37.5431],[126.8018,37.5427],[126.7993,37.5406],[126.7995,37.5377],[126.7944,37.5358],[126.7938,37.54],[126.7906,37.5439],[126.7869,37.546],[126.7779,37.5467],[126.7753,37.549],[126.7716,37.5483],[126.7645,37.5553],[126.7707,37.5572],[126.7758,37.5619],[126.7778,37.5599],[126.7759,37.5652],[126.7814,37.5689],[126.7824,37.5736],[126.7876,37.5756],[126.7913,37.5812],[126.7922,37.5802],[126.7937,37.5816],[126.7934,37.5845],[126.8007,37.5878],[126.8003,37.592],[126.7975,37.595],[126.7971,37.5977],[126.7981,37.6002],[126.8026,37.605],[126.8175,37.5953],[126.8201,37.5924],[126.8418,37.5796]]]]}},{"type":"Feature","properties":{"code":"11170","name":"구로구"},"geometry":{"type":"MultiPolygon","coordinates":[[[[126.874,37.5113],[126.8751,37.5124],[126.8777,37.5137],[126.8794,37.5179],[126.8844,37.5138],[126.8892,37.5123],[126.8921,37.5094],[126.894,37.505],[126.8928,37.5035],[126.8964,37.489],[126.8981,37.4869],[126.9032,37.485],[126.899,37.4791],[126.8959,37.4783],[126.8899,37.4794],[126.8792,37.4863],[126.8746,37.4854],[126.8768,37.4886],[126.8727,37.4884],[126.8728,37.49],[126.8747,37.4899],[126.8741,37.4913],[126.8702,37.4896],[126.8695,37.4943],[126.8676,37.4948],[126.8662,37.4925],[126.8618,37.4903],[126.8527,37.4818],[126.8465,37.4816],[126.845,37.4736],[126.8428,37.475],[126.8346,37.4749],[126.8331,37.4772],[126.8317,37.4777],[126.8279,37.476],[126.8194,37.4763],[126.8177,37.4732],[126.8147,37.4748],[126.8164,37.4775],[126.819,37.4792],[126.8213,37.4862],[126.8233,37.4879],[126.8209,37.4907],[126.8146,37.4932],[126.813,37.4964],[126.8141,37.4978],[126.8161,37.4976],[126.8196,37.4992],[126.8216,37.5022],[126.8222,37.5077],[126.8263,37.5088],[126.8306,37.5082],[126.8306,37.5063],[126.8316,37.5051],[126.8353,37.5028],[126.8444,37.5065],[126.8473,37.5095],[126.8529,37.5106],[126.8583,37.5099],[126.8603,37.5066],[126.8622,37.5073],[126.8635,37.5051],[126.8692,37.5049],[126.8703,37.5058],[126.8736,37.5036],[126.8747,37.5066],[126.8738,37.5089],[126.8747,37.5107],[126.874,37.5113]]]]}},{"type":"Feature","properties":{"code":"11180","name":"금천구"},"geometry":{"type":"MultiPolygon","coordinates":[[[[126.8888,37.4798],[126.8959,37.4783],[126.9098,37.4808],[126.9087,37.4791],[126.9118,37.4778],[126.9114,37.4745],[126.9082,37.4727],[126.9117,37.4668],[126.9137,37.4655],[126.9129,37.464],[126.9144,37.4616],[126.914,37.4579],[126.9222,37.4566],[126.9248,37.4528],[126.9284,37.451],[126.9283,37.4494],[126.9233,37.4458],[126.9228,37.444],[126.9187,37.44],[126.9123,37.4386],[126.9094,37.4339],[126.903,37.4341],[126.9019,37.4364],[126.899,37.4387],[126.8996,37.4404],[126.8958,37.4456],[126.894,37.4527],[126.8896,37.4523],[126.8888,37.4548],[126.8863,37.4564],[126.8854,37.4601],[126.8889,37.4609],[126.8871,37.4629],[126.8849,37.4625],[126.8829,37.4643],[126.8846,37.4656],[126.878,37.4738],[126.8718,37.4853],[126.8729,37.4863],[126.8746,37.4854],[126.8792,37.4863],[126.8888,37.4798]]]]}},{"type":"Feature","properties":{"code":"11190","name":"영등포구"},"geometry":{"type":"MultiPolygon","coordinates":[[[[126.9303,37.5414],[126.9446,37.5338],[126.9499,37.527],[126.9499,37.5175],[126.9269,37.5155],[126.927,37.5132],[126.9243,37.5099],[126.9198,37.4978],[126.912,37.496],[126.9032,37.485],[126.8987,37.4866],[126.8956,37.4914],[126.8928,37.5035],[126.894,37.505],[126.8923,37.5091],[126.8892,37.5123],[126.8844,37.5138],[126.8782,37.5188],[126.8794,37.5206],[126.8786,37.5251],[126.8807,37.5275],[126.8877,37.5304],[126.8897,37.5304],[126.8905,37.5317],[126.8899,37.5348],[126.8847,37.5433],[126.8781,37.5517],[126.878,37.553],[126.8805,37.5563],[126.8989,37.548],[126.9048,37.5414],[126.9224,37.5414],[126.9268,37.5391],[126.9303,37.5414]]]]}},{"type":"Feature","properties":{"code":"11200","name":"동작구"},"geometry":{"type":"MultiPolygon","coordinates":[[[[126.9817,37.4765],[126.9705,37.4754],[126.9703,37.4765],[126.9689,37.4766],[126.9648,37.4795],[126.9611,37.4836],[126.9619,37.4853],[126.9608,37.4908],[126.9614,37.4929],[126.9603,37.4937],[126.9537,37.4906],[126.947,37.4941],[126.9437,37.4924],[126.9383,37.4924],[126.9279,37.4951],[126.9242,37.49],[126.9187,37.4901],[126.9113,37.4863],[126.9032,37.485],[126.912,37.496],[126.9198,37.4978],[126.9243,37.5099],[126.927,37.5132],[126.9269,37.5155],[126.9496,37.5176],[126.957,37.5151],[126.9669,37.5099],[126.9741,37.5075],[126.9804,37.5065],[126.9804,37.5046],[126.9854,37.4999],[126.9829,37.497],[126.9817,37.4765]]]]}},{"type":"Feature","properties":{"code":"11210","name":"관악구"},"geometry":{"type":"MultiPolygon","coordinates":[[[[126.9437,37.4924],[126.947,37.4941],[126.9537,37.4906],[126.9571,37.4918],[126.9594,37.4938],[126.9606,37.4936],[126.9614,37.4929],[126.9608,37.4908],[126.9619,37.4853],[126.9611,37.4836],[126.9648,37.4795],[126.9689,37.4766],[126.9703,37.4765],[126.9705,37.4754],[126.9817,37.4765],[126.9832,37.4716],[126.9873,37.4676],[126.9883,37.464],[126.9875,37.4601],[126.9886,37.4582],[126.9746,37.4544],[126.9706,37.4495],[126.9643,37.4463],[126.9646,37.442],[126.9629,37.4403],[126.9564,37.4388],[126.9482,37.4386],[126.9402,37.4357],[126.9386,37.4364],[126.9373,37.4386],[126.9379,37.4402],[126.9367,37.4417],[126.9306,37.4455],[126.9284,37.451],[126.9248,37.4528],[126.9222,37.4566],[126.914,37.4579],[126.9144,37.4616],[126.9129,37.464],[126.9137,37.4655],[126.9117,37.4668],[126.9082,37.4727],[126.9114,37.4745],[126.9118,37.4778],[126.9087,37.4791],[126.9098,37.4808],[126.8989,37.4789],[126.9032,37.485],[126.9113,37.4863],[126.9187,37.4901],[126.9242,37.49],[126.9275,37.495],[126.9343,37.4931],[126.9437,37.4924]]]]}},{"type":"Feature","properties":{"code":"11220","name":"서초구"},"geometry":{"type":"MultiPolygon","coordinates":[[[[127.0132,37.5226],[127.0152,37.5248],[127.0178,37.5218],[127.0205,37.5128],[127.0341,37.4844],[127.0418,37.4854],[127.0452,37.4774],[127.0509,37.4718],[127.0489,37.4699],[127.0511,37.4694],[127.051,37.4676],[127.0655,37.4695],[127.0727,37.472],[127.0769,37.4752],[127.0845,37.4758],[127.0841,37.473],[127.085,37.4713],[127.0866,37.4708],[127.0916,37.4657],[127.0919,37.4623],[127.0957,37.461],[127.0952,37.4564],[127.0935,37.4559],[127.0888,37.4497],[127.0879,37.4449],[127.0814,37.4412],[127.0722,37.4422],[127.0722,37.4394],[127.0738,37.4374],[127.0696,37.4306],[127.0657,37.4292],[127.0611,37.43],[127.0535,37.4288],[127.0474,37.4307],[127.0464,37.433],[127.0411,37.4378],[127.0356,37.439],[127.0352,37.4409],[127.0382,37.4452],[127.0377,37.4494],[127.0358,37.4522],[127.0371,37.4552],[127.0349,37.4602],[127.0347,37.4641],[127.0319,37.4655],[127.0299,37.4654],[127.0282,37.4606],[127.026,37.4578],[127.0151,37.4548],[127.0107,37.4558],[127.0092,37.4572],[127.0045,37.4641],[127.0049,37.4658],[127.0037,37.4677],[126.9968,37.4671],[126.9974,37.4637],[126.9968,37.4619],[126.9932,37.4613],[126.9886,37.4582],[126.9879,37.4593],[126.9879,37.4659],[126.9832,37.4716],[126.9817,37.4763],[126.9829,37.497],[126.9854,37.4999],[126.9804,37.5046],[126.9804,37.5065],[126.9855,37.5065],[126.9907,37.5131],[127.0086,37.5256],[127.0132,37.5226]]]]}},{"type":"Feature","properties":{"code":"11230","name":"강남구"},"geometry":{"type":"MultiPolygon","coordinates":[[[[127.0675,37.5246],[127.0698,37.5027],[127.077,37.5021],[127.0959,37.4963],[127.1034,37.4928],[127.1079,37.489],[127.1242,37.4665],[127.1175,37.4622],[127.1169,37.4586],[127.114,37.4595],[127.1122,37.4615],[127.1062,37.4624],[127.1043,37.4622],[127.1039,37.4601],[127.0993,37.4567],[127.0952,37.4564],[127.0957,37.461],[127.0919,37.4623],[127.0916,37.4657],[127.0866,37.4708],[127.085,37.4713],[127.0841,37.473],[127.0845,37.4758],[127.0769,37.4752],[127.0727,37.472],[127.0655,37.4695],[127.051,37.4676],[127.0511,37.4694],[127.0489,37.4699],[127.0509,37.4718],[127.0452,37.4774],[127.0418,37.4854],[127.0341,37.4844],[127.0205,37.5128],[127.0169,37.523],[127.0152,37.5248],[127.0132,37.5226],[127.0086,37.5256],[127.0149,37.5322],[127.0212,37.5358],[127.0404,37.5358],[127.046,37.5342],[127.0562,37.5283],[127.0675,37.5246]]]]}},{"type":"Feature","properties":{"code":"11240","name":"송파구"},"geometry":{"type":"MultiPolygon","coordinates":[[[[127.1193,37.5279],[127.1454,37.5165],[127.1421,37.5147],[127.1402,37.5099],[127.14,37.5086],[127.1415,37.5067],[127.1411,37.5055],[127.146,37.5032],[127.1508,37.5041],[127.1564,37.5019],[127.1577,37.5032],[127.1614,37.5],[127.16,37.4944],[127.1574,37.4891],[127.1487,37.484],[127.1475,37.482],[127.1471,37.4772],[127.1444,37.4773],[127.1435,37.4739],[127.1329,37.4746],[127.1328,37.4684],[127.1305,37.4677],[127.1249,37.4696],[127.1252,37.4678],[127.1242,37.4665],[127.1079,37.489],[127.1034,37.4928],[127.0959,37.4963],[127.077,37.5021],[127.0698,37.5027],[127.0675,37.5246],[127.077,37.5225],[127.0856,37.5248],[127.0913,37.528],[127.1083,37.5414],[127.1092,37.5432],[127.1131,37.5432],[127.1234,37.5386],[127.1193,37.5279]]]]}},{"type":"Feature","properties":{"code":"11250","name":"강동구"},"geometry":{"type":"MultiPolygon","coordinates":[[[[127.1754,37.5783],[127.1757,37.5749],[127.1778,37.5721],[127.182,37.561],[127.1813,37.553],[127.1829,37.5502],[127.1828,37.5465],[127.1835,37.5452],[127.1799,37.5466],[127.1757,37.5452],[127.1632,37.545],[127.154,37.5345],[127.1532,37.5291],[127.1478,37.5221],[127.1458,37.5219],[127.1448,37.5194],[127.1451,37.5168],[127.1193,37.5279],[127.1234,37.5386],[127.1131,37.5432],[127.1092,37.5432],[127.1115,37.5469],[127.1115,37.5504],[127.1173,37.5594],[127.123,37.5635],[127.1343,37.568],[127.1489,37.5684],[127.1667,37.579],[127.1718,37.5793],[127.1772,37.5812],[127.1767,37.5791],[127.1754,37.5783]]]]}}]}