{"type":"FeatureCollection","features":[{"type":"Feature","properties":{"code":"21010","name":"중구"},"geometry":{"type":"MultiPolygon","coordinates":[[[[129.0468,35.1068],[129.0403,35.107],[129.0436,35.1034],[129.0382,35.1044],[129.0399,35.1004],[129.0374,35.0967],[129.0264,35.0957],[129.0215,35.1019],[129.0224,35.1075],[129.0276,35.1102],[129.0274,35.1155],[129.0328,35.1162],[129.0468,35.1068]]]]}},{"type":"Feature","properties":{"code":"21020","name":"서구"},"geometry":{"type":"MultiPolygon","coordinates":[[[[129.0256,35.1357],[129.0243,35.1188],[129.0281,35.1131],[129.0212,35.1032],[129.0264,35.0957],[129.0246,35.0763],[129.0169,35.0743],[129.0213,35.0697],[129.0223,35.0619],[129.0156,35.0532],[129.0106,35.0517],[129.0088,35.0605],[129.0111,35.063],[129.0045,35.0784],[129.0112,35.0768],[129.0142,35.0937],[129.0072,35.0995],[129.0105,35.1057],[128.9988,35.1198],[129.0036,35.1265],[129.0043,35.1364],[128.996,35.1404],[129.0256,35.1357]]]]}},{"type":"Feature","properties":{"code":"21030","name":"동구"},"geometry":{"type":"MultiPolygon","coordinates":[[[[129.0645,35.1414],[129.0661,35.1303],[129.0561,35.118],[129.0523,35.1205],[129.0554,35.1253],[129.05,35.1236],[129.0487,35.1207],[129.0553,35.116],[129.0473,35.1166],[129.0508,35.1125],[129.044,35.1076],[129.0328,35.1162],[129.0246,35.1179],[129.0256,35.1357],[129.0384,35.1397],[129.0411,35.1462],[129.0645,35.1414]]]]}},{"type":"Feature","properties":{"code":"21040","name":"영도구"},"geometry":{"type":"MultiPolygon","coordinates":[[[[129.0614,35.0979],[129.0685,35.0959],[129.0784,35.0872],[129.0793,35.082],[129.0832,35.0858],[129.0793,35.0815],[129.0834,35.0752],[129.096,35.0804],[129.0908,35.0738],[129.08,35.0714],[129.0842,35.0697],[129.0879,35.0627],[129.0956,35.06],[129.0915,35.051],[129.0827,35.0505],[129.0772,35.0604],[129.0708,35.0586],[129.0648,35.0616],[129.065,35.0684],[129.0569,35.0695],[129.04,35.0805],[129.0312,35.0923],[129.0442,35.097],[129.0489,35.0953],[129.0478,35.0979],[129.0521,35.0966],[129.0511,35.0996],[129.0624,35.104],[129.0614,35.0979]]]]}},{"type":"Feature","properties":{"code":"21050","name":"부산진구"},"geometry":{"type":"MultiPolygon","coordinates":[[[[129.0513,35.1849],[129.0615,35.1835],[129.0628,35.1773],[129.0703,35.1758],[129.072,35.1796],[129.0818,35.1719],[129.0781,35.1644],[129.082,35.1555],[129.0787,35.1505],[129.063,35.1487],[129.0645,35.1414],[129.0412,35.1462],[129.0336,35.1372],[129.0127,35.137],[129.0167,35.1528],[129.0106,35.1587],[129.0129,35.1665],[129.0106,35.1736],[129.0193,35.1805],[129.0255,35.1941],[129.0441,35.1994],[129.0513,35.1849]]]]}},{"type":"Feature","properties":{"code":"21060","name":"동래구"},"geometry":{"type":"MultiPolygon","coordinates":[[[[129.0873,35.2219],[129.0839,35.2172],[129.1102,35.2101],[129.1111,35.2047],[129.116,35.2011],[129.1151,35.1837],[129.1118,35.1889],[129.0874,35.1937],[129.0806,35.1994],[129.0623,35.1917],[129.0482,35.1945],[129.0442,35.2017],[129.0504,35.2072],[129.0589,35.2248],[129.0783,35.2256],[129.0873,35.2219]]]]}},{"type":"Feature","properties":{"code":"21070","name":"남구"},"geometry":{"type":"MultiPolygon","coordinates":[[[[129.1012,35.1518],[129.1022,35.1427],[129.1141,35.1358],[129.1129,35.1351],[129.1178,35.1321],[129.1169,35.13],[129.1133,35.1262],[129.1128,35.125],[129.1205,35.1339],[129.129,35.1182],[129.1242,35.0994],[129.113,35.103],[129.1105,35.1011],[129.1145,35.0979],[129.1095,35.0915],[129.114,35.0978],[129.1106,35.1007],[129.1023,35.0945],[129.1051,35.0919],[129.0996,35.0912],[129.0952,35.0939],[129.093,35.1093],[129.0904,35.1087],[129.0904,35.1036],[129.075,35.1036],[129.0655,35.1091],[129.0738,35.1168],[129.0695,35.1183],[129.073,35.1222],[129.0653,35.1229],[129.0661,35.137],[129.063,35.1487],[129.0787,35.1505],[129.0828,35.1582],[129.0954,35.1613],[129.1012,35.1518]],[[129.1015,35.0916],[129.1033,35.0934],[129.0988,35.0954],[129.1015,35.0916]]]]}},{"type":"Feature","properties":{"code":"21080","name":"북구"},"geometry":{"type":"MultiPolygon","coordinates":[[[[129.0475,35.2742],[129.0424,35.264],[129.0366,35.2607],[129.0485,35.2553],[129.0456,35.2473],[129.0504,35.2412],[129.0443,35.2307],[129.0522,35.2281],[129.0605,35.2298],[129.0618,35.2258],[129.0441,35.1994],[129.0255,35.1941],[129.0211,35.1875],[129.001,35.19],[128.9938,35.1953],[128.9909,35.1939],[128.9879,35.1959],[128.9877,35.2015],[128.9954,35.2127],[128.9968,35.2361],[129.0131,35.2665],[129.0135,35.2738],[129.0348,35.2763],[129.0475,35.2742]]]]}},{"type":"Feature","properties":{"code":"21090","name":"해운대구"},"geometry":{"type":"MultiPolygon","coordinates":[[[[129.1609,35.2355],[129.169,35.2278],[129.1601,35.2064],[129.1843,35.1972],[129.1848,35.1895],[129.1898,35.1904],[129.1958,35.1989],[129.2069,35.1969],[129.2084,35.182],[129.1984,35.1768],[129.1944,35.1602],[129.1873,35.1595],[129.1817,35.1548],[129.1684,35.1591],[129.1565,35.1572],[129.1526,35.1517],[129.1497,35.1521],[129.1533,35.158],[129.1467,35.1534],[129.1423,35.1546],[129.1389,35.1613],[129.1309,35.1613],[129.126,35.1653],[129.1147,35.188],[129.116,35.2011],[129.1111,35.2047],[129.1102,35.2101],[129.1192,35.2144],[129.1175,35.224],[129.127,35.2271],[129.131,35.2353],[129.1406,35.2416],[129.1446,35.2509],[129.1486,35.2461],[129.1564,35.2443],[129.1551,35.2369],[129.1609,35.2355]]]]}},{"type":"Feature","properties":{"code":"21100","name":"사하구"},"geometry":{"type":"MultiPolygon","coordinates":[[[[128.9541,35.0556],[128.9456,35.0619],[128.9502,35.0545],[128.9423,35.0567],[128.9378,35.0543],[128.9537,35.0532],[128.9564,35.0469],[128.9305,35.0491],[128.9242,35.0548],[128.9287,35.0569],[128.9306,35.0517],[128.9361,35.0505],[128.9302,35.0583],[128.9443,35.0745],[128.9535,35.062],[128.9541,35.0556]]],[[[128.9527,35.072],[128.9569,35.0728],[128.9526,35.0722],[128.9503,35.0818],[128.956,35.1064],[128.9488,35.1071],[128.9431,35.0864],[128.9327,35.074],[128.9294,35.0739],[128.9285,35.0784],[128.933,35.0984],[128.939,35.108],[128.9349,35.1119],[128.9567,35.1351],[128.9622,35.1368],[128.9575,35.1243],[128.9584,35.1186],[128.9637,35.1219],[128.9801,35.1171],[128.987,35.1242],[128.9997,35.1233],[129.0035,35.1113],[129.0105,35.1057],[129.0072,35.0995],[129.0144,35.091],[129.0112,35.0768],[129.0045,35.0784],[129.0035,35.0861],[129.0,35.0836],[129.0012,35.0798],[128.9931,35.0839],[128.9977,35.0574],[129.0014,35.0484],[129.007,35.0489],[129.0001,35.0476],[128.9986,35.0444],[128.9925,35.0452],[128.9884,35.058],[128.9846,35.0598],[128.9728,35.0569],[128.9737,35.0533],[128.9828,35.0514],[128.9799,35.0477],[128.9697,35.0474],[128.978,35.0402],[128.9731,35.0409],[128.9656,35.0324],[128.9676,35.0438],[128.9593,35.0501],[128.9527,35.072]]]]}},{"type":"Feature","properties":{"code":"21110","name":"금정구"},"geometry":{"type":"MultiPolygon","coordinates":[[[[129.1295,35.2983],[129.131,35.2935],[129.1242,35.2813],[129.126,35.2785],[129.1207,35.2673],[129.122,35.2619],[129.1393,35.2605],[129.1383,35.2543],[129.1446,35.2509],[129.1406,35.2416],[129.131,35.2353],[129.127,35.2271],[129.1175,35.224],[129.1192,35.2144],[129.1051,35.2103],[129.0839,35.2172],[129.0873,35.2219],[129.0782,35.2258],[129.0628,35.2251],[129.0605,35.2298],[129.0522,35.2281],[129.0443,35.2307],[129.0504,35.2412],[129.0456,35.2473],[129.0485,35.2553],[129.0366,35.2607],[129.0424,35.264],[129.0582,35.2947],[129.0702,35.2943],[129.0743,35.2908],[129.0906,35.3034],[129.1056,35.3065],[129.1295,35.2983]]]]}},{"type":"Feature","properties":{"code":"21120","name":"강서구"},"geometry":{"type":"MultiPolygon","coordinates":[[[[128.9155,35.0622],[128.92,35.0613],[128.9169,35.0562],[128.9052,35.0621],[128.9155,35.0622]]],[[[128.8934,35.0636],[128.9197,35.0546],[128.9168,35.0516],[128.8896,35.0595],[128.8861,35.0638],[128.892,35.0616],[128.8934,35.0636]]],[[[128.87,35.0646],[128.858,35.0697],[128.8685,35.0722],[128.8856,35.0685],[128.8853,35.0655],[128.87,35.0646]]],[[[128.8463,35.0636],[128.8368,35.0674],[128.8375,35.0748],[128.8422,35.0695],[128.8549,35.0692],[128.8586,35.0642],[128.8464,35.0603],[128.8463,35.0636]]],[[[128.8512,35.042],[128.8488,35.034],[128.8432,35.0308],[128.8394,35.0194],[128.8349,35.0156],[128.8346,35.0109],[128.841,35.0069],[128.8374,35.0],[128.8399,34.9975],[128.8279,34.9886],[128.8302,34.9946],[128.8218,34.9946],[128.8223,35.0009],[128.8182,35.0043],[128.8232,35.0046],[128.8201,35.0092],[128.8262,35.0104],[128.8272,35.0136],[128.8062,35.0212],[128.8048,35.0241],[128.8131,35.0237],[128.8154,35.0265],[128.8143,35.03],[128.8075,35.0317],[128.8116,35.0342],[128.8124,35.0397],[128.8057,35.0475],[128.7975,35.0493],[128.7969,35.0539],[128.8033,35.0554],[128.791,35.0534],[128.7909,35.0616],[128.8059,35.0615],[128.805,35.0668],[128.8324,35.0713],[128.8324,35.0776],[128.8115,35.0776],[128.8115,35.083],[128.8185,35.083],[128.8287,35.09],[128.8352,35.0864],[128.8337,35.0559],[128.842,35.0541],[128.8458,35.0595],[128.8512,35.042]]],[[[128.8236,35.102],[128.8348,35.1018],[128.8416,35.1059],[128.843,35.1132],[128.8375,35.1161],[128.8381,35.1232],[128.833,35.1299],[128.8274,35.1282],[128.8154,35.1326],[128.8067,35.1425],[128.8021,35.1419],[128.7945,35.1585],[128.816,35.1602],[128.8275,35.1556],[128.836,35.1591],[128.8429,35.158],[128.8463,35.1647],[128.8674,35.1677],[128.8721,35.1626],[128.8652,35.1582],[128.8717,35.1505],[128.8753,35.1512],[128.8744,35.1586],[128.8814,35.1613],[128.8724,35.1723],[128.8811,35.1718],[128.8817,35.1822],[128.8704,35.2016],[128.879,35.21],[128.8864,35.2145],[128.8968,35.2132],[128.9084,35.2168],[128.905,35.2201],[128.9093,35.2229],[128.9092,35.2206],[128.9125,35.2225],[128.9201,35.2164],[128.9407,35.2275],[128.9485,35.2252],[128.9736,35.2274],[128.9968,35.2361],[128.9939,35.2081],[128.9636,35.1845],[128.9596,35.1366],[128.9327,35.1101],[128.9302,35.0927],[128.9132,35.0876],[128.9112,35.0789],[128.8952,35.0789],[128.9006,35.1114],[128.9056,35.1181],[128.8976,35.1203],[128.8895,35.1078],[128.8842,35.0793],[128.8692,35.0814],[128.8724,35.0829],[128.8708,35.0887],[128.8682,35.0832],[128.8389,35.0821],[128.8352,35.0884],[128.8207,35.097],[128.8236,35.102]]]]}},{"type":"Feature","properties":{"code":"21130","name":"연제구"},"geometry":{"type":"MultiPolygon","coordinates":[[[[129.1084,35.1903],[129.1152,35.1836],[129.1114,35.1759],[129.1036,35.1809],[129.0971,35.1786],[129.0971,35.1716],[129.0916,35.1655],[129.0954,35.1613],[129.0828,35.1582],[129.0781,35.1644],[129.082,35.1715],[129.0786,35.1754],[129.072,35.1796],[129.0703,35.1758],[129.0626,35.1774],[129.0615,35.1835],[129.0513,35.1849],[129.0473,35.1922],[129.0482,35.1945],[129.0624,35.1917],[129.0782,35.1995],[129.0906,35.1931],[129.1084,35.1903]]]]}},{"type":"Feature","properties":{"code":"21140","name":"수영구"},"geometry":{"type":"MultiPolygon","coordinates":[[[[129.126,35.1653],[129.1353,35.1557],[129.1181,35.1523],[129.1151,35.1474],[129.1178,35.1404],[129.1112,35.1358],[129.1022,35.1427],[129.1012,35.1518],[129.0916,35.1655],[129.0971,35.1716],[129.0971,35.1786],[129.1036,35.1809],[129.1114,35.1759],[129.1151,35.1863],[129.126,35.1653]]]]}},{"type":"Feature","properties":{"code":"21150","name":"사상구"},"geometry":{"type":"MultiPolygon","coordinates":[[[[129.001,35.19],[129.0211,35.1875],[129.0193,35.1805],[129.0106,35.1736],[129.0129,35.1665],[129.0106,35.1587],[129.0163,35.1546],[129.0141,35.1458],[129.0163,35.1434],[129.0122,35.1375],[128.996,35.1404],[129.0043,35.1364],[129.0036,35.1265],[128.9997,35.1233],[128.987,35.1242],[128.977,35.1169],[128.9637,35.1219],[128.9594,35.1177],[128.9575,35.1243],[128.9622,35.1356],[128.9596,35.1366],[128.9633,35.1836],[128.9877,35.2015],[128.9879,35.1959],[129.001,35.19]]]]}},{"type":"Feature","properties":{"code":"21310","name":"기장군"},"geometry":{"type":"MultiPolygon","coordinates":[[[[129.2354,35.3803],[129.2402,35.3843],[129.2488,35.3832],[129.2506,35.3874],[129.258,35.3841],[129.2655,35.3871],[129.2822,35.3653],[129.2805,35.3562],[129.2849,35.3507],[129.2797,35.3414],[129.2999,35.336],[129.3048,35.3299],[129.3058,35.3246],[129.3037,35.3222],[129.3042,35.3301],[129.3019,35.3202],[129.2915,35.3181],[129.2865,35.3203],[129.2882,35.3234],[129.285,35.3262],[129.2807,35.3265],[129.2682,35.3217],[129.262,35.3154],[129.2579,35.3057],[129.2607,35.2917],[129.2573,35.2889],[129.2592,35.2843],[129.2556,35.2748],[129.2521,35.2711],[129.2466,35.2698],[129.2456,35.2724],[129.2431,35.2642],[129.2358,35.2648],[129.2337,35.2612],[129.2391,35.2574],[129.2521,35.2602],[129.2534,35.2465],[129.2445,35.2443],[129.2499,35.2408],[129.2431,35.2382],[129.245,35.2314],[129.2393,35.2212],[129.2355,35.2183],[129.2273,35.2243],[129.227,35.2176],[129.222,35.2126],[129.2301,35.2041],[129.2302,35.1982],[129.2251,35.196],[129.2241,35.1858],[129.2193,35.1838],[129.2158,35.1873],[129.2084,35.182],[129.2068,35.197],[129.1949,35.1985],[129.1898,35.1904],[129.1848,35.1895],[129.1843,35.1972],[129.1601,35.2064],[129.169,35.2278],[129.1609,35.2355],[129.1554,35.2359],[129.1564,35.2443],[129.1486,35.2461],[129.1383,35.2543],[129.1393,35.2605],[129.122,35.2619],[129.1207,35.2673],[129.1251,35.2745],[129.1242,35.2813],[129.1306,35.2913],[129.1299,35.2974],[129.1086,35.3046],[129.1137,35.3202],[129.1258,35.3321],[129.124,35.3379],[129.1271,35.3454],[129.1346,35.3515],[129.1332,35.3564],[129.1182,35.369],[129.1501,35.3639],[129.1761,35.3514],[129.1988,35.3665],[129.1992,35.376],[129.1936,35.3821],[129.1994,35.389],[129.2165,35.3793],[129.2354,35.3803]]]]}}]}