{"type":"FeatureCollection","features":[{"type":"Feature","properties":{"code":"22010","name":"중구"},"geometry":{"type":"MultiPolygon","coordinates":[[[[128.6126,35.8739],[128.6147,35.8681],[128.6087,35.8608],[128.6083,35.8549],[128.5829,35.8563],[128.5745,35.8601],[128.5738,35.8654],[128.5796,35.8703],[128.5756,35.8731],[128.5777,35.8796],[128.6126,35.8739]]]]}},{"type":"Feature","properties":{"code":"22020","name":"동구"},"geometry":{"type":"MultiPolygon","coordinates":[[[[128.7014,36.0109],[128.7179,36.0081],[128.7269,36.0032],[128.7349,35.993],[128.731,35.9854],[128.7462,35.9729],[128.743,35.9599],[128.738,35.9559],[128.7441,35.944],[128.7367,35.9296],[128.7428,35.9203],[128.7553,35.915],[128.7592,35.9083],[128.7566,35.9036],[128.7613,35.8875],[128.7577,35.8781],[128.7607,35.8739],[128.7598,35.8661],[128.7386,35.8513],[128.7241,35.8599],[128.6854,35.8592],[128.68,35.8621],[128.6758,35.8733],[128.6649,35.8728],[128.6594,35.8768],[128.645,35.8766],[128.6298,35.8667],[128.6147,35.8681],[128.6126,35.8739],[128.6068,35.8769],[128.6222,35.8924],[128.628,35.8895],[128.6316,35.8931],[128.6269,35.9042],[128.6321,35.9079],[128.6326,35.9167],[128.6318,35.9264],[128.6253,35.9357],[128.6266,35.9454],[128.6233,35.9462],[128.6267,35.9581],[128.6183,35.9706],[128.6189,35.9765],[128.6034,35.9878],[128.6187,36.0064],[128.6407,36.0105],[128.651,36.0073],[128.6695,36.0133],[128.696,36.0156],[128.7014,36.0109]]]]}},{"type":"Feature","properties":{"code":"22030","name":"서구"},"geometry":{"type":"MultiPolygon","coordinates":[[[[128.5818,35.8851],[128.5755,35.8739],[128.5796,35.8703],[128.5742,35.8626],[128.5481,35.8543],[128.5276,35.8616],[128.5274,35.8649],[128.5191,35.8694],[128.5212,35.8727],[128.5177,35.8847],[128.5264,35.8883],[128.5347,35.8858],[128.5409,35.8935],[128.5519,35.8972],[128.5546,35.891],[128.5818,35.8851]]]]}},{"type":"Feature","properties":{"code":"22040","name":"남구"},"geometry":{"type":"MultiPolygon","coordinates":[[[[128.5829,35.8563],[128.6087,35.8543],[128.6058,35.8349],[128.6077,35.8271],[128.605,35.8268],[128.5998,35.8148],[128.5878,35.8077],[128.5838,35.8074],[128.5686,35.8249],[128.5631,35.8243],[128.5555,35.8344],[128.5621,35.8435],[128.5736,35.8512],[128.5745,35.8601],[128.5829,35.8563]]]]}},{"type":"Feature","properties":{"code":"22050","name":"북구"},"geometry":{"type":"MultiPolygon","coordinates":[[[[128.6199,35.974],[128.6183,35.9706],[128.6267,35.9581],[128.6233,35.9462],[128.6266,35.9454],[128.6253,35.9357],[128.6318,35.9264],[128.6321,35.9079],[128.6269,35.9042],[128.6317,35.894],[128.628,35.8895],[128.6222,35.8924],[128.617,35.8888],[128.607,35.8776],[128.6106,35.875],[128.6044,35.8738],[128.58,35.8791],[128.5818,35.8851],[128.5549,35.8908],[128.5519,35.8972],[128.5409,35.8935],[128.5339,35.8857],[128.5133,35.8932],[128.5048,35.8914],[128.5077,35.907],[128.5295,35.9236],[128.5344,35.9353],[128.5325,35.9505],[128.5348,35.9584],[128.5305,35.962],[128.5267,35.9754],[128.5288,35.9804],[128.5435,35.9748],[128.5467,35.9657],[128.5533,35.9608],[128.5571,35.9722],[128.5647,35.9729],[128.5728,35.9783],[128.5902,35.9792],[128.6034,35.9878],[128.6199,35.974]]]]}},{"type":"Feature","properties":{"code":"22060","name":"수성구"},"geometry":{"type":"MultiPolygon","coordinates":[[[[128.6674,35.8724],[128.6758,35.8733],[128.68,35.8621],[128.686,35.859],[128.7241,35.8599],[128.7259,35.8579],[128.7219,35.8569],[128.7269,35.8472],[128.725,35.836],[128.7192,35.8359],[128.7086,35.8266],[128.7175,35.8068],[128.6998,35.795],[128.6933,35.7968],[128.6825,35.7901],[128.6749,35.7952],[128.6535,35.7993],[128.6513,35.8028],[128.6291,35.8025],[128.6231,35.8059],[128.6164,35.8036],[128.5915,35.8093],[128.6007,35.8157],[128.605,35.8268],[128.6077,35.8271],[128.6081,35.8594],[128.6147,35.8681],[128.6298,35.8667],[128.645,35.8766],[128.6674,35.8724]]]]}},{"type":"Feature","properties":{"code":"22070","name":"달서구"},"geometry":{"type":"MultiPolygon","coordinates":[[[[128.4811,35.8301],[128.4687,35.8385],[128.4731,35.8582],[128.4817,35.8683],[128.5006,35.8634],[128.5078,35.866],[128.5094,35.8696],[128.5191,35.8694],[128.5274,35.8649],[128.5276,35.8616],[128.5481,35.8543],[128.5742,35.8626],[128.5736,35.8512],[128.5621,35.8435],[128.5555,35.8344],[128.5631,35.8243],[128.5686,35.8249],[128.5838,35.8074],[128.5878,35.8077],[128.5852,35.7989],[128.567,35.795],[128.5703,35.7799],[128.5652,35.7746],[128.5545,35.7729],[128.5414,35.7898],[128.5371,35.7868],[128.5288,35.7881],[128.5273,35.7929],[128.5174,35.7984],[128.5145,35.8058],[128.5079,35.8062],[128.5126,35.8111],[128.49,35.82],[128.4827,35.8155],[128.4811,35.8301]]]]}},{"type":"Feature","properties":{"code":"22310","name":"달성군"},"geometry":{"type":"MultiPolygon","coordinates":[[[[128.5126,35.8111],[128.5079,35.8062],[128.5145,35.8058],[128.5174,35.7984],[128.5273,35.7929],[128.5288,35.7881],[128.5371,35.7868],[128.5414,35.7898],[128.5545,35.7729],[128.565,35.7744],[128.5703,35.7799],[128.567,35.795],[128.5694,35.7974],[128.5764,35.7959],[128.5852,35.7989],[128.5878,35.8077],[128.5915,35.8093],[128.6164,35.8036],[128.6231,35.8059],[128.6291,35.8025],[128.6513,35.8028],[128.6535,35.7993],[128.6749,35.7952],[128.6825,35.7901],[128.6816,35.784],[128.6871,35.7755],[128.6864,35.7687],[128.6952,35.7569],[128.6937,35.7437],[128.6891,35.7398],[128.691,35.7309],[128.6831,35.7256],[128.6832,35.7215],[128.6635,35.7205],[128.6473,35.7115],[128.6462,35.7082],[128.6309,35.7068],[128.624,35.7023],[128.6198,35.7029],[128.6139,35.7098],[128.6169,35.7176],[128.6099,35.7249],[128.6149,35.7303],[128.6124,35.7385],[128.5942,35.7371],[128.5896,35.7315],[128.5824,35.7383],[128.5717,35.7346],[128.5648,35.7368],[128.561,35.7297],[128.5279,35.7127],[128.5339,35.7033],[128.5318,35.6833],[128.5076,35.6729],[128.5068,35.6501],[128.5107,35.6457],[128.5062,35.6396],[128.4827,35.635],[128.4785,35.6405],[128.4707,35.6366],[128.4603,35.6406],[128.4532,35.6369],[128.4465,35.6384],[128.4322,35.624],[128.4229,35.6252],[128.413,35.6166],[128.4069,35.6145],[128.4029,35.6173],[128.3844,35.6099],[128.3824,35.6065],[128.3727,35.6084],[128.3734,35.6125],[128.3884,35.6179],[128.4013,35.6327],[128.4,35.6456],[128.3623,35.6756],[128.3533,35.6909],[128.3518,35.704],[128.3589,35.7087],[128.4154,35.696],[128.4255,35.6992],[128.4348,35.7105],[128.4318,35.7256],[128.3912,35.7484],[128.3834,35.7583],[128.3844,35.7616],[128.3976,35.7786],[128.4081,35.7992],[128.4158,35.8028],[128.4158,35.8061],[128.4208,35.8063],[128.4208,35.8094],[128.4704,35.8059],[128.49,35.82],[128.5126,35.8111]]],[[[128.4736,35.9165],[128.4654,35.9086],[128.4678,35.9002],[128.4753,35.8945],[128.4906,35.8976],[128.5003,35.8864],[128.5088,35.8933],[128.5264,35.8883],[128.5166,35.8838],[128.5212,35.8727],[128.5191,35.8694],[128.5094,35.8696],[128.5078,35.866],[128.5006,35.8634],[128.4817,35.8683],[128.4731,35.8582],[128.4687,35.8396],[128.4447,35.8479],[128.3835,35.8528],[128.3842,35.8657],[128.3981,35.8927],[128.399,35.8999],[128.4071,35.9007],[128.4249,35.928],[128.4387,35.9315],[128.4416,35.9352],[128.4503,35.935],[128.4542,35.9431],[128.4758,35.9355],[128.4736,35.9165]]]]}}]}