{"type":"FeatureCollection","features":[{"type":"Feature","properties":{"code":"23010","name":"중구"},"geometry":{"type":"MultiPolygon","coordinates":[[[[126.389,37.4031],[126.3968,37.4055],[126.396,37.4032],[126.3901,37.3957],[126.389,37.4031]]],[[[126.4299,37.3911],[126.4417,37.385],[126.4415,37.3816],[126.4347,37.3817],[126.4405,37.3783],[126.434,37.3746],[126.4338,37.3688],[126.4133,37.3663],[126.4068,37.3727],[126.4096,37.3764],[126.4082,37.3869],[126.4037,37.3918],[126.3958,37.3925],[126.4003,37.3957],[126.4048,37.4104],[126.4081,37.4126],[126.4299,37.3911]]],[[[126.6168,37.4835],[126.6276,37.4796],[126.6434,37.468],[126.6294,37.4523],[126.6324,37.4299],[126.6102,37.4301],[126.6142,37.4374],[126.6078,37.4411],[126.6099,37.4443],[126.6167,37.4416],[126.6187,37.4447],[126.6106,37.448],[126.6139,37.4531],[126.6109,37.4543],[126.6011,37.4383],[126.5943,37.4383],[126.5932,37.4494],[126.597,37.4503],[126.5934,37.4549],[126.6032,37.4567],[126.6021,37.4603],[126.595,37.4569],[126.5947,37.4571],[126.5957,37.4642],[126.6004,37.4655],[126.6048,37.4647],[126.6033,37.4601],[126.6122,37.4624],[126.6242,37.4577],[126.6203,37.4625],[126.6267,37.4617],[126.6142,37.4666],[126.625,37.4666],[126.6156,37.4702],[126.6124,37.4772],[126.607,37.4756],[126.6099,37.4692],[126.6061,37.4663],[126.5954,37.4697],[126.6007,37.4818],[126.6081,37.4868],[126.6098,37.4829],[126.6051,37.4801],[126.6168,37.4835]]],[[[126.5925,37.4581],[126.5909,37.462],[126.5947,37.4571],[126.5925,37.4581]]],[[[126.4133,37.4352],[126.4065,37.4386],[126.4,37.4338],[126.404,37.4396],[126.3951,37.4461],[126.3803,37.4396],[126.3808,37.435],[126.3766,37.4416],[126.364,37.4422],[126.3705,37.4441],[126.3716,37.4473],[126.3682,37.4566],[126.3608,37.4578],[126.3595,37.4595],[126.3569,37.4622],[126.356,37.4695],[126.364,37.4747],[126.3743,37.4723],[126.4183,37.497],[126.4738,37.4991],[126.4937,37.5075],[126.4966,37.5261],[126.5014,37.5345],[126.5028,37.5308],[126.5169,37.5338],[126.5255,37.5273],[126.5249,37.5249],[126.5639,37.5148],[126.577,37.5036],[126.5824,37.4892],[126.5659,37.48],[126.5345,37.4753],[126.5063,37.4657],[126.4932,37.4554],[126.4854,37.4445],[126.4429,37.421],[126.4189,37.4219],[126.4133,37.4352]]],[[[126.5753,37.5295],[126.5823,37.5235],[126.5753,37.5277],[126.5753,37.5212],[126.5581,37.5211],[126.5516,37.5283],[126.5438,37.5227],[126.5667,37.5406],[126.5764,37.5436],[126.5753,37.5295]]]]}},{"type":"Feature","properties":{"code":"23020","name":"동구"},"geometry":{"type":"MultiPolygon","coordinates":[[[[126.6408,37.4958],[126.6744,37.4756],[126.655,37.484],[126.6513,37.4741],[126.6528,37.4703],[126.6427,37.4683],[126.6276,37.4796],[126.6168,37.4835],[126.6197,37.4859],[126.6117,37.4835],[126.6098,37.4874],[126.6263,37.4925],[126.6377,37.4823],[126.6275,37.4934],[126.6408,37.4958]]]]}},{"type":"Feature","properties":{"code":"23030","name":"남구"},"geometry":{"type":"MultiPolygon","coordinates":[[[[126.685,37.4726],[126.6868,37.4662],[126.6927,37.4657],[126.6972,37.4613],[126.6932,37.4467],[126.7029,37.4432],[126.7022,37.4392],[126.6953,37.4386],[126.6977,37.4336],[126.6758,37.4304],[126.6556,37.4354],[126.6324,37.4299],[126.6294,37.4523],[126.6427,37.4683],[126.6528,37.4703],[126.6513,37.4741],[126.655,37.484],[126.685,37.4726]]]]}},{"type":"Feature","properties":{"code":"23040","name":"연수구"},"geometry":{"type":"MultiPolygon","coordinates":[[[[126.6081,37.4268],[126.6328,37.4269],[126.6346,37.4181],[126.6373,37.4212],[126.6334,37.4319],[126.6385,37.4304],[126.6482,37.435],[126.6855,37.4302],[126.6892,37.4333],[126.6977,37.4336],[126.6953,37.4386],[126.7024,37.4394],[126.7066,37.4343],[126.704,37.4249],[126.6869,37.4105],[126.6843,37.4047],[126.6669,37.3922],[126.684,37.3846],[126.6956,37.3832],[126.6646,37.35],[126.6549,37.3474],[126.642,37.3471],[126.6421,37.3442],[126.6515,37.3445],[126.6541,37.3436],[126.6228,37.3418],[126.6149,37.343],[126.6134,37.3474],[126.6135,37.3435],[126.6098,37.3435],[126.6103,37.3374],[126.6057,37.3373],[126.6093,37.3435],[126.595,37.3433],[126.594,37.3373],[126.5806,37.3373],[126.591,37.3394],[126.5963,37.3472],[126.583,37.3472],[126.5829,37.3548],[126.639,37.355],[126.6219,37.3546],[126.6209,37.3477],[126.6414,37.3477],[126.6515,37.3529],[126.6427,37.355],[126.6519,37.3532],[126.6544,37.3559],[126.6162,37.3795],[126.6081,37.394],[126.6097,37.4162],[126.6017,37.4162],[126.5984,37.416],[126.5982,37.4161],[126.6081,37.4268]],[[126.6442,37.3476],[126.6628,37.3509],[126.6548,37.3558],[126.6526,37.3535],[126.6442,37.3476]]]]}},{"type":"Feature","properties":{"code":"23050","name":"남동구"},"geometry":{"type":"MultiPolygon","coordinates":[[[[126.7309,37.473],[126.7419,37.4694],[126.7461,37.4647],[126.7527,37.4648],[126.7571,37.4691],[126.7782,37.4718],[126.7781,37.457],[126.7804,37.455],[126.779,37.4511],[126.7707,37.4485],[126.7692,37.4275],[126.7533,37.4227],[126.755,37.418],[126.7516,37.4109],[126.7213,37.3825],[126.6845,37.3858],[126.6669,37.3922],[126.6843,37.4047],[126.6869,37.4105],[126.7053,37.4273],[126.7066,37.4343],[126.7029,37.4432],[126.6932,37.4467],[126.6972,37.4613],[126.6927,37.4657],[126.6868,37.4662],[126.6872,37.469],[126.6843,37.4695],[126.6862,37.4723],[126.7033,37.4677],[126.708,37.4693],[126.7109,37.4799],[126.7238,37.4699],[126.7309,37.473]]]]}},{"type":"Feature","properties":{"code":"23060","name":"부평구"},"geometry":{"type":"MultiPolygon","coordinates":[[[[126.7581,37.5158],[126.7459,37.5152],[126.7416,37.5088],[126.7424,37.4869],[126.7555,37.4829],[126.7592,37.4769],[126.7671,37.4736],[126.766,37.4697],[126.7461,37.4647],[126.7419,37.4694],[126.7309,37.473],[126.722,37.4701],[126.7109,37.4799],[126.708,37.4693],[126.7033,37.4677],[126.6842,37.4736],[126.6907,37.4791],[126.6923,37.4851],[126.6996,37.4854],[126.6975,37.4904],[126.692,37.4925],[126.6889,37.4986],[126.6922,37.5017],[126.6833,37.5145],[126.687,37.5223],[126.7603,37.5241],[126.7581,37.5158]]]]}},{"type":"Feature","properties":{"code":"23070","name":"계양구"},"geometry":{"type":"MultiPolygon","coordinates":[[[[126.7443,37.5925],[126.7522,37.5797],[126.7557,37.5803],[126.758,37.5853],[126.7677,37.5882],[126.7841,37.5826],[126.787,37.5856],[126.7937,37.5816],[126.7759,37.5652],[126.7778,37.5599],[126.7758,37.5619],[126.7645,37.5554],[126.7603,37.5241],[126.6892,37.5236],[126.6869,37.5307],[126.683,37.5312],[126.6836,37.5352],[126.6917,37.5361],[126.6948,37.5419],[126.7063,37.5419],[126.712,37.5526],[126.6997,37.5586],[126.7033,37.5642],[126.6985,37.5677],[126.7007,37.5719],[126.683,37.5773],[126.6819,37.5837],[126.7135,37.5776],[126.7223,37.5907],[126.7443,37.5925]]]]}},{"type":"Feature","properties":{"code":"23080","name":"서구"},"geometry":{"type":"MultiPolygon","coordinates":[[[[126.5616,37.5753],[126.5715,37.5719],[126.5692,37.5699],[126.5586,37.5729],[126.556,37.5789],[126.5616,37.5753]]],[[[126.7182,37.5875],[126.7176,37.5812],[126.7135,37.5776],[126.6819,37.5836],[126.683,37.5773],[126.7007,37.5719],[126.6985,37.5677],[126.7033,37.5642],[126.6997,37.5586],[126.712,37.5526],[126.7063,37.5419],[126.6927,37.5411],[126.6917,37.5361],[126.6845,37.5356],[126.6825,37.5322],[126.6869,37.5307],[126.6892,37.5236],[126.6833,37.5158],[126.6922,37.5017],[126.6889,37.4986],[126.6996,37.4854],[126.6901,37.4832],[126.6907,37.4791],[126.6842,37.4736],[126.6862,37.4723],[126.6858,37.4716],[126.6401,37.4956],[126.6395,37.5042],[126.6308,37.5042],[126.6308,37.5004],[126.6228,37.4963],[126.6046,37.4959],[126.6025,37.5332],[126.5989,37.5332],[126.5965,37.5486],[126.607,37.5545],[126.6011,37.5615],[126.5923,37.5609],[126.5886,37.564],[126.5866,37.5667],[126.5888,37.5698],[126.5748,37.5883],[126.5917,37.5927],[126.6144,37.6063],[126.6257,37.6026],[126.6322,37.6176],[126.6366,37.6205],[126.6372,37.6267],[126.6471,37.6275],[126.654,37.6382],[126.6724,37.6338],[126.6747,37.6299],[126.6945,37.6203],[126.7054,37.6121],[126.7047,37.6025],[126.7141,37.6039],[126.7255,37.5919],[126.7182,37.5875]]]]}},{"type":"Feature","properties":{"code":"23310","name":"강화군"},"geometry":{"type":"MultiPolygon","coordinates":[[[[126.2562,37.6518],[126.2509,37.6378],[126.2529,37.6325],[126.2603,37.6294],[126.2627,37.6254],[126.2344,37.6391],[126.2228,37.6537],[126.228,37.6512],[126.2319,37.6556],[126.2562,37.6518]]],[[[126.2372,37.6615],[126.2235,37.659],[126.2223,37.6655],[126.2372,37.6615]]],[[[126.2049,37.6695],[126.2099,37.6667],[126.2051,37.657],[126.1899,37.6576],[126.1925,37.6615],[126.1851,37.6676],[126.1784,37.6707],[126.1678,37.6669],[126.156,37.6728],[126.155,37.6768],[126.1747,37.6768],[126.1929,37.6883],[126.196,37.688],[126.1952,37.6848],[126.2049,37.6695]]],[[[126.143,37.6856],[126.1443,37.6815],[126.1269,37.682],[126.1222,37.6873],[126.1267,37.6923],[126.143,37.6856]]],[[[126.2323,37.716],[126.2183,37.721],[126.2238,37.7225],[126.2323,37.7333],[126.2359,37.7314],[126.2381,37.7218],[126.248,37.7185],[126.2323,37.716]]],[[[126.2692,37.7252],[126.2584,37.7251],[126.2584,37.7337],[126.2656,37.7379],[126.2692,37.7252]]],[[[126.3185,37.73],[126.3194,37.7126],[126.3429,37.6975],[126.3663,37.6946],[126.379,37.6823],[126.3732,37.6658],[126.3432,37.6496],[126.341,37.6441],[126.3257,37.6566],[126.3287,37.6702],[126.3188,37.6819],[126.2888,37.6953],[126.2858,37.7007],[126.2694,37.7107],[126.275,37.7121],[126.282,37.709],[126.2876,37.714],[126.289,37.7422],[126.2925,37.7447],[126.3052,37.7464],[126.318,37.7524],[126.3238,37.7517],[126.3296,37.7463],[126.3185,37.73]]],[[[126.2947,37.8018],[126.3133,37.802],[126.3217,37.8044],[126.3243,37.8082],[126.3334,37.7969],[126.3301,37.7938],[126.3313,37.7897],[126.315,37.7737],[126.2908,37.7629],[126.2787,37.7689],[126.26,37.7642],[126.2483,37.7656],[126.2419,37.7636],[126.2403,37.7578],[126.2328,37.7511],[126.205,37.7685],[126.2053,37.773],[126.2163,37.7782],[126.2222,37.7869],[126.2229,37.7916],[126.2188,37.7955],[126.224,37.8003],[126.2232,37.805],[126.2405,37.8173],[126.2568,37.8146],[126.2645,37.8178],[126.2947,37.8018]]],[[[126.4556,37.8085],[126.4877,37.7898],[126.5059,37.7833],[126.5128,37.7706],[126.5102,37.7673],[126.5116,37.7623],[126.5264,37.7476],[126.5249,37.7397],[126.5141,37.7263],[126.5125,37.717],[126.5168,37.7079],[126.5254,37.7019],[126.5209,37.6964],[126.5169,37.6747],[126.5231,37.6676],[126.5322,37.6651],[126.5326,37.6609],[126.5229,37.6563],[126.5269,37.6474],[126.5221,37.6462],[126.5262,37.6447],[126.5311,37.636],[126.5353,37.6222],[126.5401,37.6245],[126.544,37.6184],[126.5203,37.6107],[126.5151,37.5969],[126.5238,37.5979],[126.518,37.5921],[126.5262,37.5866],[126.5173,37.58],[126.5108,37.5817],[126.5032,37.5904],[126.5135,37.5935],[126.5129,37.5994],[126.5041,37.5963],[126.4796,37.6053],[126.4784,37.599],[126.4636,37.5951],[126.4618,37.5893],[126.4564,37.5934],[126.447,37.5945],[126.405,37.5939],[126.388,37.603],[126.3841,37.6084],[126.3701,37.6135],[126.3774,37.6157],[126.3775,37.6193],[126.3742,37.6308],[126.3657,37.6351],[126.3906,37.6412],[126.3977,37.6401],[126.411,37.6521],[126.4036,37.6758],[126.3881,37.69],[126.3913,37.6956],[126.3855,37.7],[126.3592,37.7036],[126.3514,37.7155],[126.3536,37.7234],[126.3519,37.7401],[126.357,37.7411],[126.3531,37.7448],[126.3555,37.7623],[126.3527,37.7868],[126.3495,37.7897],[126.3699,37.8014],[126.387,37.8071],[126.3925,37.8232],[126.4139,37.8219],[126.4267,37.8316],[126.4359,37.8296],[126.4556,37.8085]]]]}},{"type":"Feature","properties":{"code":"23320","name":"옹진군"},"geometry":{"type":"MultiPolygon","coordinates":[[[[125.9945,37.0371],[125.9906,37.0306],[125.9934,37.0273],[125.9961,37.027],[125.9993,37.0286],[126.0025,37.0294],[126.0041,37.0293],[125.9977,37.0261],[126.0004,37.0246],[126.0069,37.0237],[126.0213,37.0305],[126.0039,37.0187],[125.9953,37.0176],[125.9922,37.0197],[125.9933,37.0245],[125.9787,37.0338],[125.9807,37.0402],[125.9945,37.0371]]],[[[126.0003,37.0597],[125.9981,37.0577],[125.9925,37.0596],[125.9949,37.0661],[126.0003,37.0597]]],[[[126.0116,37.0639],[126.0177,37.0783],[126.0203,37.0788],[126.0202,37.0692],[126.0116,37.0639]]],[[[125.9668,37.0877],[125.9671,37.0843],[125.9643,37.081],[125.9523,37.0861],[125.9541,37.0757],[125.9492,37.075],[125.9523,37.0677],[125.9462,37.0689],[125.947,37.0774],[125.9421,37.0763],[125.9411,37.0813],[125.9469,37.0828],[125.946,37.0886],[125.9496,37.0933],[125.9668,37.0877]]],[[[126.0903,37.0997],[126.0851,37.0913],[126.0749,37.0836],[126.0643,37.0855],[126.0624,37.089],[126.0667,37.0964],[126.0604,37.096],[126.0672,37.1071],[126.086,37.1061],[126.0903,37.0997]]],[[[126.0248,37.1307],[126.0215,37.1235],[126.0183,37.1258],[126.0183,37.1311],[126.0217,37.1355],[126.0248,37.1307]]],[[[126.3117,37.1719],[126.3231,37.1605],[126.3103,37.1587],[126.2906,37.171],[126.2937,37.1753],[126.3117,37.1719]]],[[[126.2709,37.1757],[126.2731,37.165],[126.2831,37.1621],[126.2811,37.158],[126.2734,37.1596],[126.2732,37.1632],[126.2665,37.168],[126.2551,37.1716],[126.2486,37.1703],[126.2436,37.174],[126.2462,37.1781],[126.2525,37.1769],[126.2534,37.1811],[126.2709,37.1757]]],[[[126.2281,37.1873],[126.2493,37.1832],[126.2391,37.1794],[126.2202,37.1788],[126.2154,37.1824],[126.2156,37.1885],[126.2229,37.1816],[126.2281,37.1873]]],[[[126.1064,37.1788],[126.1109,37.1793],[126.1122,37.1829],[126.1148,37.1804],[126.1082,37.1765],[126.1077,37.1723],[126.1129,37.1701],[126.1084,37.1658],[126.0933,37.1676],[126.0849,37.1764],[126.0952,37.1884],[126.1064,37.1788]]],[[[125.9959,37.2006],[125.9973,37.1979],[125.9948,37.1944],[125.9846,37.192],[125.9843,37.1814],[125.9786,37.1867],[125.9598,37.183],[125.9729,37.1888],[125.9716,37.1951],[125.9856,37.1944],[125.9815,37.2021],[125.9847,37.2039],[125.9869,37.204],[125.9861,37.199],[125.9912,37.1974],[125.9959,37.2006]]],[[[126.1717,37.2227],[126.1801,37.2172],[126.1808,37.2092],[126.1945,37.2086],[126.184,37.2],[126.1836,37.1953],[126.1804,37.1981],[126.1779,37.2107],[126.1658,37.2098],[126.1615,37.2122],[126.1615,37.2219],[126.1701,37.2291],[126.1736,37.2251],[126.1717,37.2227]]],[[[126.519,37.2311],[126.5122,37.2281],[126.512,37.2332],[126.5198,37.2348],[126.519,37.2311]]],[[[126.525,37.2464],[126.5115,37.2535],[126.5234,37.2614],[126.5215,37.2585],[126.5291,37.2521],[126.5267,37.2484],[126.5387,37.2341],[126.5238,37.2367],[126.525,37.2464]]],[[[126.3153,37.2623],[126.3317,37.2551],[126.3353,37.2564],[126.3354,37.2631],[126.3489,37.2596],[126.3418,37.2501],[126.3306,37.2457],[126.3224,37.2479],[126.317,37.2445],[126.3167,37.2482],[126.305,37.2534],[126.3,37.2527],[126.2864,37.2603],[126.2807,37.2589],[126.28,37.2641],[126.2837,37.2655],[126.285,37.2717],[126.2882,37.2719],[126.2902,37.2671],[126.3153,37.2623]]],[[[126.1105,37.2714],[126.1119,37.2577],[126.1184,37.2581],[126.1177,37.2479],[126.1205,37.2468],[126.128,37.252],[126.1375,37.2465],[126.1408,37.2375],[126.1503,37.2392],[126.1657,37.2307],[126.1551,37.2277],[126.1516,37.2225],[126.1496,37.2255],[126.1436,37.2225],[126.1486,37.2164],[126.1475,37.2138],[126.127,37.2127],[126.1173,37.2092],[126.1103,37.2133],[126.1161,37.2161],[126.1113,37.2236],[126.1038,37.2199],[126.1012,37.2222],[126.105,37.2269],[126.1025,37.2299],[126.0968,37.2305],[126.0913,37.222],[126.0847,37.2219],[126.0919,37.2315],[126.09,37.2478],[126.1026,37.2657],[126.1002,37.2721],[126.1042,37.2743],[126.1105,37.2714]]],[[[126.4806,37.2458],[126.4824,37.2418],[126.4707,37.2389],[126.4684,37.2325],[126.4588,37.224],[126.4528,37.231],[126.4326,37.2325],[126.4298,37.2563],[126.4302,37.2587],[126.4333,37.2578],[126.4285,37.2626],[126.4361,37.2657],[126.434,37.2743],[126.4482,37.272],[126.4539,37.2771],[126.4504,37.2802],[126.4662,37.284],[126.4703,37.2882],[126.4751,37.2826],[126.4878,37.2832],[126.4976,37.277],[126.4943,37.2703],[126.5018,37.2581],[126.4966,37.2537],[126.4922,37.259],[126.4861,37.2594],[126.4867,37.2543],[126.4762,37.2535],[126.4825,37.2478],[126.4821,37.2442],[126.4806,37.2458]]],[[[126.0969,37.2799],[126.0975,37.2769],[126.0875,37.2756],[126.0863,37.281],[126.0757,37.2845],[126.0758,37.2893],[126.0804,37.2899],[126.0969,37.2799]]],[[[126.4121,37.5347],[126.4116,37.5272],[126.4022,37.5309],[126.4044,37.5357],[126.4129,37.5389],[126.4162,37.5362],[126.4121,37.5347]]],[[[126.4735,37.5287],[126.4667,37.5277],[126.4705,37.5221],[126.4674,37.5152],[126.4696,37.5119],[126.4638,37.5113],[126.4591,37.5168],[126.446,37.5199],[126.4389,37.5145],[126.4292,37.5163],[126.434,37.5265],[126.4541,37.5373],[126.4568,37.5444],[126.472,37.5375],[126.4735,37.5287]]],[[[126.4418,37.5446],[126.4344,37.5426],[126.427,37.5223],[126.4159,37.5229],[126.4221,37.5331],[126.4169,37.5363],[126.4202,37.5375],[126.4238,37.5462],[126.4269,37.5484],[126.4322,37.545],[126.4418,37.5446]]],[[[126.3288,37.5506],[126.3375,37.5508],[126.3434,37.5393],[126.3528,37.5353],[126.3661,37.5348],[126.3835,37.5393],[126.3843,37.5307],[126.3814,37.5272],[126.3601,37.5308],[126.3415,37.5257],[126.3363,37.5305],[126.3267,37.5219],[126.3253,37.5253],[126.3302,37.5365],[126.3287,37.5421],[126.3208,37.5454],[126.308,37.5601],[126.3288,37.5506]]],[[[125.7185,37.6036],[125.7072,37.6112],[125.7171,37.6152],[125.7207,37.6137],[125.7185,37.6036]]],[[[125.7147,37.6791],[125.7165,37.6744],[125.7068,37.6633],[125.6928,37.652],[125.6842,37.6528],[125.6815,37.6625],[125.6857,37.6665],[125.6781,37.6793],[125.6829,37.6804],[125.6924,37.6763],[125.7067,37.6809],[125.7147,37.6791]]],[[[124.7653,37.7665],[124.7519,37.7709],[124.7299,37.7593],[124.7274,37.761],[124.742,37.7729],[124.7407,37.7782],[124.7455,37.775],[124.7706,37.7785],[124.7653,37.7665]]],[[[124.72,37.821],[124.7179,37.8138],[124.7028,37.8047],[124.6992,37.8083],[124.6905,37.8082],[124.6835,37.8031],[124.6852,37.7995],[124.6795,37.8022],[124.6843,37.8065],[124.6839,37.8139],[124.6798,37.8166],[124.6756,37.8134],[124.6625,37.8217],[124.6765,37.8198],[124.6878,37.8364],[124.7036,37.8434],[124.7034,37.8497],[124.7099,37.8438],[124.7194,37.8459],[124.7278,37.8406],[124.715,37.8336],[124.7161,37.8256],[124.72,37.821]]],[[[124.6937,37.9795],[124.7048,37.9837],[124.7218,37.9815],[124.7298,37.9781],[124.7328,37.9657],[124.7405,37.9614],[124.7441,37.9625],[124.7463,37.9591],[124.741,37.957],[124.733,37.9623],[124.7301,37.9573],[124.7382,37.9537],[124.7314,37.951],[124.7301,37.9545],[124.7239,37.954],[124.7079,37.9446],[124.6981,37.925],[124.7,37.9199],[124.6913,37.9166],[124.6801,37.923],[124.6707,37.9211],[124.6548,37.9247],[124.6394,37.9239],[124.6286,37.9413],[124.6258,37.9544],[124.6117,37.9614],[124.6097,37.97],[124.6168,37.9795],[124.6406,37.9687],[124.668,37.9772],[124.6709,37.981],[124.6835,37.9796],[124.6835,37.9838],[124.686,37.9842],[124.6872,37.9805],[124.6937,37.9795]]]]}}]}