{"type":"FeatureCollection","features":[{"type":"Feature","properties":{"code":"24010","name":"동구"},"geometry":{"type":"MultiPolygon","coordinates":[[[[126.9389,35.1612],[126.9552,35.1522],[126.9514,35.1445],[126.9553,35.1405],[126.9684,35.1367],[126.9824,35.1376],[126.9926,35.1227],[127.0043,35.1211],[126.9999,35.1141],[126.9864,35.1059],[126.989,35.095],[126.9628,35.0872],[126.9519,35.0732],[126.9323,35.0744],[126.9325,35.0778],[126.9194,35.0916],[126.9214,35.0972],[126.9125,35.1106],[126.9118,35.1156],[126.9194,35.1177],[126.9243,35.1247],[126.9296,35.1264],[126.9072,35.1514],[126.9125,35.1558],[126.9163,35.1655],[126.9389,35.1612]]]]}},{"type":"Feature","properties":{"code":"24020","name":"서구"},"geometry":{"type":"MultiPolygon","coordinates":[[[[126.8842,35.1697],[126.8878,35.1614],[126.8988,35.1581],[126.9097,35.1492],[126.8965,35.1522],[126.8854,35.1466],[126.8883,35.1428],[126.8832,35.1384],[126.8875,35.1339],[126.8877,35.1169],[126.8736,35.1194],[126.8689,35.1137],[126.8706,35.1102],[126.8477,35.1058],[126.8201,35.0909],[126.817,35.093],[126.8111,35.0909],[126.8053,35.0954],[126.8025,35.0935],[126.8009,35.1009],[126.8058,35.1039],[126.8028,35.1123],[126.8092,35.1123],[126.8099,35.1167],[126.8159,35.1169],[126.8222,35.1267],[126.819,35.1328],[126.8297,35.1415],[126.8253,35.1536],[126.8251,35.1658],[126.8374,35.1708],[126.8387,35.1784],[126.8599,35.1723],[126.8842,35.1697]]]]}},{"type":"Feature","properties":{"code":"24030","name":"남구"},"geometry":{"type":"MultiPolygon","coordinates":[[[[126.9097,35.1492],[126.9296,35.1264],[126.9243,35.1247],[126.9194,35.1177],[126.9118,35.1156],[126.914,35.1063],[126.9214,35.0972],[126.9194,35.0916],[126.9058,35.082],[126.892,35.078],[126.8854,35.0816],[126.8717,35.0743],[126.8556,35.0784],[126.8441,35.0654],[126.8223,35.0603],[126.8185,35.0527],[126.8049,35.0516],[126.8012,35.0582],[126.7952,35.0611],[126.7816,35.0538],[126.7728,35.0529],[126.7675,35.0557],[126.7684,35.0614],[126.7651,35.0644],[126.7558,35.0591],[126.7541,35.0669],[126.7825,35.0726],[126.8053,35.0954],[126.8111,35.0909],[126.817,35.093],[126.8201,35.0909],[126.8477,35.1058],[126.8706,35.1102],[126.8689,35.1137],[126.8736,35.1194],[126.8877,35.1169],[126.8875,35.1339],[126.8832,35.1384],[126.8883,35.1428],[126.8854,35.1466],[126.8965,35.1522],[126.9011,35.1523],[126.9046,35.1486],[126.9097,35.1492]]]]}},{"type":"Feature","properties":{"code":"24040","name":"북구"},"geometry":{"type":"MultiPolygon","coordinates":[[[[126.9326,35.2416],[126.9518,35.2246],[126.949,35.2209],[126.9503,35.2164],[126.9604,35.2049],[126.9655,35.2034],[126.9586,35.1931],[126.9681,35.1811],[126.9717,35.1798],[126.974,35.1861],[126.982,35.1839],[126.9858,35.1886],[126.9911,35.1864],[127.0,35.1888],[127.0214,35.173],[127.0209,35.1673],[127.0114,35.1662],[127.0111,35.1589],[127.0077,35.1559],[127.0106,35.1243],[127.0043,35.1211],[126.9926,35.1227],[126.9824,35.1376],[126.9684,35.1367],[126.9553,35.1405],[126.9514,35.1445],[126.9552,35.1522],[126.9389,35.1612],[126.9307,35.1603],[126.9163,35.1655],[126.9125,35.1558],[126.9072,35.1514],[126.8982,35.1584],[126.8878,35.1614],[126.8842,35.1697],[126.8599,35.1723],[126.8387,35.1784],[126.8414,35.1818],[126.8509,35.1798],[126.8604,35.1857],[126.8589,35.1944],[126.852,35.1983],[126.8553,35.2014],[126.8527,35.2123],[126.857,35.2175],[126.853,35.218],[126.853,35.2219],[126.8462,35.222],[126.8447,35.2259],[126.838,35.224],[126.8349,35.229],[126.8443,35.237],[126.8594,35.24],[126.8625,35.2452],[126.8796,35.2515],[126.8792,35.248],[126.8895,35.2467],[126.9055,35.2582],[126.9146,35.2582],[126.9214,35.2532],[126.9294,35.2524],[126.9338,35.2468],[126.9326,35.2416]]]]}},{"type":"Feature","properties":{"code":"24050","name":"광산구"},"geometry":{"type":"MultiPolygon","coordinates":[[[[126.7552,35.2411],[126.7557,35.2341],[126.7749,35.2305],[126.7953,35.2198],[126.8044,35.2213],[126.8054,35.2183],[126.8239,35.2258],[126.8253,35.2319],[126.835,35.2288],[126.8382,35.2239],[126.8447,35.2259],[126.8462,35.222],[126.853,35.2219],[126.853,35.218],[126.857,35.2175],[126.8527,35.2123],[126.8553,35.2014],[126.8521,35.1972],[126.8589,35.1944],[126.8604,35.1857],[126.8502,35.1796],[126.8414,35.1818],[126.8374,35.1708],[126.8251,35.1658],[126.8253,35.1536],[126.8297,35.1415],[126.819,35.1328],[126.8215,35.1251],[126.8159,35.1169],[126.8099,35.1167],[126.8092,35.1123],[126.8028,35.1123],[126.8058,35.1039],[126.8009,35.1009],[126.8022,35.0916],[126.7845,35.0737],[126.7713,35.0702],[126.7648,35.0788],[126.7619,35.091],[126.754,35.0926],[126.749,35.1008],[126.7324,35.1129],[126.7293,35.1075],[126.7088,35.1095],[126.7054,35.113],[126.6975,35.1076],[126.6849,35.112],[126.6844,35.1076],[126.6675,35.1051],[126.6691,35.1113],[126.6634,35.1148],[126.6571,35.1133],[126.6517,35.1205],[126.6549,35.1368],[126.6533,35.144],[126.645,35.1466],[126.6502,35.1477],[126.6535,35.1528],[126.6514,35.1548],[126.6546,35.1584],[126.6542,35.1646],[126.6721,35.1723],[126.6532,35.1925],[126.6721,35.1943],[126.6771,35.191],[126.6776,35.2025],[126.6871,35.2152],[126.7026,35.2076],[126.7107,35.2123],[126.7177,35.2124],[126.7207,35.2188],[126.7187,35.2226],[126.7372,35.2529],[126.7419,35.251],[126.7603,35.2587],[126.7634,35.2565],[126.7552,35.2411]]]]}}]}