{"type":"FeatureCollection","features":[{"type":"Feature","properties":{"code":"25010","name":"동구"},"geometry":{"type":"MultiPolygon","coordinates":[[[[127.5081,36.4083],[127.5107,36.4099],[127.5145,36.4225],[127.5209,36.4216],[127.5243,36.4234],[127.5294,36.4192],[127.5348,36.4193],[127.5396,36.4206],[127.5423,36.4193],[127.5418,36.4157],[127.5429,36.4121],[127.5456,36.4088],[127.5501,36.4071],[127.5517,36.4055],[127.5532,36.4012],[127.5563,36.3997],[127.5588,36.3999],[127.5597,36.3982],[127.554,36.3949],[127.5481,36.3968],[127.5436,36.3961],[127.5431,36.397],[127.5392,36.3979],[127.5334,36.3917],[127.5301,36.3912],[127.5268,36.3877],[127.5249,36.3875],[127.5266,36.3701],[127.5241,36.3659],[127.5245,36.3634],[127.522,36.3579],[127.5229,36.3555],[127.5194,36.3504],[127.512,36.3461],[127.5074,36.3463],[127.5081,36.3432],[127.5008,36.3397],[127.5005,36.3378],[127.5016,36.3362],[127.5009,36.3329],[127.503,36.3256],[127.5,36.3208],[127.496,36.3199],[127.4978,36.3164],[127.4946,36.312],[127.4982,36.3079],[127.499,36.3057],[127.4974,36.3016],[127.4924,36.2999],[127.4912,36.2966],[127.4988,36.2828],[127.4968,36.2792],[127.4888,36.2727],[127.4903,36.2684],[127.4883,36.2672],[127.486,36.2612],[127.4863,36.2592],[127.49,36.2573],[127.4901,36.2546],[127.4876,36.2514],[127.4894,36.246],[127.4923,36.2444],[127.4933,36.2405],[127.4926,36.238],[127.49,36.2371],[127.49,36.2335],[127.4885,36.2325],[127.4865,36.2325],[127.4835,36.2304],[127.4779,36.2297],[127.478,36.2269],[127.4768,36.226],[127.4675,36.2227],[127.4678,36.2171],[127.4696,36.2152],[127.4603,36.2129],[127.4592,36.2097],[127.4542,36.207],[127.4564,36.2036],[127.4556,36.2008],[127.4437,36.1948],[127.4411,36.1948],[127.4408,36.1966],[127.4394,36.1973],[127.4367,36.1985],[127.4335,36.1986],[127.4309,36.2041],[127.4294,36.2052],[127.4239,36.206],[127.4223,36.2081],[127.4261,36.2116],[127.4238,36.2139],[127.4266,36.2185],[127.4256,36.2253],[127.4241,36.2261],[127.4241,36.2278],[127.4268,36.2292],[127.4311,36.2272],[127.4338,36.2278],[127.4342,36.2293],[127.4376,36.2324],[127.4377,36.2366],[127.4432,36.2386],[127.4422,36.2444],[127.4391,36.2457],[127.4358,36.2499],[127.4357,36.2528],[127.4335,36.254],[127.427,36.2545],[127.4305,36.2617],[127.4395,36.2703],[127.4354,36.2752],[127.4336,36.2757],[127.4323,36.2793],[127.4354,36.2817],[127.4273,36.2887],[127.4274,36.291],[127.4278,36.292],[127.4338,36.2911],[127.4423,36.2959],[127.4457,36.2962],[127.4482,36.2921],[127.451,36.2938],[127.4582,36.2937],[127.4559,36.3007],[127.4518,36.3036],[127.4486,36.3076],[127.4484,36.3094],[127.4402,36.3127],[127.437,36.3199],[127.4293,36.3298],[127.4231,36.336],[127.4192,36.339],[127.4159,36.3401],[127.4137,36.3439],[127.4211,36.3444],[127.4184,36.3464],[127.4196,36.3483],[127.4247,36.3487],[127.4279,36.3526],[127.4276,36.3555],[127.4307,36.3591],[127.4354,36.3608],[127.4386,36.3596],[127.4389,36.357],[127.4415,36.3536],[127.4414,36.3523],[127.4452,36.3508],[127.4459,36.3536],[127.4546,36.3544],[127.454,36.3534],[127.4646,36.351],[127.466,36.3603],[127.4633,36.362],[127.4599,36.3686],[127.4582,36.3692],[127.4572,36.3725],[127.4521,36.3786],[127.4512,36.381],[127.4533,36.3835],[127.4553,36.3888],[127.4541,36.3912],[127.4553,36.4],[127.4582,36.4036],[127.4666,36.4086],[127.4724,36.4149],[127.4761,36.4193],[127.4823,36.4315],[127.4883,36.439],[127.4924,36.4394],[127.4897,36.4341],[127.4899,36.4324],[127.4957,36.4227],[127.4974,36.4154],[127.5023,36.4085],[127.5081,36.4083]]]]}},{"type":"Feature","properties":{"code":"25020","name":"중구"},"geometry":{"type":"MultiPolygon","coordinates":[[[[127.4235,36.3356],[127.4326,36.3258],[127.437,36.3199],[127.4402,36.3127],[127.4476,36.3102],[127.4518,36.3036],[127.4555,36.3013],[127.4582,36.2937],[127.451,36.2938],[127.4482,36.2921],[127.4457,36.2962],[127.4423,36.2959],[127.4338,36.2911],[127.4278,36.292],[127.4273,36.2887],[127.4354,36.2817],[127.4323,36.2793],[127.4336,36.2757],[127.4354,36.2752],[127.4395,36.2703],[127.4305,36.2617],[127.427,36.2545],[127.4335,36.254],[127.4357,36.2528],[127.4358,36.2499],[127.4391,36.2457],[127.4422,36.2444],[127.4432,36.2386],[127.4377,36.2366],[127.4376,36.2324],[127.4342,36.2293],[127.4338,36.2278],[127.4311,36.2272],[127.4268,36.2292],[127.4241,36.2278],[127.4241,36.2261],[127.4256,36.2253],[127.4266,36.2185],[127.4238,36.2139],[127.4261,36.2116],[127.4223,36.2081],[127.4198,36.2074],[127.408,36.2129],[127.4106,36.2176],[127.4075,36.2214],[127.4045,36.2229],[127.3993,36.2325],[127.3966,36.2321],[127.3873,36.2342],[127.3873,36.2373],[127.3904,36.2395],[127.3909,36.2429],[127.3879,36.2459],[127.3866,36.2525],[127.3886,36.255],[127.3903,36.2623],[127.3776,36.2715],[127.3725,36.2722],[127.373,36.2746],[127.3713,36.2763],[127.3715,36.2795],[127.3675,36.2849],[127.37,36.2866],[127.3705,36.289],[127.3733,36.2933],[127.3783,36.293],[127.3819,36.2974],[127.3821,36.3008],[127.3802,36.305],[127.3846,36.3088],[127.3871,36.3127],[127.3858,36.3203],[127.3897,36.3287],[127.4029,36.3386],[127.4038,36.3422],[127.4026,36.3462],[127.4039,36.3496],[127.41,36.3477],[127.4145,36.3412],[127.4235,36.3356]]]]}},{"type":"Feature","properties":{"code":"25030","name":"서구"},"geometry":{"type":"MultiPolygon","coordinates":[[[[127.3931,36.3713],[127.3966,36.3676],[127.3976,36.3648],[127.4011,36.3614],[127.4046,36.3533],[127.4026,36.3462],[127.4038,36.3422],[127.4032,36.3392],[127.3981,36.3343],[127.3975,36.3347],[127.3928,36.3314],[127.389,36.3278],[127.3855,36.3191],[127.3871,36.3127],[127.3846,36.3088],[127.3802,36.305],[127.3821,36.3008],[127.3819,36.2974],[127.3783,36.293],[127.3733,36.2933],[127.3705,36.289],[127.37,36.2866],[127.3675,36.2849],[127.3715,36.2795],[127.3713,36.2763],[127.373,36.2746],[127.3718,36.2702],[127.3667,36.2687],[127.3629,36.2691],[127.3607,36.2641],[127.3608,36.2563],[127.3596,36.2547],[127.3642,36.2516],[127.3651,36.2436],[127.3619,36.2342],[127.3634,36.2323],[127.3601,36.2267],[127.3604,36.2255],[127.3635,36.2229],[127.3642,36.2189],[127.3606,36.2185],[127.3594,36.2139],[127.353,36.2118],[127.3495,36.208],[127.3467,36.2033],[127.3477,36.201],[127.3476,36.1976],[127.344,36.1967],[127.3404,36.1889],[127.3355,36.1834],[127.334,36.1831],[127.3317,36.1841],[127.3317,36.1927],[127.3298,36.1942],[127.3336,36.2007],[127.3281,36.2041],[127.3239,36.2032],[127.323,36.2037],[127.3228,36.2064],[127.3209,36.2089],[127.3215,36.2134],[127.3181,36.2159],[127.3152,36.2214],[127.3064,36.2262],[127.3043,36.2296],[127.3036,36.2297],[127.3028,36.2272],[127.3037,36.2232],[127.3026,36.2219],[127.2983,36.2213],[127.2938,36.2231],[127.2923,36.2298],[127.2863,36.2346],[127.2818,36.2358],[127.2831,36.237],[127.2803,36.2443],[127.2814,36.2456],[127.2794,36.2524],[127.2824,36.2558],[127.2826,36.2585],[127.2913,36.2632],[127.2957,36.2675],[127.3008,36.2703],[127.31,36.273],[127.3113,36.2825],[127.3136,36.2825],[127.3144,36.2853],[127.3192,36.287],[127.3204,36.293],[127.3223,36.2973],[127.3247,36.2996],[127.3325,36.3018],[127.3326,36.3079],[127.3375,36.3135],[127.339,36.3132],[127.3397,36.3177],[127.3385,36.3178],[127.3368,36.322],[127.3359,36.3301],[127.3381,36.3301],[127.3381,36.3322],[127.3527,36.3322],[127.3541,36.3331],[127.3546,36.335],[127.3491,36.3497],[127.3507,36.3534],[127.3539,36.3543],[127.3581,36.3571],[127.3588,36.3592],[127.3628,36.3634],[127.367,36.3649],[127.3697,36.3686],[127.3747,36.3715],[127.379,36.372],[127.3931,36.3713]]]]}},{"type":"Feature","properties":{"code":"25040","name":"유성구"},"geometry":{"type":"MultiPolygon","coordinates":[[[[127.403,36.4855],[127.4042,36.481],[127.4042,36.4766],[127.402,36.4723],[127.401,36.4673],[127.4014,36.4627],[127.3997,36.4618],[127.3999,36.4589],[127.4021,36.456],[127.3969,36.4511],[127.3922,36.4493],[127.3895,36.4452],[127.3893,36.4428],[127.3912,36.4388],[127.3944,36.4375],[127.3961,36.4348],[127.4027,36.4292],[127.4133,36.4238],[127.4197,36.4153],[127.4203,36.4127],[127.4174,36.4072],[127.4137,36.403],[127.4117,36.3958],[127.4118,36.3822],[127.4111,36.3802],[127.4071,36.3769],[127.3932,36.373],[127.3931,36.3713],[127.3747,36.3715],[127.3697,36.3686],[127.367,36.3649],[127.3628,36.3634],[127.3588,36.3592],[127.3581,36.3571],[127.3539,36.3543],[127.3507,36.3534],[127.3491,36.3497],[127.3546,36.335],[127.3538,36.3323],[127.3381,36.3322],[127.3381,36.3301],[127.3359,36.3301],[127.3368,36.322],[127.3385,36.3178],[127.3397,36.3177],[127.339,36.3132],[127.3375,36.3135],[127.3326,36.3079],[127.3325,36.3018],[127.3247,36.2996],[127.3222,36.2972],[127.3192,36.287],[127.3144,36.2853],[127.3136,36.2825],[127.3113,36.2825],[127.31,36.273],[127.3008,36.2703],[127.2919,36.2642],[127.2901,36.2659],[127.2859,36.2648],[127.2812,36.2652],[127.2654,36.2744],[127.2588,36.2761],[127.2542,36.2805],[127.2536,36.2824],[127.2467,36.291],[127.2497,36.2932],[127.2512,36.2957],[127.2541,36.2969],[127.2598,36.2957],[127.2593,36.2971],[127.2607,36.3019],[127.2584,36.3035],[127.258,36.3099],[127.2584,36.3176],[127.2608,36.3217],[127.2598,36.3272],[127.263,36.3273],[127.2661,36.3285],[127.2681,36.3314],[127.2654,36.3372],[127.2686,36.341],[127.2791,36.3448],[127.2775,36.3471],[127.2779,36.349],[127.2724,36.3541],[127.2706,36.3609],[127.2777,36.3653],[127.2774,36.3687],[127.281,36.3749],[127.2803,36.3787],[127.2789,36.3799],[127.2781,36.3867],[127.2792,36.3915],[127.2785,36.3968],[127.281,36.4048],[127.2821,36.4146],[127.2911,36.4162],[127.2953,36.4198],[127.2942,36.4222],[127.2964,36.4232],[127.3019,36.4231],[127.3035,36.4247],[127.3109,36.4247],[127.3148,36.4225],[127.3164,36.4205],[127.322,36.4234],[127.3263,36.4221],[127.341,36.431],[127.3403,36.4357],[127.3449,36.4444],[127.3497,36.448],[127.3534,36.4479],[127.3558,36.4503],[127.3586,36.4559],[127.3567,36.4589],[127.3565,36.4633],[127.3596,36.4665],[127.36,36.469],[127.3622,36.4711],[127.364,36.4748],[127.3606,36.4786],[127.3589,36.4826],[127.3602,36.4885],[127.3633,36.4897],[127.3692,36.4886],[127.3689,36.4896],[127.3727,36.4914],[127.3776,36.4956],[127.3803,36.4995],[127.3839,36.5002],[127.403,36.4855]]]]}},{"type":"Feature","properties":{"code":"25050","name":"대덕구"},"geometry":{"type":"MultiPolygon","coordinates":[[[[127.4916,36.4533],[127.5006,36.4562],[127.5028,36.4555],[127.5045,36.4518],[127.5035,36.4494],[127.4971,36.4447],[127.4924,36.4394],[127.4907,36.4398],[127.4877,36.4385],[127.481,36.4296],[127.4812,36.4279],[127.4761,36.4193],[127.4724,36.4149],[127.4666,36.4086],[127.4576,36.4031],[127.4553,36.4],[127.4542,36.3943],[127.4542,36.3901],[127.4553,36.3888],[127.4533,36.3835],[127.4512,36.381],[127.4521,36.3786],[127.4572,36.3725],[127.4582,36.3692],[127.4599,36.3686],[127.4633,36.362],[127.466,36.3603],[127.4661,36.3581],[127.4647,36.3551],[127.465,36.3515],[127.4641,36.3508],[127.4551,36.353],[127.454,36.3534],[127.4543,36.3544],[127.4459,36.3536],[127.4452,36.3508],[127.4414,36.3523],[127.4415,36.3536],[127.4389,36.357],[127.4386,36.3596],[127.4354,36.3608],[127.4307,36.3591],[127.4276,36.3555],[127.4279,36.3526],[127.4247,36.3487],[127.4196,36.3483],[127.4184,36.3464],[127.4211,36.3444],[127.4137,36.3439],[127.4145,36.3412],[127.4101,36.3476],[127.4039,36.3496],[127.4046,36.3533],[127.4011,36.3614],[127.3976,36.3648],[127.3966,36.3676],[127.3929,36.3722],[127.3932,36.373],[127.4076,36.377],[127.4111,36.3802],[127.4118,36.3822],[127.4115,36.3946],[127.4137,36.403],[127.4174,36.4072],[127.4203,36.4137],[127.4175,36.4188],[127.4133,36.4238],[127.4027,36.4292],[127.3961,36.4348],[127.3944,36.4375],[127.3912,36.4388],[127.3893,36.4441],[127.3918,36.4487],[127.394,36.4506],[127.3969,36.4511],[127.4021,36.456],[127.4075,36.4548],[127.415,36.4547],[127.4274,36.4569],[127.4359,36.4564],[127.4424,36.4513],[127.4472,36.4492],[127.4548,36.4503],[127.4626,36.4562],[127.4638,36.4645],[127.4668,36.4702],[127.4724,36.475],[127.4805,36.4772],[127.484,36.4766],[127.4845,36.4745],[127.4816,36.4664],[127.4778,36.4609],[127.4776,36.4584],[127.4821,36.4539],[127.4862,36.4528],[127.4916,36.4533]]]]}}]}