{"type":"FeatureCollection","features":[{"type":"Feature","properties":{"code":"26010","name":"중구"},"geometry":{"type":"MultiPolygon","coordinates":[[[[129.3484,35.5953],[129.3537,35.5626],[129.3493,35.5579],[129.35,35.5495],[129.3064,35.5529],[129.3032,35.5514],[129.3028,35.5465],[129.2959,35.5449],[129.2803,35.5532],[129.2697,35.5538],[129.2589,35.5615],[129.2568,35.5671],[129.2592,35.5776],[129.2554,35.5801],[129.2527,35.5903],[129.2649,35.5857],[129.2706,35.5874],[129.2831,35.5841],[129.2808,35.5811],[129.2846,35.5783],[129.2945,35.5761],[129.2904,35.5933],[129.3036,35.5941],[129.3096,35.589],[129.3211,35.5945],[129.3228,35.5982],[129.331,35.5991],[129.3341,35.5938],[129.3484,35.5953]]]]}},{"type":"Feature","properties":{"code":"26020","name":"남구"},"geometry":{"type":"MultiPolygon","coordinates":[[[[129.2804,35.5532],[129.2959,35.5449],[129.3028,35.5465],[129.3032,35.5514],[129.3071,35.5529],[129.347,35.5496],[129.3705,35.5388],[129.3746,35.5395],[129.3776,35.5284],[129.3724,35.5236],[129.376,35.5224],[129.375,35.5176],[129.3858,35.5164],[129.3874,35.5019],[129.3714,35.5009],[129.3632,35.5042],[129.3676,35.4979],[129.3793,35.4999],[129.3909,35.486],[129.3911,35.4783],[129.3889,35.4875],[129.3809,35.4717],[129.3744,35.4699],[129.3774,35.4659],[129.3748,35.4624],[129.368,35.4642],[129.363,35.4604],[129.3704,35.4576],[129.3687,35.4542],[129.3545,35.4592],[129.3505,35.4683],[129.3401,35.4755],[129.3375,35.4823],[129.3269,35.4892],[129.3201,35.4874],[129.3189,35.491],[129.3105,35.4926],[129.3075,35.4972],[129.3009,35.4951],[129.289,35.5091],[129.2883,35.515],[129.2747,35.5237],[129.2743,35.5292],[129.2589,35.5304],[129.2556,35.5348],[129.2539,35.5327],[129.2365,35.5362],[129.2494,35.5455],[129.2559,35.5543],[129.2617,35.5517],[129.263,35.5565],[129.2804,35.5532]]]]}},{"type":"Feature","properties":{"code":"26030","name":"동구"},"geometry":{"type":"MultiPolygon","coordinates":[[[[129.4586,35.5578],[129.4524,35.5441],[129.4535,35.5281],[129.4387,35.5286],[129.4392,35.5198],[129.4459,35.5224],[129.4476,35.5261],[129.4499,35.5248],[129.4456,35.5116],[129.4477,35.509],[129.4332,35.5113],[129.432,35.5054],[129.4434,35.5059],[129.4429,35.5013],[129.4341,35.5004],[129.431,35.4959],[129.4337,35.4922],[129.4412,35.4958],[129.4449,35.4921],[129.4401,35.4906],[129.4313,35.4782],[129.4308,35.4836],[129.4252,35.485],[129.4248,35.4812],[129.4154,35.48],[129.4162,35.476],[129.4117,35.4719],[129.4062,35.472],[129.4042,35.4873],[129.4084,35.4933],[129.4032,35.4998],[129.3958,35.5012],[129.397,35.5122],[129.3876,35.5274],[129.3927,35.5223],[129.4084,35.516],[129.4104,35.5241],[129.4012,35.5294],[129.4066,35.5375],[129.4076,35.551],[129.4133,35.5547],[129.4133,35.5588],[129.4289,35.5666],[129.4446,35.5677],[129.4529,35.5716],[129.4586,35.5578]]]]}},{"type":"Feature","properties":{"code":"26040","name":"북구"},"geometry":{"type":"MultiPolygon","coordinates":[[[[129.3727,35.6692],[129.3818,35.6712],[129.3999,35.6676],[129.4034,35.663],[129.411,35.6638],[129.4284,35.6556],[129.4328,35.6566],[129.4351,35.6524],[129.4393,35.6552],[129.4498,35.6511],[129.4416,35.6447],[129.4415,35.6303],[129.4452,35.6233],[129.4524,35.6185],[129.4543,35.6164],[129.4507,35.6181],[129.4501,35.6148],[129.458,35.6138],[129.4572,35.6089],[129.4635,35.6045],[129.4647,35.5864],[129.4536,35.5804],[129.4529,35.5716],[129.4201,35.5638],[129.4076,35.551],[129.4066,35.5375],[129.4012,35.5294],[129.4104,35.5241],[129.4084,35.516],[129.3926,35.5224],[129.3746,35.5395],[129.3705,35.5388],[129.3481,35.5492],[129.351,35.5505],[129.3493,35.5579],[129.3537,35.5626],[129.3484,35.5953],[129.3344,35.5938],[129.3314,35.5991],[129.324,35.5986],[129.3096,35.589],[129.3036,35.5941],[129.2904,35.5933],[129.3002,35.6143],[129.294,35.6206],[129.2981,35.6314],[129.2963,35.6447],[129.3033,35.6501],[129.3043,35.657],[129.3111,35.6605],[129.3278,35.6588],[129.3341,35.6698],[129.3401,35.6696],[129.3536,35.6794],[129.3612,35.6788],[129.3727,35.6692]]]]}},{"type":"Feature","properties":{"code":"26310","name":"울주군"},"geometry":{"type":"MultiPolygon","coordinates":[[[[129.1765,35.7157],[129.1813,35.7238],[129.1981,35.7145],[129.2071,35.7214],[129.2244,35.7096],[129.2318,35.7084],[129.234,35.7039],[129.2569,35.7007],[129.2626,35.6911],[129.2586,35.6831],[129.2597,35.6723],[129.2547,35.6664],[129.2555,35.6605],[129.2604,35.6546],[129.2697,35.6511],[129.2829,35.6517],[129.2973,35.6426],[129.2981,35.6314],[129.294,35.6206],[129.3002,35.6143],[129.2903,35.5943],[129.2945,35.5761],[129.2846,35.5783],[129.2808,35.5811],[129.2831,35.5841],[129.2706,35.5874],[129.2649,35.5857],[129.2527,35.5903],[129.2554,35.5801],[129.2592,35.5776],[129.2568,35.5671],[129.2589,35.5615],[129.2656,35.5569],[129.2617,35.5517],[129.2546,35.5534],[129.2494,35.5455],[129.2365,35.5362],[129.2539,35.5327],[129.2556,35.5348],[129.2589,35.5304],[129.2743,35.5292],[129.2747,35.5237],[129.2883,35.515],[129.289,35.5091],[129.3009,35.4951],[129.3075,35.4972],[129.3105,35.4926],[129.3189,35.491],[129.3201,35.4874],[129.3269,35.4892],[129.3358,35.4825],[129.3389,35.4792],[129.337,35.4734],[129.3474,35.4643],[129.3499,35.4482],[129.3598,35.4479],[129.3588,35.4428],[129.3539,35.4409],[129.3552,35.4383],[129.3651,35.4414],[129.3695,35.449],[129.3737,35.4471],[129.3665,35.437],[129.3736,35.4312],[129.3674,35.4309],[129.3617,35.4261],[129.3528,35.427],[129.3642,35.4248],[129.3639,35.4152],[129.3563,35.4133],[129.3562,35.4104],[129.3627,35.4109],[129.3626,35.4065],[129.354,35.4025],[129.3555,35.3939],[129.3466,35.3899],[129.3446,35.3781],[129.3451,35.375],[129.3553,35.3718],[129.3547,35.3669],[129.3606,35.3645],[129.3617,35.3588],[129.3451,35.3518],[129.3406,35.3566],[129.3352,35.3559],[129.3323,35.3479],[129.3222,35.3462],[129.3206,35.3387],[129.3164,35.3387],[129.3116,35.3295],[129.3071,35.3281],[129.3095,35.3297],[129.3041,35.3302],[129.2999,35.336],[129.2797,35.3414],[129.2849,35.3507],[129.2805,35.3562],[129.2822,35.3653],[129.2655,35.3871],[129.258,35.3841],[129.2506,35.3874],[129.2488,35.3832],[129.2402,35.3843],[129.2354,35.3803],[129.2185,35.379],[129.2012,35.3878],[129.2089,35.3994],[129.2191,35.4077],[129.2115,35.4191],[129.2002,35.4241],[129.2021,35.4321],[129.197,35.4389],[129.1784,35.4323],[129.1656,35.4321],[129.1432,35.4457],[129.1218,35.4634],[129.1213,35.4701],[129.1083,35.4811],[129.1094,35.4866],[129.1053,35.4965],[129.0906,35.4983],[129.0526,35.5145],[129.0511,35.5198],[129.0566,35.5271],[129.0558,35.5323],[129.013,35.5231],[129.009,35.524],[129.0076,35.5291],[128.9954,35.5278],[128.999,35.54],[128.9966,35.544],[128.9893,35.5516],[128.9809,35.5464],[128.9724,35.5571],[128.9712,35.5603],[128.9779,35.5634],[128.9958,35.5679],[129.0079,35.5802],[129.0189,35.5838],[129.0228,35.5913],[129.023,35.6134],[129.0079,35.6162],[129.0027,35.6203],[129.0061,35.6235],[129.018,35.6296],[129.0209,35.6351],[129.0266,35.6364],[129.037,35.6325],[129.0469,35.6505],[129.0693,35.6454],[129.0755,35.6404],[129.0809,35.6433],[129.0798,35.6491],[129.0679,35.6588],[129.0672,35.6713],[129.073,35.6774],[129.0699,35.6824],[129.0805,35.6959],[129.1018,35.7061],[129.1242,35.7083],[129.127,35.714],[129.1368,35.7129],[129.1395,35.7182],[129.1375,35.7207],[129.142,35.7243],[129.1529,35.722],[129.1595,35.7159],[129.1765,35.7157]]]]}}]}