{"type":"FeatureCollection","features":[{"type":"Feature","properties":{"code":"31011","name":"수원시 장안구"},"geometry":{"type":"MultiPolygon","coordinates":[[[[127.0334,37.3446],[127.0315,37.3368],[127.0395,37.3227],[127.0384,37.3164],[127.0324,37.3096],[127.0352,37.2942],[127.0095,37.2855],[127.0007,37.2897],[126.9905,37.2864],[126.9847,37.291],[126.9754,37.2856],[126.9696,37.2866],[126.968,37.2943],[126.9608,37.3023],[126.9662,37.3078],[126.9676,37.3248],[126.9713,37.3318],[126.9829,37.3267],[127.0007,37.3386],[127.0089,37.3393],[127.0147,37.3496],[127.0198,37.351],[127.0334,37.3446]]]]}},{"type":"Feature","properties":{"code":"31012","name":"수원시 권선구"},"geometry":{"type":"MultiPolygon","coordinates":[[[[127.0299,37.2321],[127.0233,37.2307],[127.0219,37.2245],[127.0033,37.2302],[126.9988,37.2258],[126.9877,37.2342],[126.9705,37.2294],[126.9679,37.2348],[126.9576,37.24],[126.9501,37.2557],[126.9358,37.2569],[126.9308,37.2609],[126.9271,37.2713],[126.928,37.282],[126.933,37.2916],[126.9396,37.2954],[126.9329,37.303],[126.9424,37.3003],[126.9608,37.3023],[126.968,37.2943],[126.9696,37.2866],[126.9869,37.2827],[126.9875,37.2749],[126.9932,37.2774],[127.0012,37.2638],[127.007,37.2639],[127.0098,37.2678],[127.0318,37.2617],[127.0305,37.2582],[127.0422,37.251],[127.0299,37.2321]]]]}},{"type":"Feature","properties":{"code":"31013","name":"수원시 팔달구"},"geometry":{"type":"MultiPolygon","coordinates":[[[[127.0425,37.2884],[127.0387,37.2835],[127.0429,37.286],[127.0456,37.2742],[127.0373,37.275],[127.0384,37.2695],[127.0332,37.267],[127.0406,37.2652],[127.0367,37.2565],[127.0305,37.2582],[127.0318,37.2617],[127.0098,37.2678],[127.007,37.2639],[127.0012,37.2638],[126.9932,37.2774],[126.9875,37.2749],[126.987,37.2827],[126.9813,37.2837],[126.9773,37.2884],[126.9847,37.291],[126.9905,37.2864],[127.0007,37.2897],[127.0095,37.2855],[127.0341,37.2934],[127.0425,37.2884]]]]}},{"type":"Feature","properties":{"code":"31014","name":"수원시 영통구"},"geometry":{"type":"MultiPolygon","coordinates":[[[[127.0576,37.3156],[127.0606,37.311],[127.0582,37.3048],[127.0608,37.3036],[127.0603,37.2966],[127.079,37.2933],[127.0828,37.2977],[127.0896,37.2983],[127.0893,37.2869],[127.0713,37.2806],[127.0647,37.2704],[127.0748,37.2661],[127.0757,37.2613],[127.0773,37.2657],[127.0849,37.2699],[127.0862,37.2648],[127.0808,37.2599],[127.0847,37.2565],[127.0823,37.2497],[127.0655,37.2437],[127.0669,37.2402],[127.0527,37.2313],[127.0534,37.2336],[127.0459,37.2328],[127.0392,37.2372],[127.0425,37.247],[127.0404,37.2436],[127.0391,37.2468],[127.0422,37.251],[127.0367,37.2565],[127.0406,37.2652],[127.0332,37.267],[127.0384,37.2695],[127.0373,37.275],[127.0456,37.2742],[127.0429,37.286],[127.0387,37.2835],[127.0425,37.2884],[127.0412,37.2909],[127.0341,37.2934],[127.033,37.3117],[127.0398,37.321],[127.0498,37.3159],[127.0576,37.3156]]]]}},{"type":"Feature","properties":{"code":"31021","name":"성남시 수정구"},"geometry":{"type":"MultiPolygon","coordinates":[[[[127.1684,37.4688],[127.1769,37.4716],[127.1609,37.4542],[127.1569,37.445],[127.1348,37.435],[127.1185,37.4323],[127.117,37.422],[127.1198,37.419],[127.1167,37.4091],[127.1071,37.4071],[127.1024,37.4097],[127.0948,37.407],[127.0838,37.3971],[127.0432,37.4039],[127.0423,37.4073],[127.0471,37.413],[127.042,37.4157],[127.0425,37.4285],[127.0696,37.4306],[127.0738,37.4374],[127.0722,37.4422],[127.0814,37.4412],[127.0879,37.4449],[127.0935,37.4559],[127.0993,37.4567],[127.1043,37.4622],[127.1169,37.4586],[127.1249,37.4696],[127.1328,37.4684],[127.1329,37.4746],[127.1684,37.4688]]]]}},{"type":"Feature","properties":{"code":"31022","name":"성남시 중원구"},"geometry":{"type":"MultiPolygon","coordinates":[[[[127.1821,37.4639],[127.1848,37.4588],[127.1917,37.457],[127.1958,37.4436],[127.1943,37.4247],[127.1847,37.4156],[127.1778,37.414],[127.1726,37.4052],[127.1493,37.4108],[127.142,37.4155],[127.1192,37.4157],[127.1185,37.4323],[127.1348,37.435],[127.1569,37.445],[127.1609,37.4542],[127.1741,37.4662],[127.1756,37.472],[127.1788,37.4748],[127.1821,37.4639]]]]}},{"type":"Feature","properties":{"code":"31023","name":"성남시 분당구"},"geometry":{"type":"MultiPolygon","coordinates":[[[[127.1742,37.4058],[127.1682,37.3926],[127.1772,37.3871],[127.1732,37.3827],[127.1618,37.3797],[127.1606,37.3727],[127.1507,37.3619],[127.1348,37.3579],[127.1326,37.3495],[127.1379,37.3397],[127.1174,37.3334],[127.1109,37.3349],[127.086,37.3517],[127.0781,37.3496],[127.0706,37.358],[127.0543,37.3601],[127.0461,37.3683],[127.0279,37.372],[127.0282,37.3792],[127.0384,37.3905],[127.0371,37.4013],[127.0432,37.4039],[127.0838,37.3971],[127.0948,37.407],[127.1024,37.4097],[127.1071,37.4071],[127.1159,37.4087],[127.1177,37.4149],[127.1221,37.4169],[127.142,37.4155],[127.1493,37.4108],[127.1742,37.4058]]]]}},{"type":"Feature","properties":{"code":"31030","name":"의정부시"},"geometry":{"type":"MultiPolygon","coordinates":[[[[127.1274,37.7715],[127.1291,37.7671],[127.1258,37.7636],[127.1397,37.764],[127.1473,37.752],[127.1418,37.7477],[127.1286,37.7481],[127.1237,37.739],[127.1258,37.7275],[127.1116,37.7172],[127.1084,37.7082],[127.084,37.7019],[127.0802,37.6995],[127.0811,37.6961],[127.0627,37.6947],[127.0518,37.6858],[127.0486,37.6941],[127.0451,37.6924],[127.0411,37.6953],[127.0324,37.6918],[127.0277,37.7009],[127.0154,37.7015],[127.0182,37.7051],[127.0121,37.7137],[127.0122,37.7261],[127.0024,37.7408],[127.0066,37.7477],[127.002,37.7626],[127.0085,37.7624],[127.0174,37.7689],[127.0418,37.7667],[127.0512,37.7611],[127.0603,37.7621],[127.1057,37.7803],[127.1274,37.7715]]]]}},{"type":"Feature","properties":{"code":"31041","name":"안양시 만안구"},"geometry":{"type":"MultiPolygon","coordinates":[[[[126.9482,37.4386],[126.9486,37.422],[126.9383,37.4144],[126.9298,37.415],[126.9253,37.4106],[126.9278,37.4011],[126.9413,37.3918],[126.939,37.3811],[126.941,37.3771],[126.9184,37.3769],[126.9123,37.3735],[126.9064,37.3615],[126.8964,37.3595],[126.8906,37.3754],[126.8813,37.3774],[126.8766,37.3934],[126.8776,37.4051],[126.8704,37.407],[126.8712,37.4127],[126.8792,37.409],[126.889,37.4114],[126.889,37.4189],[126.8964,37.4252],[126.8943,37.4291],[126.8981,37.4313],[126.899,37.4387],[126.903,37.4341],[126.9094,37.4339],[126.9284,37.4502],[126.9394,37.436],[126.9482,37.4386]]]]}},{"type":"Feature","properties":{"code":"31042","name":"안양시 동안구"},"geometry":{"type":"MultiPolygon","coordinates":[[[[126.9609,37.4261],[126.9624,37.4209],[126.9737,37.4151],[126.9773,37.403],[126.9829,37.3999],[126.9798,37.3963],[126.9817,37.394],[126.9742,37.3888],[126.972,37.3801],[126.965,37.3715],[126.9662,37.3622],[126.9621,37.3615],[126.9479,37.3693],[126.9465,37.3758],[126.9392,37.3804],[126.9413,37.3918],[126.9278,37.4011],[126.9253,37.4106],[126.9298,37.415],[126.9383,37.4144],[126.9486,37.422],[126.9482,37.4386],[126.9655,37.4392],[126.9609,37.4261]]]]}},{"type":"Feature","properties":{"code":"31050","name":"부천시"},"geometry":{"type":"MultiPolygon","coordinates":[[[[126.7869,37.546],[126.793,37.5416],[126.7944,37.5358],[126.8072,37.5437],[126.8221,37.5407],[126.8219,37.535],[126.8282,37.529],[126.8243,37.5145],[126.827,37.5085],[126.8222,37.5077],[126.8196,37.4992],[126.813,37.4964],[126.8233,37.4879],[126.8147,37.4748],[126.8331,37.4772],[126.833,37.4659],[126.8261,37.4595],[126.7892,37.4656],[126.7843,37.4724],[126.7678,37.4717],[126.7543,37.4837],[126.7424,37.4869],[126.7416,37.5088],[126.7459,37.5152],[126.7601,37.518],[126.7608,37.5391],[126.7662,37.5542],[126.7716,37.5483],[126.7869,37.546]]]]}},{"type":"Feature","properties":{"code":"31060","name":"광명시"},"geometry":{"type":"MultiPolygon","coordinates":[[[[126.8741,37.4913],[126.8727,37.4884],[126.8768,37.4886],[126.8718,37.4853],[126.8727,37.4824],[126.8846,37.4656],[126.8829,37.4643],[126.8889,37.4609],[126.8854,37.4601],[126.8863,37.4563],[126.8896,37.4523],[126.894,37.4527],[126.8996,37.435],[126.8943,37.4291],[126.8964,37.4252],[126.889,37.4189],[126.889,37.4114],[126.8792,37.409],[126.8712,37.4127],[126.8704,37.407],[126.8759,37.4065],[126.8769,37.4019],[126.8592,37.4018],[126.8464,37.4123],[126.8414,37.4347],[126.8378,37.437],[126.838,37.4572],[126.8331,37.4603],[126.8261,37.4595],[126.833,37.4659],[126.8331,37.4772],[126.845,37.4736],[126.8466,37.4817],[126.8527,37.4818],[126.8676,37.4948],[126.8703,37.4895],[126.8741,37.4913]]]]}},{"type":"Feature","properties":{"code":"31070","name":"평택시"},"geometry":{"type":"MultiPolygon","coordinates":[[[[126.8405,36.9437],[126.8321,36.9415],[126.8291,36.9475],[126.837,36.9496],[126.8405,36.9437]]],[[[127.1207,37.1297],[127.1149,37.1298],[127.1092,37.1232],[127.1264,37.0817],[127.1208,37.0764],[127.1036,37.0759],[127.102,37.0686],[127.1189,37.062],[127.125,37.0647],[127.1303,37.0588],[127.1276,37.053],[127.1056,37.0352],[127.113,37.0269],[127.1168,37.0271],[127.1222,37.0351],[127.1438,37.0327],[127.1523,37.0284],[127.1523,37.0214],[127.1444,37.0132],[127.1541,36.9978],[127.1446,36.9972],[127.1329,36.9877],[127.1411,36.979],[127.1245,36.9768],[127.1202,36.9703],[127.1115,36.9713],[127.0972,36.9601],[127.0964,36.9557],[127.103,36.9531],[127.097,36.948],[127.0958,36.9424],[127.0862,36.9477],[127.0741,36.9386],[127.0655,36.9419],[127.031,36.9281],[127.0156,36.9354],[126.9952,36.9354],[126.9737,36.9259],[126.9396,36.9173],[126.9097,36.9016],[126.9072,36.9124],[126.9036,36.9154],[126.9036,36.9247],[126.8992,36.9299],[126.8871,36.9363],[126.8674,36.9333],[126.8626,36.9488],[126.859,36.9507],[126.8539,36.9483],[126.8538,36.9483],[126.8496,36.9465],[126.8453,36.9526],[126.8466,36.9548],[126.8248,36.9824],[126.8282,36.983],[126.826,36.986],[126.8208,36.9848],[126.813,36.9873],[126.8205,36.9855],[126.8234,36.9913],[126.8121,36.995],[126.8097,36.9884],[126.8041,36.9903],[126.8093,36.9959],[126.8041,36.9976],[126.7896,36.9947],[126.7789,37.0073],[126.7872,37.013],[126.8344,37.0134],[126.8511,37.0184],[126.8774,37.0527],[126.8837,37.067],[126.8971,37.0686],[126.9045,37.0734],[126.9056,37.0694],[126.915,37.0657],[126.9285,37.0681],[126.9315,37.0626],[126.94,37.0607],[126.9479,37.0617],[126.949,37.0688],[126.9647,37.0678],[126.9691,37.0732],[126.9962,37.0697],[126.9969,37.0722],[126.9904,37.0768],[126.9963,37.0787],[126.9905,37.0875],[127.0002,37.0858],[126.9954,37.0899],[126.9984,37.0942],[126.9982,37.1065],[126.9953,37.1091],[127.0003,37.1108],[126.9942,37.1145],[126.9987,37.1146],[126.9951,37.1162],[126.9989,37.1198],[126.9975,37.1253],[127.0014,37.128],[127.0357,37.1365],[127.0451,37.1261],[127.0557,37.1336],[127.0665,37.1312],[127.0668,37.1267],[127.0865,37.1267],[127.0912,37.1311],[127.0878,37.1348],[127.0976,37.1368],[127.1002,37.1426],[127.1229,37.1445],[127.1207,37.1297]]]]}},{"type":"Feature","properties":{"code":"31080","name":"동두천시"},"geometry":{"type":"MultiPolygon","coordinates":[[[[127.0808,37.9764],[127.0914,37.9716],[127.0942,37.9668],[127.0924,37.9588],[127.0993,37.9529],[127.0954,37.9443],[127.1086,37.9396],[127.1215,37.9165],[127.1301,37.9167],[127.1466,37.9108],[127.1493,37.8981],[127.155,37.895],[127.1468,37.8762],[127.1283,37.874],[127.1232,37.867],[127.1116,37.8648],[127.1089,37.8604],[127.0884,37.8722],[127.0612,37.8689],[127.0482,37.8832],[127.0452,37.8954],[127.0214,37.8987],[127.0106,37.9048],[127.0062,37.9152],[127.0134,37.9195],[127.0097,37.9282],[127.0169,37.9367],[127.0261,37.9413],[127.0288,37.9559],[127.0418,37.9601],[127.0447,37.9725],[127.0495,37.9789],[127.0641,37.9792],[127.0637,37.976],[127.0808,37.9764]]]]}},{"type":"Feature","properties":{"code":"31091","name":"안산시 상록구"},"geometry":{"type":"MultiPolygon","coordinates":[[[[126.8906,37.3754],[126.8964,37.3595],[126.8869,37.3469],[126.8854,37.3388],[126.8734,37.3292],[126.8743,37.3211],[126.8827,37.3211],[126.8874,37.3178],[126.9076,37.3218],[126.9118,37.3183],[126.9102,37.3167],[126.9157,37.3155],[126.915,37.3055],[126.9302,37.3072],[126.9324,37.3009],[126.9396,37.2953],[126.933,37.2916],[126.9273,37.2788],[126.9143,37.2908],[126.9009,37.2914],[126.8898,37.282],[126.8787,37.2851],[126.8736,37.2798],[126.8632,37.2815],[126.8631,37.2731],[126.8431,37.2677],[126.8381,37.2761],[126.8289,37.2789],[126.8255,37.2868],[126.8163,37.2941],[126.8173,37.2997],[126.8222,37.3037],[126.8418,37.3065],[126.8418,37.3336],[126.8367,37.3382],[126.8426,37.3439],[126.8344,37.35],[126.8415,37.3628],[126.8483,37.3648],[126.8558,37.3595],[126.865,37.3619],[126.8813,37.3774],[126.8906,37.3754]]]]}},{"type":"Feature","properties":{"code":"31092","name":"안산시 단원구"},"geometry":{"type":"MultiPolygon","coordinates":[[[[126.3904,37.1152],[126.3946,37.1129],[126.3948,37.1125],[126.3927,37.1119],[126.3952,37.1017],[126.3925,37.0992],[126.3798,37.1057],[126.3798,37.1138],[126.3904,37.1152]]],[[[126.5381,37.1985],[126.5338,37.1991],[126.5397,37.2071],[126.5438,37.2059],[126.5381,37.1985]]],[[[126.5822,37.2885],[126.5839,37.2846],[126.589,37.2902],[126.5905,37.2896],[126.6098,37.2794],[126.5892,37.29],[126.5851,37.2852],[126.5855,37.284],[126.5885,37.2853],[126.6243,37.264],[126.6252,37.2678],[126.6368,37.2724],[126.643,37.269],[126.6393,37.2645],[126.6415,37.2626],[126.6396,37.2647],[126.6435,37.2677],[126.6427,37.2713],[126.6312,37.2809],[126.6427,37.2719],[126.644,37.2667],[126.637,37.2531],[126.653,37.2285],[126.6554,37.2155],[126.6528,37.1998],[126.6465,37.1914],[126.6427,37.1958],[126.6416,37.2044],[126.6468,37.211],[126.6408,37.2152],[126.6292,37.2183],[126.626,37.2024],[126.629,37.2185],[126.6234,37.2267],[126.6243,37.2351],[126.6221,37.2362],[126.6188,37.2295],[126.6109,37.2339],[126.6103,37.2294],[126.6003,37.2282],[126.5919,37.2337],[126.5884,37.2333],[126.6099,37.2206],[126.6152,37.2095],[126.6049,37.2123],[126.6039,37.2097],[126.5995,37.2015],[126.5954,37.1983],[126.6048,37.2124],[126.6013,37.2215],[126.6003,37.2176],[126.5906,37.2135],[126.5867,37.2206],[126.576,37.2208],[126.5683,37.2045],[126.5695,37.1992],[126.5627,37.193],[126.5569,37.202],[126.5446,37.206],[126.544,37.215],[126.5535,37.2144],[126.5571,37.2179],[126.552,37.2235],[126.5416,37.2246],[126.5408,37.2289],[126.5444,37.2294],[126.5444,37.2334],[126.5693,37.237],[126.561,37.2423],[126.563,37.2553],[126.5586,37.2668],[126.55,37.2741],[126.5483,37.28],[126.5396,37.2825],[126.539,37.2861],[126.5328,37.2889],[126.5557,37.2835],[126.5564,37.2766],[126.5617,37.2773],[126.5772,37.2901],[126.5717,37.2977],[126.5779,37.2931],[126.6051,37.3092],[126.6061,37.3126],[126.6162,37.3138],[126.578,37.2928],[126.5858,37.291],[126.5822,37.2885]]],[[[126.8416,37.3632],[126.8344,37.35],[126.8426,37.3439],[126.8367,37.3382],[126.8418,37.3336],[126.8411,37.3057],[126.8227,37.304],[126.8168,37.298],[126.8053,37.2995],[126.7977,37.2949],[126.7676,37.2925],[126.7327,37.3008],[126.7175,37.3083],[126.7385,37.3297],[126.7476,37.3248],[126.7497,37.3336],[126.7608,37.341],[126.7724,37.3432],[126.7855,37.338],[126.7924,37.3432],[126.7903,37.3503],[126.7954,37.3551],[126.8115,37.3556],[126.8243,37.3659],[126.8301,37.3625],[126.8416,37.3632]]]]}},{"type":"Feature","properties":{"code":"31101","name":"고양시 덕양구"},"geometry":{"type":"MultiPolygon","coordinates":[[[[126.9331,37.7459],[126.9304,37.7441],[126.9306,37.736],[126.9216,37.7303],[126.9249,37.7202],[126.9215,37.7132],[126.9253,37.7087],[126.9153,37.6882],[126.9128,37.676],[126.9055,37.6752],[126.9076,37.6704],[126.9409,37.671],[126.9452,37.6858],[126.9551,37.6931],[126.9824,37.6852],[126.9922,37.6796],[126.9941,37.6728],[126.994,37.6668],[126.9797,37.656],[126.9851,37.6459],[126.9842,37.6363],[126.9754,37.6317],[126.9584,37.6295],[126.9633,37.6332],[126.9571,37.6528],[126.9475,37.6592],[126.9241,37.6461],[126.9137,37.6448],[126.9048,37.6491],[126.9123,37.6443],[126.9112,37.6359],[126.9062,37.6332],[126.9088,37.6291],[126.9071,37.6219],[126.9003,37.6112],[126.9021,37.6037],[126.8996,37.5898],[126.8876,37.5887],[126.8853,37.5939],[126.8775,37.5862],[126.8763,37.5782],[126.8634,37.5769],[126.8536,37.5718],[126.7595,37.6297],[126.764,37.6353],[126.7909,37.6256],[126.7946,37.6293],[126.7952,37.6404],[126.8119,37.648],[126.813,37.6446],[126.8165,37.6461],[126.8169,37.6562],[126.8108,37.6582],[126.8174,37.6643],[126.8228,37.6632],[126.821,37.6716],[126.8336,37.6778],[126.8347,37.6832],[126.8481,37.686],[126.8491,37.6904],[126.8538,37.688],[126.856,37.6941],[126.8481,37.7015],[126.8368,37.7275],[126.8415,37.7315],[126.8555,37.7354],[126.8649,37.7326],[126.8679,37.7287],[126.8717,37.7297],[126.8737,37.726],[126.8885,37.723],[126.9026,37.7287],[126.9009,37.7372],[126.9109,37.7465],[126.9331,37.7459]]]]}},{"type":"Feature","properties":{"code":"31103","name":"고양시 일산동구"},"geometry":{"type":"MultiPolygon","coordinates":[[[[126.8368,37.7275],[126.8481,37.7015],[126.8561,37.6927],[126.8538,37.688],[126.8491,37.6904],[126.8481,37.686],[126.8347,37.6832],[126.8336,37.6778],[126.821,37.6716],[126.8228,37.6632],[126.8174,37.6643],[126.8108,37.6582],[126.8169,37.6562],[126.8165,37.6461],[126.813,37.6446],[126.8119,37.648],[126.7952,37.6404],[126.7946,37.6293],[126.7909,37.6256],[126.764,37.6353],[126.7595,37.6297],[126.7363,37.6431],[126.7325,37.6475],[126.7454,37.6548],[126.7433,37.6575],[126.7485,37.665],[126.7553,37.662],[126.7581,37.6661],[126.7627,37.6633],[126.7775,37.6787],[126.7772,37.6909],[126.7818,37.6991],[126.7737,37.7027],[126.7738,37.7092],[126.7793,37.7173],[126.7938,37.7261],[126.7941,37.7347],[126.7988,37.7366],[126.8014,37.7295],[126.8114,37.7245],[126.8368,37.7275]]]]}},{"type":"Feature","properties":{"code":"31104","name":"고양시 일산서구"},"geometry":{"type":"MultiPolygon","coordinates":[[[[126.7818,37.6991],[126.7771,37.6908],[126.7782,37.6801],[126.7735,37.6728],[126.7627,37.6633],[126.7581,37.6661],[126.7553,37.662],[126.7485,37.665],[126.7433,37.6575],[126.7454,37.6548],[126.7325,37.6475],[126.678,37.6715],[126.6705,37.6835],[126.6736,37.7003],[126.6899,37.6886],[126.7007,37.697],[126.7255,37.7047],[126.76,37.7033],[126.767,37.7072],[126.7818,37.6991]]]]}},{"type":"Feature","properties":{"code":"31110","name":"과천시"},"geometry":{"type":"MultiPolygon","coordinates":[[[[127.0092,37.4572],[127.0145,37.4549],[127.026,37.4578],[127.0299,37.4654],[127.0346,37.4642],[127.0382,37.4459],[127.0356,37.439],[127.0411,37.4378],[127.0474,37.4307],[127.042,37.4281],[127.0421,37.4155],[127.0387,37.4138],[127.0133,37.4139],[126.9997,37.4046],[126.9882,37.4079],[126.9824,37.4007],[126.9773,37.403],[126.9737,37.4151],[126.9624,37.4209],[126.9639,37.4452],[126.9746,37.4544],[126.9968,37.4619],[126.9968,37.4671],[127.0042,37.4671],[127.0092,37.4572]]]]}},{"type":"Feature","properties":{"code":"31120","name":"구리시"},"geometry":{"type":"MultiPolygon","coordinates":[[[[127.1492,37.6346],[127.1428,37.6232],[127.1481,37.606],[127.1537,37.5974],[127.1683,37.5934],[127.1685,37.5908],[127.1605,37.5868],[127.1706,37.581],[127.1489,37.5684],[127.1343,37.568],[127.1152,37.5568],[127.113,37.5588],[127.1049,37.5564],[127.1011,37.5611],[127.1042,37.5714],[127.1011,37.5761],[127.109,37.5834],[127.1133,37.5933],[127.1167,37.594],[127.1141,37.6001],[127.118,37.6046],[127.1162,37.6189],[127.1041,37.6217],[127.1122,37.6326],[127.1113,37.6424],[127.1316,37.6419],[127.1404,37.6461],[127.1465,37.6434],[127.1492,37.6346]]]]}},{"type":"Feature","properties":{"code":"31130","name":"남양주시"},"geometry":{"type":"MultiPolygon","coordinates":[[[[127.2943,37.7752],[127.3205,37.7661],[127.334,37.7527],[127.3352,37.744],[127.3425,37.7376],[127.3429,37.7292],[127.3554,37.7236],[127.3542,37.7059],[127.3586,37.6946],[127.3721,37.6922],[127.3665,37.6877],[127.3743,37.6821],[127.3766,37.6753],[127.381,37.6773],[127.3713,37.6466],[127.3502,37.6245],[127.3364,37.5808],[127.3104,37.5404],[127.3064,37.5283],[127.3068,37.5147],[127.3022,37.5086],[127.2926,37.5055],[127.2873,37.5067],[127.2813,37.5251],[127.2381,37.5462],[127.2322,37.5599],[127.2207,37.5662],[127.2198,37.5737],[127.2022,37.5891],[127.1833,37.5917],[127.1706,37.581],[127.1613,37.5854],[127.1611,37.5885],[127.1689,37.5925],[127.1506,37.5999],[127.1429,37.6225],[127.1492,37.6346],[127.1465,37.6434],[127.1404,37.6461],[127.1267,37.6414],[127.0946,37.6446],[127.0911,37.6582],[127.0964,37.6697],[127.0919,37.6787],[127.096,37.6891],[127.0852,37.6904],[127.0802,37.6995],[127.1084,37.7082],[127.1116,37.7172],[127.1258,37.7275],[127.1237,37.739],[127.1286,37.7481],[127.1427,37.7479],[127.1465,37.7499],[127.1468,37.756],[127.1659,37.7473],[127.1729,37.7501],[127.1725,37.7577],[127.179,37.7627],[127.1853,37.7645],[127.1967,37.7617],[127.2021,37.7653],[127.2051,37.7632],[127.2103,37.7694],[127.2132,37.7677],[127.2129,37.7615],[127.2226,37.7578],[127.2251,37.7535],[127.2389,37.7631],[127.2599,37.7683],[127.2657,37.7805],[127.2734,37.7739],[127.2943,37.7752]]]]}},{"type":"Feature","properties":{"code":"31140","name":"오산시"},"geometry":{"type":"MultiPolygon","coordinates":[[[[127.0501,37.196],[127.0644,37.1991],[127.0655,37.1853],[127.0717,37.1832],[127.0713,37.1682],[127.0757,37.1627],[127.0981,37.1557],[127.103,37.1439],[127.0976,37.1368],[127.0878,37.1348],[127.0912,37.1311],[127.0889,37.1279],[127.073,37.1253],[127.0668,37.1267],[127.0665,37.1312],[127.0557,37.1336],[127.0444,37.1263],[127.0322,37.1407],[127.0278,37.1529],[127.03,37.1585],[127.0253,37.1648],[127.0059,37.1688],[126.995,37.1753],[126.9992,37.1806],[127.0002,37.1774],[127.0048,37.1805],[127.0025,37.1827],[127.0098,37.1874],[127.0083,37.1932],[127.0277,37.2006],[127.0501,37.196]]]]}},{"type":"Feature","properties":{"code":"31150","name":"시흥시"},"geometry":{"type":"MultiPolygon","coordinates":[[[[126.7843,37.3916],[126.7895,37.3955],[126.7916,37.3931],[126.7889,37.4038],[126.792,37.4053],[126.7886,37.4042],[126.7877,37.4022],[126.7871,37.407],[126.786,37.4028],[126.789,37.3964],[126.7841,37.3921],[126.7801,37.3952],[126.7665,37.395],[126.7639,37.3993],[126.7505,37.4007],[126.749,37.4038],[126.7554,37.4134],[126.7533,37.4227],[126.7707,37.4303],[126.7687,37.4432],[126.7716,37.4493],[126.779,37.4511],[126.7779,37.4708],[126.7843,37.4724],[126.7892,37.4656],[126.8032,37.4617],[126.8372,37.4582],[126.8378,37.437],[126.8414,37.4347],[126.8464,37.4123],[126.8575,37.4023],[126.8769,37.4019],[126.8816,37.3759],[126.865,37.3619],[126.8558,37.3595],[126.8483,37.3648],[126.8324,37.3622],[126.8243,37.3659],[126.8115,37.3556],[126.7954,37.3551],[126.7903,37.3503],[126.7924,37.3432],[126.7855,37.338],[126.7724,37.3432],[126.7608,37.341],[126.7497,37.3336],[126.7476,37.3248],[126.7385,37.3297],[126.7175,37.3083],[126.7056,37.3108],[126.6922,37.3189],[126.6764,37.3202],[126.6712,37.329],[126.6191,37.3145],[126.6144,37.3145],[126.6913,37.3358],[126.6912,37.3393],[126.6857,37.3411],[126.6885,37.3488],[126.7032,37.3513],[126.7007,37.3548],[126.731,37.3866],[126.742,37.3826],[126.7409,37.387],[126.7339,37.3891],[126.7439,37.3984],[126.7621,37.3974],[126.7643,37.3941],[126.777,37.3919],[126.7791,37.3938],[126.7843,37.3916]]]]}},{"type":"Feature","properties":{"code":"31160","name":"군포시"},"geometry":{"type":"MultiPolygon","coordinates":[[[[126.9465,37.3758],[126.9479,37.3693],[126.9621,37.3616],[126.9612,37.3512],[126.9544,37.3413],[126.9483,37.3403],[126.9453,37.3202],[126.9358,37.3229],[126.9293,37.3167],[126.9323,37.3079],[126.915,37.3055],[126.9157,37.3155],[126.9102,37.3167],[126.9118,37.3183],[126.9076,37.3218],[126.8874,37.3178],[126.8827,37.3211],[126.8743,37.3211],[126.8734,37.3292],[126.8854,37.3388],[126.8869,37.3469],[126.8958,37.359],[126.9064,37.3615],[126.9123,37.3735],[126.9195,37.3771],[126.9399,37.3759],[126.9417,37.3787],[126.9465,37.3758]]]]}},{"type":"Feature","properties":{"code":"31170","name":"의왕시"},"geometry":{"type":"MultiPolygon","coordinates":[[[[127.0432,37.4039],[127.0371,37.4013],[127.0384,37.3905],[127.0282,37.3792],[127.0279,37.3694],[127.0177,37.3597],[127.0182,37.351],[127.0143,37.3494],[127.0089,37.3393],[127.0007,37.3386],[126.9829,37.3267],[126.9713,37.3318],[126.9676,37.3248],[126.9662,37.3078],[126.962,37.3024],[126.9424,37.3003],[126.9314,37.304],[126.9302,37.3072],[126.9329,37.3084],[126.9293,37.3167],[126.9358,37.3229],[126.9453,37.3202],[126.9483,37.3403],[126.9577,37.3444],[126.962,37.3615],[126.9662,37.3622],[126.965,37.3715],[126.972,37.3801],[126.9742,37.3888],[126.9817,37.394],[126.9798,37.3963],[126.9858,37.4067],[126.99,37.4082],[126.9997,37.4046],[127.0133,37.4139],[127.0455,37.414],[127.0432,37.4039]]]]}},{"type":"Feature","properties":{"code":"31180","name":"하남시"},"geometry":{"type":"MultiPolygon","coordinates":[[[[127.2022,37.5891],[127.2198,37.5737],[127.2207,37.5662],[127.2322,37.5599],[127.2409,37.5439],[127.2844,37.5216],[127.2857,37.5144],[127.2746,37.5084],[127.2546,37.5063],[127.2532,37.5032],[127.2592,37.4911],[127.2536,37.4851],[127.2444,37.4851],[127.247,37.4805],[127.2446,37.4766],[127.2284,37.4775],[127.2156,37.4823],[127.205,37.4803],[127.2018,37.4841],[127.1984,37.4796],[127.1886,37.4803],[127.1777,37.4872],[127.1753,37.4775],[127.1788,37.4748],[127.1707,37.4695],[127.1435,37.4739],[127.1487,37.484],[127.1574,37.4891],[127.1614,37.5],[127.1577,37.5032],[127.1455,37.5033],[127.1411,37.5055],[127.1402,37.5099],[127.1632,37.545],[127.1835,37.5452],[127.182,37.561],[127.1757,37.5749],[127.1772,37.5812],[127.1686,37.579],[127.1853,37.5917],[127.2022,37.5891]]]]}},{"type":"Feature","properties":{"code":"31191","name":"용인시 처인구"},"geometry":{"type":"MultiPolygon","coordinates":[[[[127.2409,37.3543],[127.2472,37.3556],[127.2614,37.3483],[127.2648,37.3426],[127.2831,37.3451],[127.2794,37.3299],[127.283,37.3159],[127.2772,37.3085],[127.2815,37.2976],[127.2776,37.29],[127.2817,37.2779],[127.2758,37.2743],[127.2792,37.2697],[127.2921,37.2716],[127.2984,37.265],[127.304,37.2708],[127.319,37.2746],[127.339,37.2704],[127.3409,37.2649],[127.336,37.2576],[127.3382,37.2523],[127.3324,37.2482],[127.331,37.2432],[127.3348,37.2387],[127.3303,37.2204],[127.3375,37.2168],[127.3418,37.2084],[127.3497,37.2036],[127.3612,37.2002],[127.3698,37.2043],[127.3785,37.1952],[127.3722,37.1858],[127.4016,37.18],[127.4093,37.1838],[127.4117,37.1823],[127.4132,37.1729],[127.4097,37.1644],[127.4119,37.155],[127.4166,37.1515],[127.4242,37.1516],[127.4278,37.1464],[127.424,37.1312],[127.4125,37.1195],[127.4131,37.1163],[127.4202,37.1157],[127.4241,37.1119],[127.421,37.1064],[127.4241,37.1],[127.416,37.096],[127.4153,37.0889],[127.3989,37.0954],[127.3901,37.1079],[127.3793,37.1051],[127.3769,37.1012],[127.3731,37.1059],[127.3591,37.1076],[127.3518,37.1004],[127.3434,37.1042],[127.3271,37.1197],[127.3078,37.1057],[127.288,37.1317],[127.2735,37.1344],[127.2736,37.1432],[127.2689,37.1472],[127.2688,37.1543],[127.2642,37.1557],[127.2507,37.1454],[127.2538,37.138],[127.2508,37.1231],[127.2365,37.1211],[127.2233,37.1129],[127.2083,37.1111],[127.2083,37.1044],[127.1984,37.0965],[127.195,37.0893],[127.1859,37.0836],[127.1763,37.0877],[127.1661,37.0863],[127.1544,37.0913],[127.1449,37.091],[127.1425,37.0877],[127.1349,37.0921],[127.123,37.0904],[127.1092,37.1232],[127.1149,37.1298],[127.1207,37.1297],[127.1211,37.1416],[127.1283,37.1464],[127.1283,37.161],[127.1341,37.1651],[127.133,37.169],[127.1487,37.1699],[127.1607,37.1799],[127.1609,37.1903],[127.152,37.1991],[127.1573,37.2069],[127.1498,37.2217],[127.1562,37.2276],[127.1492,37.2408],[127.1581,37.2478],[127.1593,37.2541],[127.1702,37.255],[127.1754,37.2586],[127.1717,37.269],[127.1771,37.2823],[127.1749,37.2887],[127.1703,37.2919],[127.1714,37.2967],[127.1676,37.3023],[127.1485,37.306],[127.1427,37.317],[127.1372,37.3196],[127.1375,37.3242],[127.1424,37.3257],[127.1423,37.3366],[127.1632,37.3434],[127.1788,37.3432],[127.1918,37.3472],[127.1982,37.3412],[127.1973,37.3336],[127.2019,37.3283],[127.2083,37.3308],[127.2194,37.3465],[127.2223,37.3464],[127.2172,37.3554],[127.2387,37.3593],[127.2409,37.3543]]]]}},{"type":"Feature","properties":{"code":"31192","name":"용인시 기흥구"},"geometry":{"type":"MultiPolygon","coordinates":[[[[127.1427,37.317],[127.1485,37.306],[127.1633,37.3042],[127.1699,37.2997],[127.1703,37.2919],[127.1745,37.2896],[127.1771,37.2823],[127.1717,37.269],[127.1754,37.2586],[127.1702,37.255],[127.1594,37.2541],[127.1581,37.2478],[127.1496,37.2419],[127.1562,37.2276],[127.1503,37.2197],[127.1367,37.2155],[127.1176,37.22],[127.0882,37.2166],[127.0689,37.2299],[127.0655,37.2437],[127.0817,37.2488],[127.0847,37.2565],[127.0808,37.2599],[127.0862,37.2648],[127.0855,37.2688],[127.0773,37.2657],[127.0757,37.2613],[127.0748,37.266],[127.0648,37.2703],[127.0657,37.2726],[127.0713,37.2806],[127.0893,37.2869],[127.089,37.2972],[127.0925,37.3016],[127.0933,37.3116],[127.0991,37.3138],[127.0987,37.3219],[127.1119,37.3237],[127.1132,37.321],[127.1244,37.3212],[127.1273,37.3184],[127.1365,37.3247],[127.1374,37.3195],[127.1427,37.317]]]]}},{"type":"Feature","properties":{"code":"31193","name":"용인시 수지구"},"geometry":{"type":"MultiPolygon","coordinates":[[[[127.0706,37.358],[127.0781,37.3496],[127.086,37.3517],[127.0979,37.3429],[127.1019,37.343],[127.1046,37.3381],[127.1169,37.3334],[127.1387,37.3397],[127.1423,37.3366],[127.1424,37.3257],[127.1273,37.3184],[127.1244,37.3212],[127.1132,37.321],[127.1119,37.3237],[127.0987,37.3219],[127.0991,37.3138],[127.0933,37.3116],[127.0896,37.2983],[127.0828,37.2977],[127.079,37.2933],[127.0603,37.2966],[127.0608,37.3036],[127.0582,37.3048],[127.0606,37.311],[127.0577,37.3155],[127.0397,37.3209],[127.0315,37.3368],[127.0334,37.3446],[127.0182,37.351],[127.0165,37.3562],[127.0279,37.372],[127.0461,37.3683],[127.0552,37.36],[127.0706,37.358]]]]}},{"type":"Feature","properties":{"code":"31200","name":"파주시"},"geometry":{"type":"MultiPolygon","coordinates":[[[[127.0039,37.9943],[127.0156,37.9923],[127.017,37.9867],[127.0121,37.9826],[127.0105,37.9754],[127.0041,37.975],[127.0017,37.9683],[126.9909,37.9677],[126.9885,37.9565],[126.9773,37.9516],[126.9763,37.9445],[126.9647,37.9384],[126.9616,37.921],[126.9495,37.9184],[126.9548,37.9113],[126.9459,37.9009],[126.9482,37.8968],[126.9454,37.8888],[126.9462,37.8678],[126.9337,37.8461],[126.9367,37.8413],[126.9278,37.8377],[126.924,37.8414],[126.9124,37.8405],[126.911,37.8285],[126.902,37.8248],[126.91,37.8167],[126.9086,37.8115],[126.9119,37.805],[126.906,37.8024],[126.9036,37.7907],[126.9187,37.7902],[126.9264,37.7852],[126.9319,37.789],[126.9379,37.787],[126.928,37.757],[126.9318,37.7536],[126.9291,37.7485],[126.9109,37.7465],[126.9009,37.7372],[126.9026,37.7287],[126.8885,37.723],[126.8737,37.726],[126.8717,37.7297],[126.8679,37.7287],[126.8649,37.7326],[126.8555,37.7354],[126.8371,37.7275],[126.8137,37.7235],[126.8014,37.7295],[126.7988,37.7366],[126.7939,37.7346],[126.7938,37.7261],[126.7746,37.7116],[126.7734,37.7039],[126.767,37.7072],[126.76,37.7033],[126.7255,37.7047],[126.7007,37.697],[126.6899,37.6886],[126.674,37.7003],[126.6803,37.7317],[126.6754,37.753],[126.6651,37.7693],[126.6626,37.7807],[126.6714,37.8348],[126.6593,37.8403],[126.6609,37.8437],[126.6796,37.846],[126.6799,37.8518],[126.6921,37.8685],[126.6834,37.8741],[126.6801,37.8704],[126.6726,37.8701],[126.6752,37.8745],[126.672,37.8781],[126.682,37.8798],[126.6787,37.8816],[126.6797,37.8847],[126.6725,37.8822],[126.6745,37.886],[126.6701,37.888],[126.6773,37.8978],[126.6768,37.9077],[126.6828,37.9129],[126.6725,37.9142],[126.666,37.9191],[126.6673,37.9341],[126.6721,37.9396],[126.6691,37.9418],[126.671,37.9552],[126.6764,37.9538],[126.6813,37.9581],[126.6873,37.9572],[126.6923,37.9661],[126.7037,37.9748],[126.7088,37.9752],[126.7095,37.9706],[126.7167,37.9689],[126.7194,37.965],[126.7278,37.9687],[126.7369,37.966],[126.7401,37.9728],[126.7517,37.9806],[126.7624,37.9847],[126.7731,37.9784],[126.7753,37.9804],[126.7725,37.9839],[126.7836,37.9817],[126.7964,37.9937],[126.8008,37.9917],[126.8027,37.9827],[126.8107,37.9742],[126.8071,37.9715],[126.8163,37.9669],[126.8207,37.9575],[126.8328,37.9641],[126.8358,37.9638],[126.8358,37.9602],[126.8401,37.979],[126.8491,37.9866],[126.8738,37.9702],[126.887,37.9662],[126.8955,37.9697],[126.8922,37.9847],[126.8924,37.9919],[126.8956,37.9949],[126.904,37.9944],[126.9097,37.9883],[126.9382,37.9809],[126.9552,37.9896],[126.9722,38.0075],[126.9894,38.0106],[127.0039,37.9943]]]]}},{"type":"Feature","properties":{"code":"31210","name":"이천시"},"geometry":{"type":"MultiPolygon","coordinates":[[[[127.4852,37.3498],[127.4896,37.3427],[127.502,37.3382],[127.5139,37.3391],[127.5208,37.3298],[127.528,37.3276],[127.525,37.324],[127.5281,37.3171],[127.5461,37.3107],[127.5462,37.3014],[127.5354,37.2894],[127.5289,37.2741],[127.5325,37.2575],[127.5373,37.2523],[127.536,37.2452],[127.5255,37.2394],[127.531,37.1988],[127.5171,37.1824],[127.5232,37.1804],[127.5278,37.1729],[127.5529,37.1754],[127.5591,37.1808],[127.5708,37.1702],[127.5778,37.1763],[127.5725,37.1845],[127.5738,37.1872],[127.5957,37.1899],[127.5993,37.1831],[127.6128,37.1734],[127.6152,37.164],[127.6195,37.1622],[127.6283,37.1659],[127.633,37.162],[127.6273,37.1523],[127.6378,37.1412],[127.6331,37.1202],[127.6362,37.1139],[127.6343,37.099],[127.6119,37.0873],[127.5951,37.088],[127.5995,37.0858],[127.6049,37.0762],[127.6047,37.0688],[127.5963,37.0737],[127.578,37.0753],[127.565,37.0606],[127.5695,37.0482],[127.5569,37.0413],[127.5411,37.0507],[127.5183,37.0584],[127.5047,37.0481],[127.4967,37.0481],[127.4882,37.0534],[127.506,37.0615],[127.5099,37.0664],[127.5069,37.0696],[127.513,37.0721],[127.5166,37.0816],[127.5118,37.0984],[127.5154,37.1029],[127.5037,37.1095],[127.4989,37.1232],[127.4585,37.1303],[127.4423,37.1482],[127.4274,37.1468],[127.4242,37.1516],[127.4144,37.1522],[127.41,37.1609],[127.4132,37.1729],[127.4108,37.1833],[127.4016,37.18],[127.3722,37.1858],[127.3785,37.1952],[127.3698,37.2043],[127.3612,37.2002],[127.3497,37.2036],[127.3418,37.2084],[127.3375,37.2168],[127.3303,37.2204],[127.3348,37.2387],[127.331,37.2432],[127.3324,37.2482],[127.3382,37.2523],[127.3366,37.2612],[127.3409,37.2649],[127.3387,37.2707],[127.3491,37.2769],[127.34,37.2881],[127.3569,37.2943],[127.3544,37.3015],[127.3648,37.3086],[127.3633,37.3159],[127.3699,37.3152],[127.3759,37.3206],[127.3909,37.3198],[127.4001,37.3274],[127.4051,37.3273],[127.4425,37.3584],[127.4496,37.3526],[127.4705,37.3617],[127.4852,37.3498]]]]}},{"type":"Feature","properties":{"code":"31220","name":"안성시"},"geometry":{"type":"MultiPolygon","coordinates":[[[[127.2689,37.1472],[127.2736,37.1432],[127.2735,37.1344],[127.288,37.1317],[127.301,37.1115],[127.3084,37.1055],[127.3271,37.1197],[127.3434,37.1042],[127.3518,37.1004],[127.3591,37.1076],[127.3731,37.1059],[127.3769,37.1012],[127.3793,37.1051],[127.3901,37.1079],[127.3989,37.0954],[127.4153,37.0889],[127.416,37.096],[127.4241,37.1],[127.421,37.1064],[127.4241,37.1119],[127.4202,37.1157],[127.4131,37.1163],[127.4125,37.1195],[127.421,37.1261],[127.4268,37.1373],[127.4274,37.1468],[127.4326,37.1489],[127.4474,37.1451],[127.4585,37.1303],[127.4981,37.1239],[127.5037,37.1095],[127.5156,37.102],[127.5118,37.0984],[127.5166,37.0816],[127.513,37.0721],[127.5069,37.0696],[127.5099,37.0664],[127.506,37.0615],[127.4834,37.0536],[127.4682,37.0535],[127.4684,37.0504],[127.4569,37.0422],[127.4597,37.0381],[127.4569,37.03],[127.4597,37.0251],[127.4584,37.0205],[127.4509,37.0193],[127.4471,37.0109],[127.4408,37.0121],[127.4365,37.0056],[127.4288,37.0022],[127.4212,37.004],[127.415,37.0],[127.3931,36.9974],[127.385,36.9836],[127.4015,36.9677],[127.3975,36.9646],[127.3873,36.9645],[127.3848,36.9596],[127.3787,36.9579],[127.3757,36.9487],[127.3576,36.9477],[127.354,36.9527],[127.3496,36.9528],[127.3406,36.9431],[127.3268,36.9359],[127.3162,36.9347],[127.309,36.9294],[127.2956,36.9313],[127.3034,36.9164],[127.2974,36.904],[127.288,36.8938],[127.2792,36.9005],[127.2788,36.9062],[127.2735,36.9115],[127.2586,36.9159],[127.2531,36.9224],[127.244,36.9176],[127.2203,36.9304],[127.2105,36.9305],[127.2116,36.9378],[127.2036,36.9505],[127.1805,36.9567],[127.1782,36.9625],[127.1554,36.9644],[127.1592,36.9698],[127.1443,36.9711],[127.1297,36.9664],[127.1212,36.9683],[127.1245,36.9768],[127.1411,36.979],[127.1329,36.9877],[127.1378,36.9939],[127.1541,36.9978],[127.1444,37.0132],[127.1523,37.0214],[127.1527,37.0278],[127.1438,37.0327],[127.1222,37.0351],[127.1168,37.0271],[127.113,37.0269],[127.1057,37.0361],[127.1276,37.053],[127.1303,37.0588],[127.125,37.0647],[127.1189,37.062],[127.102,37.0686],[127.1036,37.0759],[127.1248,37.078],[127.1235,37.0912],[127.1349,37.0921],[127.1425,37.0877],[127.1449,37.091],[127.1544,37.0913],[127.1661,37.0863],[127.1763,37.0877],[127.1859,37.0836],[127.195,37.0893],[127.1984,37.0965],[127.2083,37.1044],[127.2083,37.1111],[127.2233,37.1129],[127.2365,37.1211],[127.2508,37.1231],[127.2538,37.138],[127.2507,37.1454],[127.2642,37.1557],[127.2693,37.1527],[127.2689,37.1472]]]]}},{"type":"Feature","properties":{"code":"31230","name":"김포시"},"geometry":{"type":"MultiPolygon","coordinates":[[[[126.5938,37.7612],[126.6321,37.7809],[126.663,37.7807],[126.6651,37.7693],[126.6754,37.753],[126.6803,37.7317],[126.6704,37.6851],[126.6756,37.6736],[126.7347,37.6464],[126.746,37.6352],[126.8026,37.605],[126.7971,37.5977],[126.8007,37.5878],[126.7934,37.5845],[126.7937,37.5816],[126.787,37.5856],[126.7841,37.5826],[126.7677,37.5882],[126.758,37.5853],[126.7557,37.5803],[126.7522,37.5797],[126.7443,37.5925],[126.7255,37.5919],[126.7141,37.6039],[126.7047,37.6025],[126.7054,37.6121],[126.6945,37.6203],[126.6747,37.6299],[126.6724,37.6338],[126.654,37.6382],[126.6471,37.6275],[126.6372,37.6267],[126.6366,37.6205],[126.6322,37.6176],[126.6257,37.6026],[126.6144,37.6063],[126.5916,37.593],[126.5918,37.5991],[126.5815,37.6003],[126.578,37.605],[126.5726,37.5989],[126.5659,37.6039],[126.5598,37.6011],[126.5549,37.6082],[126.5553,37.615],[126.5473,37.6343],[126.5392,37.6397],[126.5315,37.6548],[126.5418,37.659],[126.5442,37.6629],[126.5396,37.6659],[126.5397,37.6693],[126.5268,37.6743],[126.534,37.6854],[126.5314,37.7038],[126.5216,37.7144],[126.531,37.7475],[126.5183,37.7628],[126.5245,37.7685],[126.517,37.771],[126.5228,37.7901],[126.5547,37.7776],[126.5753,37.7627],[126.5938,37.7612]]]]}},{"type":"Feature","properties":{"code":"31240","name":"화성시"},"geometry":{"type":"MultiPolygon","coordinates":[[[[126.5394,37.0987],[126.5355,37.1145],[126.5408,37.1117],[126.542,37.1037],[126.5394,37.0987]]],[[[126.6398,37.1205],[126.6521,37.1161],[126.6499,37.1146],[126.6443,37.1181],[126.6436,37.1149],[126.6404,37.115],[126.6268,37.1195],[126.6106,37.1177],[126.6144,37.1251],[126.6195,37.1218],[126.6398,37.1205]]],[[[126.6312,37.1748],[126.619,37.1578],[126.6164,37.1736],[126.6221,37.1796],[126.6256,37.1755],[126.6312,37.1748]]],[[[126.7412,37.283],[126.735,37.284],[126.7419,37.2903],[126.7437,37.2834],[126.7412,37.283]]],[[[126.7453,37.038],[126.7493,37.049],[126.7567,37.0555],[126.684,37.1121],[126.6809,37.1173],[126.6742,37.1172],[126.6847,37.1191],[126.6757,37.1383],[126.6796,37.1431],[126.666,37.1424],[126.6661,37.1425],[126.6807,37.1442],[126.6857,37.1501],[126.6962,37.151],[126.6912,37.1572],[126.6825,37.1605],[126.6579,37.1539],[126.6498,37.1546],[126.6611,37.163],[126.6536,37.181],[126.66,37.1764],[126.6699,37.1892],[126.66,37.1908],[126.6529,37.1829],[126.6496,37.1835],[126.6548,37.1904],[126.6506,37.1911],[126.6609,37.2209],[126.6594,37.2291],[126.6478,37.244],[126.6464,37.2581],[126.6538,37.2694],[126.6327,37.287],[126.6464,37.2785],[126.6576,37.2828],[126.6614,37.2913],[126.648,37.2926],[126.6332,37.2889],[126.6293,37.2849],[126.6329,37.2891],[126.6487,37.2929],[126.6617,37.2926],[126.6618,37.2779],[126.669,37.2763],[126.675,37.2817],[126.6842,37.281],[126.6801,37.2749],[126.672,37.2732],[126.6798,37.2571],[126.6871,37.2615],[126.6964,37.2613],[126.7157,37.2552],[126.7254,37.2563],[126.734,37.2494],[126.7453,37.2551],[126.7573,37.2539],[126.7577,37.2489],[126.7637,37.2491],[126.7651,37.2452],[126.7674,37.2482],[126.7738,37.2482],[126.7764,37.2365],[126.783,37.2297],[126.7866,37.233],[126.7783,37.2394],[126.7783,37.2458],[126.7896,37.2441],[126.7883,37.2552],[126.7934,37.2592],[126.7907,37.2671],[126.7963,37.2707],[126.8112,37.2676],[126.8041,37.2768],[126.8048,37.2937],[126.8192,37.2905],[126.8275,37.2773],[126.8356,37.2766],[126.8401,37.2689],[126.845,37.2668],[126.8431,37.265],[126.8454,37.2599],[126.8496,37.257],[126.8498,37.266],[126.8574,37.2727],[126.8647,37.2724],[126.8746,37.2758],[126.8753,37.277],[126.8639,37.2728],[126.8631,37.2815],[126.8736,37.2798],[126.8787,37.2851],[126.8898,37.282],[126.9009,37.2914],[126.9143,37.2908],[126.9284,37.2768],[126.9271,37.2713],[126.9308,37.2609],[126.9358,37.2569],[126.9501,37.2557],[126.9576,37.24],[126.9679,37.2348],[126.9713,37.229],[126.9877,37.2342],[126.9988,37.2258],[127.0033,37.2302],[127.0219,37.2245],[127.0233,37.2307],[127.0346,37.2365],[127.0411,37.2474],[127.0392,37.2372],[127.0414,37.2355],[127.0459,37.2328],[127.0516,37.2343],[127.0527,37.2313],[127.0669,37.2402],[127.0689,37.2299],[127.0882,37.2166],[127.1176,37.22],[127.1367,37.2155],[127.1507,37.22],[127.1572,37.2074],[127.152,37.1992],[127.1609,37.1903],[127.1607,37.1799],[127.1487,37.1699],[127.133,37.169],[127.1341,37.1651],[127.1283,37.161],[127.1277,37.1455],[127.1043,37.1417],[127.0949,37.1586],[127.0757,37.1627],[127.0713,37.1682],[127.0717,37.1832],[127.0655,37.1853],[127.0644,37.1991],[127.0465,37.1961],[127.0277,37.2006],[127.0079,37.193],[127.0098,37.1873],[127.0025,37.1827],[127.0051,37.1813],[127.0025,37.1783],[126.999,37.1778],[126.9992,37.1806],[126.995,37.1753],[127.0059,37.1688],[127.0253,37.1648],[127.0299,37.1588],[127.0278,37.1529],[127.0357,37.1365],[126.9975,37.1253],[126.9989,37.1198],[126.9951,37.1162],[126.9987,37.1148],[126.9942,37.1144],[127.0004,37.1103],[126.9953,37.1091],[126.9982,37.1065],[126.9984,37.0942],[126.9954,37.0901],[127.0002,37.086],[126.9905,37.0871],[126.9961,37.0794],[126.9904,37.0769],[126.997,37.072],[126.9959,37.0695],[126.9691,37.0732],[126.9647,37.0678],[126.949,37.0688],[126.9479,37.0617],[126.9403,37.0607],[126.9315,37.0626],[126.9285,37.0681],[126.915,37.0657],[126.9056,37.0694],[126.9053,37.0735],[126.8971,37.0686],[126.8837,37.067],[126.8774,37.0527],[126.8566,37.0239],[126.8421,37.0143],[126.7977,37.0134],[126.7952,37.0256],[126.7896,37.0296],[126.7506,37.0297],[126.7488,37.0352],[126.7427,37.038],[126.7453,37.038]],[[126.7632,37.063],[126.7616,37.0681],[126.7645,37.0688],[126.7635,37.0792],[126.7708,37.1016],[126.7583,37.1114],[126.7604,37.1179],[126.7766,37.1322],[126.7826,37.1349],[126.7872,37.1296],[126.795,37.1288],[126.7961,37.1343],[126.8014,37.1384],[126.8118,37.1391],[126.8166,37.1434],[126.808,37.1448],[126.8045,37.1524],[126.8001,37.1539],[126.7911,37.1499],[126.7817,37.1523],[126.7946,37.1574],[126.7978,37.1623],[126.7923,37.1732],[126.8006,37.1962],[126.7947,37.1815],[126.7775,37.1652],[126.7472,37.1676],[126.7416,37.153],[126.7308,37.1493],[126.7269,37.1387],[126.7145,37.1305],[126.7062,37.1317],[126.7014,37.1272],[126.7049,37.1232],[126.6981,37.1196],[126.6978,37.1224],[126.6934,37.1222],[126.69,37.116],[126.684,37.1146],[126.7563,37.0563],[126.77,37.0601],[126.7709,37.0644],[126.7632,37.063]]]]}},{"type":"Feature","properties":{"code":"31250","name":"광주시"},"geometry":{"type":"MultiPolygon","coordinates":[[[[127.3697,37.5242],[127.3855,37.4983],[127.3804,37.49],[127.3888,37.4759],[127.3871,37.4669],[127.3841,37.459],[127.3691,37.4568],[127.3724,37.445],[127.3829,37.4429],[127.3851,37.4338],[127.4012,37.4202],[127.3989,37.4142],[127.4115,37.4062],[127.4148,37.3937],[127.4202,37.3869],[127.4446,37.3856],[127.4458,37.3621],[127.4303,37.3468],[127.3909,37.3198],[127.3759,37.3206],[127.3699,37.3152],[127.3633,37.3159],[127.3648,37.3086],[127.3544,37.3015],[127.3569,37.2943],[127.34,37.2881],[127.3484,37.2792],[127.3449,37.2739],[127.3304,37.2702],[127.3225,37.2741],[127.3134,37.2736],[127.3037,37.2707],[127.2984,37.265],[127.2921,37.2716],[127.2817,37.2687],[127.276,37.2735],[127.2817,37.2779],[127.2776,37.29],[127.2815,37.2979],[127.2772,37.3085],[127.283,37.3159],[127.2794,37.3299],[127.2831,37.3451],[127.2648,37.3426],[127.2614,37.3483],[127.2472,37.3556],[127.2409,37.3543],[127.2377,37.3601],[127.2226,37.3545],[127.2172,37.3554],[127.2223,37.3464],[127.2194,37.3465],[127.2083,37.3308],[127.2019,37.3283],[127.1973,37.3336],[127.1982,37.3412],[127.1918,37.3472],[127.1788,37.3432],[127.1632,37.3434],[127.1443,37.3368],[127.1364,37.3411],[127.1374,37.3445],[127.1326,37.3495],[127.1348,37.3579],[127.1507,37.3619],[127.1606,37.3727],[127.1618,37.3797],[127.1766,37.3852],[127.1682,37.3955],[127.1778,37.414],[127.1847,37.4156],[127.1943,37.4247],[127.1948,37.4512],[127.1917,37.457],[127.1848,37.4588],[127.1809,37.4734],[127.1753,37.4771],[127.1777,37.4872],[127.1886,37.4803],[127.1984,37.4796],[127.2018,37.4841],[127.205,37.4803],[127.2156,37.4823],[127.2284,37.4775],[127.2444,37.4766],[127.247,37.4805],[127.2444,37.4851],[127.2536,37.4851],[127.2592,37.4911],[127.2532,37.5032],[127.2546,37.5063],[127.2683,37.5064],[127.2857,37.5144],[127.2873,37.5067],[127.2948,37.5057],[127.3054,37.5122],[127.3089,37.5271],[127.3242,37.5351],[127.3552,37.5348],[127.3697,37.5242]]]]}},{"type":"Feature","properties":{"code":"31260","name":"양주시"},"geometry":{"type":"MultiPolygon","coordinates":[[[[126.9861,37.9385],[126.9965,37.9336],[127.0014,37.9361],[127.0136,37.9209],[127.0062,37.9152],[127.0106,37.9048],[127.0214,37.8987],[127.0452,37.8954],[127.0482,37.8832],[127.0605,37.8693],[127.0884,37.8722],[127.1073,37.8625],[127.1147,37.85],[127.1172,37.8346],[127.1218,37.8283],[127.122,37.812],[127.1173,37.8056],[127.1177,37.796],[127.1029,37.7784],[127.0908,37.776],[127.0603,37.7621],[127.0512,37.7611],[127.0418,37.7667],[127.0174,37.7689],[127.0085,37.7624],[127.002,37.7626],[127.0066,37.7477],[127.0024,37.7408],[127.0122,37.7261],[127.0121,37.7137],[127.0182,37.7051],[127.0097,37.6967],[127.0087,37.6844],[126.9908,37.6798],[126.9658,37.6916],[126.9551,37.6931],[126.9452,37.6858],[126.9429,37.672],[126.9112,37.6687],[126.9055,37.6752],[126.9128,37.676],[126.9153,37.6882],[126.9253,37.7087],[126.9215,37.7132],[126.9249,37.7202],[126.9216,37.7303],[126.9311,37.7376],[126.9304,37.7441],[126.9331,37.7459],[126.9291,37.7485],[126.9318,37.7536],[126.928,37.757],[126.9379,37.787],[126.9319,37.789],[126.9264,37.7852],[126.9187,37.7902],[126.9036,37.7907],[126.906,37.8024],[126.9119,37.805],[126.9086,37.8115],[126.91,37.8167],[126.902,37.8248],[126.911,37.8285],[126.9124,37.8405],[126.924,37.8414],[126.9278,37.8377],[126.9367,37.8413],[126.9337,37.8461],[126.9462,37.8678],[126.9454,37.8888],[126.9482,37.8968],[126.9459,37.9009],[126.9548,37.9113],[126.9495,37.9184],[126.9616,37.921],[126.9647,37.9384],[126.9725,37.9421],[126.9783,37.9378],[126.9861,37.9385]]]]}},{"type":"Feature","properties":{"code":"31270","name":"포천시"},"geometry":{"type":"MultiPolygon","coordinates":[[[[127.1859,38.1739],[127.1892,38.1613],[127.222,38.1374],[127.2238,38.147],[127.2344,38.1471],[127.2394,38.1566],[127.2563,38.1632],[127.2588,38.1695],[127.2645,38.1717],[127.2664,38.1804],[127.2836,38.1829],[127.2883,38.1769],[127.2977,38.1763],[127.2962,38.1725],[127.289,38.1695],[127.284,38.1595],[127.2864,38.1526],[127.2748,38.1367],[127.2758,38.1242],[127.2807,38.1254],[127.2863,38.1146],[127.3095,38.1183],[127.3168,38.0984],[127.337,38.0898],[127.3398,38.1013],[127.3659,38.1069],[127.3786,38.1184],[127.3838,38.1151],[127.4035,38.113],[127.4055,38.103],[127.4134,38.102],[127.4309,38.1154],[127.4335,38.111],[127.4405,38.1088],[127.4452,38.0975],[127.4471,38.0807],[127.4445,38.0582],[127.4467,38.0542],[127.4388,38.0413],[127.4247,38.0335],[127.4267,38.0257],[127.4198,38.0174],[127.4128,37.9978],[127.4052,37.9903],[127.3849,37.9823],[127.3848,37.9755],[127.3767,37.9616],[127.3794,37.9582],[127.3766,37.9532],[127.3852,37.9469],[127.3846,37.9433],[127.3565,37.9211],[127.3498,37.9215],[127.3453,37.9264],[127.3383,37.9231],[127.3302,37.9256],[127.3266,37.9116],[127.3296,37.9093],[127.3264,37.9024],[127.3285,37.894],[127.3224,37.8873],[127.3251,37.8771],[127.3229,37.8714],[127.3126,37.8658],[127.296,37.8688],[127.2922,37.8749],[127.2879,37.8692],[127.2804,37.8557],[127.286,37.8478],[127.279,37.8423],[127.2744,37.8299],[127.2793,37.8163],[127.2785,37.8047],[127.271,37.7946],[127.273,37.79],[127.2623,37.7767],[127.2599,37.7683],[127.2389,37.7631],[127.2251,37.7535],[127.2226,37.7578],[127.2129,37.7615],[127.2116,37.7694],[127.2072,37.7639],[127.2017,37.7652],[127.1967,37.7617],[127.1828,37.7644],[127.1725,37.7577],[127.1729,37.7501],[127.1638,37.7469],[127.1443,37.756],[127.1397,37.764],[127.1258,37.7636],[127.1291,37.7671],[127.1274,37.7715],[127.1057,37.7803],[127.1177,37.796],[127.1173,37.8056],[127.122,37.812],[127.1218,37.8283],[127.1089,37.8604],[127.1116,37.8648],[127.1232,37.867],[127.1283,37.874],[127.1468,37.8762],[127.155,37.8956],[127.1493,37.8981],[127.1455,37.912],[127.1215,37.9165],[127.1086,37.9396],[127.0954,37.9443],[127.0993,37.9529],[127.0924,37.9588],[127.0942,37.9668],[127.0898,37.9833],[127.1008,37.9892],[127.1114,37.9889],[127.1174,37.9852],[127.1203,37.9789],[127.1349,37.9895],[127.1442,37.9922],[127.1473,37.9968],[127.1467,38.0145],[127.1353,38.0296],[127.1375,38.0381],[127.1146,38.0398],[127.1181,38.0436],[127.1119,38.0511],[127.1157,38.0603],[127.1283,38.0603],[127.1382,38.0665],[127.1425,38.073],[127.1475,38.0695],[127.1463,38.0607],[127.1489,38.0578],[127.1568,38.0633],[127.1664,38.0616],[127.1729,38.0663],[127.1888,38.0645],[127.1921,38.0834],[127.1841,38.0916],[127.1825,38.1151],[127.1713,38.1218],[127.1752,38.1285],[127.1729,38.1412],[127.177,38.1525],[127.1725,38.1699],[127.1746,38.1804],[127.1805,38.1861],[127.1892,38.1882],[127.1859,38.1739]]]]}},{"type":"Feature","properties":{"code":"31280","name":"여주시"},"geometry":{"type":"MultiPolygon","coordinates":[[[[127.5314,37.4259],[127.5366,37.4117],[127.5433,37.4099],[127.5563,37.4167],[127.5719,37.4117],[127.583,37.4169],[127.5845,37.4139],[127.5904,37.4223],[127.6013,37.4211],[127.6177,37.4138],[127.6199,37.4098],[127.6353,37.4135],[127.6459,37.4048],[127.6524,37.4079],[127.6583,37.4168],[127.6688,37.4122],[127.6834,37.4143],[127.6879,37.4118],[127.684,37.3982],[127.7081,37.4103],[127.7141,37.4049],[127.7149,37.4],[127.7038,37.3912],[127.7031,37.3807],[127.7002,37.3792],[127.7022,37.373],[127.7164,37.3701],[127.7299,37.3762],[127.7457,37.3689],[127.7596,37.3671],[127.7608,37.3526],[127.7579,37.3464],[127.7627,37.3343],[127.759,37.3312],[127.7683,37.3067],[127.7655,37.3014],[127.7499,37.2972],[127.7605,37.2729],[127.7576,37.2583],[127.7469,37.24],[127.7489,37.2183],[127.7353,37.2081],[127.7264,37.1825],[127.7169,37.1834],[127.7068,37.1703],[127.7043,37.1576],[127.695,37.1507],[127.6955,37.1404],[127.6886,37.1355],[127.6702,37.1361],[127.6599,37.1399],[127.6468,37.1511],[127.6299,37.1541],[127.633,37.162],[127.6305,37.1652],[127.616,37.1633],[127.6128,37.1734],[127.5993,37.1831],[127.5957,37.1899],[127.5738,37.1872],[127.5725,37.1845],[127.5778,37.1763],[127.5708,37.1702],[127.5591,37.1808],[127.5529,37.1754],[127.5278,37.1729],[127.5232,37.1804],[127.5171,37.1824],[127.531,37.1988],[127.5255,37.2394],[127.536,37.2452],[127.5373,37.2523],[127.5325,37.2575],[127.5289,37.2741],[127.5354,37.2894],[127.5462,37.3014],[127.5459,37.3111],[127.5281,37.3171],[127.525,37.324],[127.528,37.3276],[127.5208,37.3298],[127.5139,37.3391],[127.502,37.3382],[127.4896,37.3427],[127.4705,37.3617],[127.4486,37.3526],[127.4425,37.3584],[127.4458,37.3628],[127.4446,37.3856],[127.4202,37.3869],[127.4148,37.3937],[127.4112,37.4067],[127.3982,37.4157],[127.4072,37.4301],[127.415,37.4321],[127.4228,37.4394],[127.4679,37.4264],[127.4732,37.4223],[127.4798,37.424],[127.487,37.4332],[127.4969,37.4323],[127.5068,37.4404],[127.5253,37.4328],[127.5314,37.4259]]]]}},{"type":"Feature","properties":{"code":"31350","name":"연천군"},"geometry":{"type":"MultiPolygon","coordinates":[[[[127.1036,38.2806],[127.1014,38.2737],[127.1107,38.271],[127.1081,38.2684],[127.1081,38.2583],[127.1116,38.2474],[127.1099,38.2418],[127.1136,38.2368],[127.1312,38.2328],[127.1489,38.2423],[127.1633,38.2385],[127.1597,38.2195],[127.1712,38.2135],[127.1751,38.2055],[127.1697,38.1977],[127.1805,38.1861],[127.1746,38.1804],[127.1725,38.1699],[127.177,38.1525],[127.1729,38.1412],[127.1752,38.1285],[127.1713,38.1218],[127.1825,38.1151],[127.1841,38.0916],[127.1921,38.0834],[127.1888,38.0645],[127.1729,38.0663],[127.1664,38.0616],[127.1568,38.0633],[127.1489,38.0578],[127.1463,38.0607],[127.1475,38.0695],[127.1425,38.073],[127.1382,38.0665],[127.1283,38.0603],[127.1157,38.0603],[127.1119,38.0511],[127.1181,38.0436],[127.1151,38.0393],[127.1375,38.0381],[127.1353,38.0296],[127.1467,38.0145],[127.1473,37.9968],[127.1442,37.9922],[127.1349,37.9895],[127.1203,37.9789],[127.1121,37.9888],[127.1008,37.9892],[127.0898,37.9833],[127.0912,37.9716],[127.0808,37.9764],[127.0661,37.9752],[127.0641,37.9792],[127.0533,37.9807],[127.045,37.9731],[127.0418,37.9601],[127.0288,37.9559],[127.0261,37.9413],[127.0169,37.9367],[127.0097,37.9282],[127.0009,37.9363],[126.9942,37.934],[126.9725,37.9421],[126.9763,37.9445],[126.9773,37.9516],[126.9885,37.9565],[126.9909,37.9677],[127.0017,37.9683],[127.0028,37.9735],[127.0105,37.9754],[127.0121,37.9826],[127.0171,37.987],[127.0148,37.9928],[127.0005,37.9964],[126.9894,38.0106],[126.9722,38.0075],[126.9552,37.9896],[126.9382,37.9809],[126.9097,37.9883],[126.904,37.9944],[126.8956,37.9949],[126.8924,37.9919],[126.8922,37.9847],[126.8955,37.9697],[126.887,37.9662],[126.8738,37.9702],[126.8528,37.986],[126.8471,37.9861],[126.8401,37.979],[126.8358,37.9602],[126.8358,37.9638],[126.8328,37.9641],[126.8207,37.9575],[126.8163,37.9669],[126.8071,37.9715],[126.8107,37.9742],[126.8027,37.9827],[126.8008,37.9917],[126.7964,37.9937],[126.7868,37.988],[126.7901,37.999],[126.8112,37.9994],[126.8198,38.0051],[126.8233,38.0088],[126.8224,38.0152],[126.8262,38.0178],[126.8246,38.0203],[126.826,38.0242],[126.8294,38.0242],[126.8257,38.0198],[126.8277,38.0195],[126.8407,38.0329],[126.8554,38.0321],[126.8524,38.0351],[126.8548,38.0404],[126.8525,38.0531],[126.8584,38.054],[126.8581,38.0617],[126.8659,38.068],[126.8696,38.0778],[126.8603,38.0859],[126.8591,38.0918],[126.8632,38.0944],[126.8561,38.0997],[126.8624,38.1083],[126.8827,38.1159],[126.8889,38.1288],[126.9047,38.1379],[126.9171,38.1367],[126.9279,38.1273],[126.9403,38.1339],[126.9575,38.1347],[126.9609,38.1397],[126.9664,38.1374],[126.9694,38.1435],[126.968,38.1475],[126.9511,38.1581],[126.9494,38.1623],[126.953,38.1653],[126.954,38.1623],[126.9656,38.1711],[126.9652,38.1768],[126.969,38.1819],[126.9649,38.1887],[126.9665,38.199],[126.9749,38.1994],[126.9744,38.2045],[126.9795,38.2051],[126.9837,38.2106],[126.9788,38.2222],[126.9817,38.2273],[126.9891,38.2254],[126.9916,38.2295],[127.0047,38.2215],[127.0139,38.2369],[127.0235,38.2416],[127.0204,38.2458],[127.0281,38.245],[127.0366,38.2498],[127.0418,38.2591],[127.0547,38.2588],[127.0662,38.2637],[127.0765,38.2722],[127.0758,38.278],[127.1036,38.2806]]]]}},{"type":"Feature","properties":{"code":"31370","name":"가평군"},"geometry":{"type":"MultiPolygon","coordinates":[[[[127.4575,38.017],[127.4716,38.0065],[127.4974,38.0037],[127.5039,37.998],[127.5089,38.0013],[127.5399,38.0006],[127.5472,37.9783],[127.5442,37.9741],[127.5452,37.9677],[127.6004,37.9565],[127.6025,37.9463],[127.6121,37.9406],[127.6166,37.9283],[127.6121,37.9228],[127.6171,37.9064],[127.6074,37.8897],[127.6091,37.8835],[127.6058,37.8765],[127.6032,37.8742],[127.5852,37.8762],[127.5779,37.874],[127.5686,37.867],[127.5633,37.8564],[127.5501,37.8519],[127.5497,37.8465],[127.537,37.845],[127.5273,37.8365],[127.5246,37.825],[127.5349,37.8177],[127.5374,37.8105],[127.5208,37.7925],[127.5409,37.7709],[127.5449,37.7601],[127.5341,37.7486],[127.5112,37.7364],[127.5065,37.7278],[127.5071,37.7206],[127.5118,37.7157],[127.5247,37.7265],[127.5402,37.7195],[127.5537,37.7288],[127.5599,37.7286],[127.5618,37.7196],[127.5506,37.687],[127.549,37.6686],[127.5528,37.6615],[127.5462,37.6579],[127.5439,37.6517],[127.5357,37.6507],[127.5352,37.6472],[127.5379,37.6415],[127.5472,37.6374],[127.5483,37.6332],[127.5594,37.6285],[127.5597,37.6229],[127.5704,37.6136],[127.5702,37.6095],[127.5627,37.6046],[127.5599,37.5835],[127.5534,37.5867],[127.522,37.5864],[127.5112,37.5765],[127.4971,37.5711],[127.4704,37.58],[127.4696,37.5925],[127.4732,37.6074],[127.471,37.622],[127.4584,37.6292],[127.4551,37.6409],[127.4405,37.6441],[127.4348,37.6537],[127.4415,37.6597],[127.4398,37.662],[127.4281,37.6708],[127.4251,37.6656],[127.4073,37.6596],[127.3981,37.6513],[127.3799,37.6516],[127.3712,37.6477],[127.381,37.6773],[127.3766,37.6753],[127.3743,37.6821],[127.3665,37.6877],[127.3721,37.6922],[127.3586,37.6946],[127.3542,37.7059],[127.3554,37.7236],[127.3429,37.7292],[127.3425,37.7376],[127.3352,37.744],[127.334,37.7527],[127.3162,37.7689],[127.3111,37.7678],[127.2943,37.7752],[127.2735,37.7738],[127.2669,37.7799],[127.273,37.79],[127.271,37.7946],[127.2785,37.8047],[127.2793,37.8163],[127.2744,37.8299],[127.279,37.8423],[127.286,37.8478],[127.2804,37.8557],[127.2879,37.8692],[127.2922,37.8749],[127.296,37.8688],[127.3126,37.8658],[127.3229,37.8714],[127.3251,37.8771],[127.3224,37.8873],[127.3285,37.894],[127.3264,37.9024],[127.3296,37.9093],[127.3266,37.9116],[127.3302,37.9256],[127.3383,37.9231],[127.3453,37.9264],[127.3498,37.9215],[127.3565,37.9211],[127.3846,37.9433],[127.3852,37.9469],[127.3766,37.9532],[127.3794,37.9582],[127.3767,37.9616],[127.3848,37.9755],[127.3849,37.9823],[127.4052,37.9903],[127.4128,37.9978],[127.4198,38.0174],[127.4267,38.0257],[127.4247,38.0335],[127.4357,38.0384],[127.4462,38.0512],[127.4529,38.0472],[127.4519,38.0346],[127.4575,38.017]]]]}},{"type":"Feature","properties":{"code":"31380","name":"양평군"},"geometry":{"type":"MultiPolygon","coordinates":[[[[127.3799,37.6516],[127.3981,37.6513],[127.4073,37.6596],[127.4251,37.6656],[127.4281,37.6708],[127.4415,37.6597],[127.4348,37.6537],[127.4405,37.6441],[127.4551,37.6409],[127.4584,37.6292],[127.471,37.622],[127.4732,37.6074],[127.4696,37.5925],[127.4704,37.58],[127.4971,37.5711],[127.5112,37.5765],[127.522,37.5864],[127.5534,37.5867],[127.5599,37.5835],[127.5627,37.6046],[127.5696,37.6084],[127.5705,37.6134],[127.5597,37.6229],[127.5602,37.6298],[127.5647,37.6332],[127.5807,37.6334],[127.5849,37.6423],[127.5988,37.6469],[127.6022,37.6515],[127.622,37.6421],[127.6273,37.6427],[127.6394,37.6326],[127.647,37.6327],[127.6515,37.6229],[127.6638,37.6238],[127.6675,37.6173],[127.6962,37.6008],[127.7008,37.5961],[127.6982,37.5909],[127.7079,37.5864],[127.7231,37.5906],[127.7447,37.5879],[127.7541,37.5921],[127.7666,37.5827],[127.7844,37.5781],[127.7941,37.5853],[127.8042,37.5791],[127.8141,37.5642],[127.8395,37.5592],[127.8481,37.5523],[127.842,37.5389],[127.8096,37.5379],[127.8065,37.5312],[127.7963,37.5286],[127.7958,37.5242],[127.7855,37.5133],[127.7811,37.5131],[127.7718,37.5052],[127.7599,37.5033],[127.76,37.4929],[127.7747,37.4917],[127.7761,37.4885],[127.7802,37.4887],[127.7848,37.4787],[127.801,37.47],[127.7963,37.463],[127.7984,37.4426],[127.804,37.4288],[127.7946,37.4243],[127.7822,37.3924],[127.7841,37.3888],[127.7767,37.3833],[127.7789,37.3708],[127.7568,37.367],[127.7299,37.3762],[127.7164,37.3701],[127.7022,37.373],[127.7002,37.3792],[127.7031,37.3807],[127.7038,37.3912],[127.7149,37.4],[127.7141,37.4049],[127.7081,37.4103],[127.684,37.3982],[127.6879,37.4118],[127.6834,37.4143],[127.6688,37.4122],[127.6583,37.4168],[127.6524,37.4079],[127.6459,37.4048],[127.6353,37.4135],[127.6199,37.4098],[127.6177,37.4138],[127.6013,37.4211],[127.5904,37.4223],[127.5845,37.4139],[127.583,37.4169],[127.5719,37.4117],[127.5563,37.4167],[127.5433,37.4099],[127.5366,37.4117],[127.5279,37.4307],[127.5068,37.4404],[127.4969,37.4323],[127.487,37.4332],[127.4798,37.424],[127.4732,37.4223],[127.4679,37.4264],[127.4228,37.4394],[127.399,37.4218],[127.3843,37.4348],[127.3825,37.4432],[127.3724,37.445],[127.3691,37.4568],[127.3854,37.46],[127.3888,37.4754],[127.3804,37.49],[127.3855,37.4983],[127.364,37.5306],[127.3496,37.5359],[127.3264,37.5357],[127.3089,37.5271],[127.309,37.5201],[127.3059,37.5219],[127.3104,37.5404],[127.328,37.5652],[127.3416,37.5924],[127.3502,37.6245],[127.3715,37.6476],[127.3799,37.6516]]]]}}]}