{"type":"FeatureCollection","features":[{"type":"Feature","properties":{"code":"32010","name":"춘천시"},"geometry":{"type":"MultiPolygon","coordinates":[[[[127.5968,38.0799],[127.6078,38.0717],[127.6054,38.0611],[127.6125,38.0567],[127.618,38.0572],[127.6237,38.0516],[127.6338,38.0502],[127.6461,38.0566],[127.652,38.0545],[127.6481,38.0334],[127.6541,38.0238],[127.6709,38.0348],[127.6872,38.0343],[127.7002,38.0382],[127.7094,38.0323],[127.7135,38.0239],[127.7254,38.0251],[127.7328,38.0356],[127.7472,38.0395],[127.7502,38.0354],[127.7583,38.0348],[127.7609,38.0299],[127.77,38.0279],[127.7752,38.0186],[127.7734,38.0143],[127.7792,38.0137],[127.7882,37.9943],[127.8132,38.0037],[127.8271,38.0008],[127.8304,38.0084],[127.8581,38.0188],[127.8542,38.0253],[127.8556,38.0286],[127.8508,38.0308],[127.8492,38.0363],[127.8552,38.0523],[127.879,38.0473],[127.9027,38.0507],[127.9041,38.0303],[127.9134,38.0229],[127.9292,38.0188],[127.9345,38.0138],[127.9449,38.0184],[127.947,38.0313],[127.9518,38.0382],[127.9554,38.0387],[127.9869,38.0255],[127.9838,38.0103],[127.9933,38.0016],[127.998,38.0027],[128.013,38.019],[128.0249,38.0195],[128.0296,38.0147],[128.02,38.0061],[128.0153,37.9966],[127.984,37.9888],[127.9818,37.9835],[127.9845,37.966],[127.9775,37.9571],[127.9873,37.9518],[127.9896,37.9452],[127.9951,37.9412],[127.9948,37.9361],[127.9924,37.9301],[127.9836,37.9234],[127.9863,37.9123],[127.9711,37.8987],[127.9728,37.8825],[127.9575,37.8738],[127.9501,37.8632],[127.943,37.8477],[127.9461,37.8411],[127.9371,37.8356],[127.934,37.8271],[127.9293,37.8277],[127.9185,37.8442],[127.9057,37.8494],[127.9083,37.8554],[127.8907,37.8631],[127.8807,37.8607],[127.8765,37.8565],[127.8782,37.8495],[127.8693,37.8366],[127.8483,37.8356],[127.8221,37.8457],[127.8155,37.841],[127.8136,37.8333],[127.8276,37.8205],[127.8249,37.7983],[127.8432,37.7897],[127.8466,37.7808],[127.8561,37.771],[127.8549,37.7634],[127.8403,37.7562],[127.8448,37.7495],[127.8283,37.7409],[127.8163,37.7486],[127.8067,37.7463],[127.8063,37.7426],[127.7949,37.735],[127.7875,37.7367],[127.7818,37.7423],[127.7594,37.7363],[127.7547,37.7325],[127.749,37.7403],[127.743,37.7416],[127.7273,37.7321],[127.7217,37.7334],[127.7118,37.7276],[127.701,37.7165],[127.6875,37.7163],[127.6795,37.7114],[127.6841,37.7019],[127.6778,37.6951],[127.6527,37.6995],[127.6495,37.6802],[127.6426,37.6803],[127.6415,37.6946],[127.6356,37.6983],[127.6233,37.6912],[127.6211,37.6791],[127.6094,37.6758],[127.6079,37.6877],[127.6105,37.6985],[127.6057,37.7044],[127.5942,37.7047],[127.5915,37.713],[127.5946,37.7197],[127.5892,37.7254],[127.5675,37.7327],[127.5643,37.7279],[127.5537,37.7288],[127.5402,37.7195],[127.5247,37.7265],[127.5118,37.7157],[127.5061,37.7242],[127.5112,37.7364],[127.5341,37.7486],[127.5449,37.7601],[127.5409,37.7709],[127.5208,37.7925],[127.5374,37.8105],[127.5349,37.8177],[127.5246,37.825],[127.5273,37.8365],[127.537,37.845],[127.5497,37.8465],[127.5501,37.8519],[127.5633,37.8564],[127.5686,37.867],[127.5779,37.874],[127.6037,37.8745],[127.6088,37.8822],[127.6074,37.8897],[127.6171,37.9064],[127.6121,37.9209],[127.616,37.9309],[127.6121,37.9406],[127.6025,37.9463],[127.6024,37.955],[127.5744,37.9637],[127.5584,37.9631],[127.5443,37.9694],[127.5472,37.9783],[127.5399,38.0006],[127.5448,38.0195],[127.5639,38.022],[127.5669,38.0319],[127.5786,38.0398],[127.5741,38.0509],[127.5796,38.0558],[127.5762,38.0623],[127.5657,38.0677],[127.5656,38.083],[127.5756,38.0848],[127.5968,38.0799]]]]}},{"type":"Feature","properties":{"code":"32020","name":"원주시"},"geometry":{"type":"MultiPolygon","coordinates":[[[[127.9329,37.4871],[127.9379,37.4828],[127.937,37.4763],[127.9493,37.4544],[127.9636,37.4535],[127.965,37.4509],[127.9743,37.4576],[127.9832,37.4594],[128.0026,37.4568],[128.0164,37.4459],[128.0274,37.4486],[128.0384,37.4471],[128.0427,37.4433],[128.0589,37.4451],[128.0635,37.4359],[128.0842,37.4267],[128.0886,37.4143],[128.096,37.4102],[128.0974,37.4064],[128.0788,37.4],[128.0719,37.3919],[128.0763,37.3846],[128.0745,37.3797],[128.0768,37.3737],[128.0727,37.3674],[128.0655,37.3644],[128.0497,37.366],[128.0384,37.3541],[128.0369,37.3466],[128.0394,37.3435],[128.0337,37.3325],[128.0397,37.3196],[128.0483,37.311],[128.052,37.3085],[128.0681,37.3085],[128.0865,37.3014],[128.1077,37.2993],[128.1099,37.2807],[128.1166,37.2723],[128.1256,37.2752],[128.1426,37.271],[128.1634,37.2739],[128.1778,37.2795],[128.1788,37.2919],[128.1961,37.2974],[128.2066,37.2878],[128.2141,37.2882],[128.2164,37.2832],[128.2169,37.2778],[128.2114,37.2742],[128.2129,37.2638],[128.2093,37.2501],[128.193,37.245],[128.1741,37.2326],[128.1731,37.2191],[128.1645,37.2135],[128.1542,37.2159],[128.1509,37.2207],[128.1423,37.2243],[128.1406,37.2295],[128.1329,37.2298],[128.1253,37.2345],[128.1215,37.2293],[128.1224,37.2252],[128.1155,37.2203],[128.1087,37.2057],[128.0743,37.1931],[128.0605,37.1941],[128.0411,37.189],[128.0339,37.1914],[128.0283,37.2023],[128.0388,37.216],[128.0312,37.2238],[128.023,37.2256],[128.0183,37.2457],[128.008,37.2521],[127.9942,37.2536],[127.9869,37.2578],[127.9719,37.2564],[127.9527,37.2479],[127.9452,37.2406],[127.9389,37.2407],[127.9217,37.2254],[127.9271,37.2202],[127.9325,37.207],[127.9309,37.2011],[127.9363,37.1888],[127.9326,37.1824],[127.9336,37.1758],[127.9263,37.1655],[127.915,37.1689],[127.9086,37.1671],[127.8989,37.1498],[127.8951,37.1562],[127.8866,37.1611],[127.8721,37.1643],[127.862,37.161],[127.8613,37.1553],[127.8532,37.1603],[127.8474,37.1529],[127.8254,37.1523],[127.8169,37.147],[127.7895,37.1434],[127.7655,37.1591],[127.7571,37.1692],[127.7443,37.2075],[127.7489,37.2183],[127.7469,37.24],[127.7576,37.2583],[127.7605,37.2729],[127.7499,37.2972],[127.7655,37.3014],[127.7683,37.3067],[127.759,37.3312],[127.7627,37.3343],[127.7579,37.3464],[127.7608,37.3526],[127.7595,37.3673],[127.7629,37.37],[127.7789,37.3708],[127.7767,37.3833],[127.7841,37.3888],[127.7822,37.3924],[127.7946,37.4243],[127.804,37.4288],[127.8005,37.4386],[127.8105,37.4414],[127.8134,37.4453],[127.8206,37.4463],[127.8345,37.434],[127.84,37.4338],[127.8513,37.4086],[127.8476,37.4008],[127.8511,37.3955],[127.868,37.3996],[127.8708,37.4176],[127.8639,37.4253],[127.8634,37.4362],[127.8657,37.447],[127.8747,37.455],[127.877,37.4669],[127.8845,37.4702],[127.8889,37.4662],[127.8971,37.4686],[127.8959,37.4723],[127.9061,37.4733],[127.9097,37.4864],[127.9191,37.4929],[127.9188,37.498],[127.9277,37.5065],[127.9397,37.5012],[127.9329,37.4871]]]]}},{"type":"Feature","properties":{"code":"32030","name":"강릉시"},"geometry":{"type":"MultiPolygon","coordinates":[[[[128.8771,37.8384],[128.8788,37.8366],[128.8794,37.8342],[128.8759,37.8375],[128.8755,37.8344],[128.8809,37.8277],[128.9467,37.7736],[128.9547,37.7732],[128.9571,37.7713],[128.9519,37.7728],[128.9514,37.7674],[128.9888,37.74],[128.9959,37.7256],[129.011,37.7134],[129.0141,37.7074],[129.057,37.6729],[129.0541,37.6647],[129.057,37.6587],[129.0479,37.6503],[129.0445,37.6388],[129.0515,37.627],[129.0579,37.6262],[129.0638,37.6233],[129.0539,37.6258],[129.0542,37.6214],[129.0595,37.6203],[129.0749,37.6049],[129.0687,37.5989],[129.0557,37.5971],[129.0596,37.5885],[129.051,37.5764],[129.0471,37.5466],[129.0381,37.5497],[129.0259,37.5455],[129.0186,37.5383],[128.9985,37.5428],[128.9807,37.5331],[128.9734,37.5337],[128.9628,37.5432],[128.9612,37.5487],[128.9551,37.5414],[128.9328,37.5389],[128.9308,37.5428],[128.9162,37.548],[128.9129,37.5529],[128.9057,37.5526],[128.9057,37.5671],[128.901,37.5719],[128.8978,37.5867],[128.8845,37.5929],[128.8777,37.5885],[128.8735,37.5897],[128.8638,37.5752],[128.8626,37.5647],[128.8588,37.5612],[128.862,37.5536],[128.8594,37.5413],[128.8555,37.5373],[128.8543,37.5242],[128.8486,37.5212],[128.8489,37.5156],[128.8404,37.512],[128.834,37.5131],[128.8144,37.5035],[128.8117,37.5099],[128.7976,37.5184],[128.7977,37.5276],[128.792,37.5328],[128.793,37.5372],[128.78,37.5438],[128.762,37.5415],[128.7487,37.5469],[128.7376,37.5475],[128.7198,37.5287],[128.699,37.5366],[128.6789,37.5671],[128.684,37.5938],[128.6989,37.5935],[128.7121,37.5886],[128.7163,37.5934],[128.7167,37.6043],[128.723,37.6113],[128.7366,37.6097],[128.7358,37.6287],[128.7287,37.6368],[128.7329,37.6535],[128.7437,37.6588],[128.7458,37.665],[128.7525,37.6698],[128.765,37.6729],[128.7532,37.7107],[128.7478,37.7141],[128.7485,37.72],[128.7446,37.7234],[128.7438,37.7414],[128.7254,37.7495],[128.7089,37.768],[128.6984,37.7713],[128.691,37.7697],[128.6798,37.773],[128.6708,37.7669],[128.6557,37.7714],[128.6373,37.7825],[128.6305,37.7729],[128.6236,37.7696],[128.614,37.7705],[128.6104,37.7662],[128.6017,37.7699],[128.5988,37.7745],[128.6014,37.7813],[128.6009,37.8017],[128.5981,37.8044],[128.6,37.8088],[128.5855,37.8185],[128.5805,37.8261],[128.588,37.862],[128.5977,37.866],[128.6012,37.8707],[128.6208,37.8724],[128.6244,37.8816],[128.6429,37.8949],[128.6478,37.8909],[128.6642,37.8908],[128.6692,37.8858],[128.7022,37.8984],[128.7134,37.8988],[128.7186,37.9034],[128.7324,37.8999],[128.7447,37.9042],[128.7537,37.9123],[128.7755,37.9101],[128.7828,37.9143],[128.8034,37.913],[128.81,37.9175],[128.8301,37.9061],[128.8298,37.9024],[128.8343,37.8995],[128.8344,37.8944],[128.8326,37.8912],[128.835,37.8859],[128.833,37.8878],[128.8324,37.8914],[128.8332,37.8935],[128.8325,37.8947],[128.8295,37.8927],[128.8302,37.8842],[128.8513,37.8617],[128.8771,37.8384]]]]}},{"type":"Feature","properties":{"code":"32040","name":"동해시"},"geometry":{"type":"MultiPolygon","coordinates":[[[[129.1168,37.5763],[129.1218,37.5582],[129.1178,37.5495],[129.1206,37.5392],[129.1171,37.5517],[129.1122,37.5494],[129.1155,37.5402],[129.1149,37.5373],[129.1147,37.5362],[129.1259,37.5253],[129.1229,37.5191],[129.1351,37.5049],[129.149,37.4976],[129.1356,37.5041],[129.1312,37.5014],[129.1362,37.4964],[129.1244,37.4907],[129.1268,37.4876],[129.1449,37.4968],[129.1413,37.4929],[129.148,37.4909],[129.1598,37.4765],[129.1508,37.4657],[129.1412,37.4662],[129.1348,37.4532],[129.1179,37.4605],[129.1074,37.4558],[129.0958,37.4634],[129.0768,37.4564],[129.0652,37.4603],[129.0482,37.457],[129.0102,37.4359],[129.0044,37.4268],[128.9846,37.4339],[128.9752,37.4332],[128.9687,37.4401],[128.9586,37.4442],[128.9645,37.4576],[128.9774,37.4686],[128.9847,37.4704],[128.9881,37.4793],[128.9857,37.4828],[128.9897,37.4845],[128.986,37.493],[128.971,37.4927],[128.9744,37.5034],[128.9651,37.5054],[128.9619,37.5095],[128.961,37.5126],[128.9678,37.5206],[128.9687,37.5302],[128.9739,37.5339],[128.9867,37.5341],[128.9985,37.5428],[129.0186,37.5383],[129.0259,37.5455],[129.0381,37.5497],[129.0471,37.5466],[129.051,37.5764],[129.0596,37.5885],[129.0557,37.5971],[129.0687,37.5989],[129.0749,37.6049],[129.1168,37.5763]],[[129.1154,37.5402],[129.1124,37.5402],[129.1149,37.5373],[129.1154,37.5402]]]]}},{"type":"Feature","properties":{"code":"32050","name":"태백시"},"geometry":{"type":"MultiPolygon","coordinates":[[[[128.998,37.3246],[128.9984,37.319],[129.0184,37.3035],[129.0039,37.2884],[129.0144,37.2749],[129.0056,37.2643],[129.0104,37.2555],[129.0065,37.2506],[129.0016,37.2506],[129.0018,37.2447],[128.994,37.2446],[128.9899,37.2413],[128.9932,37.2353],[129.0079,37.2326],[129.0081,37.2291],[129.0044,37.2271],[129.0105,37.2208],[129.0,37.2179],[128.9989,37.2078],[129.0089,37.1986],[129.0113,37.1865],[129.0272,37.175],[129.0366,37.1759],[129.0513,37.1699],[129.0718,37.1699],[129.0747,37.1647],[129.0719,37.1602],[129.0886,37.1582],[129.0887,37.1439],[129.0954,37.1384],[129.0879,37.1141],[129.0957,37.1003],[129.0704,37.0882],[129.0708,37.084],[129.0656,37.0788],[129.0674,37.0745],[129.0594,37.0652],[129.0534,37.0702],[129.0513,37.0678],[129.0419,37.0711],[129.0367,37.0762],[129.0204,37.0766],[128.9886,37.0844],[128.9593,37.0776],[128.9533,37.0813],[128.9534,37.0849],[128.9457,37.0938],[128.9218,37.0914],[128.9151,37.0837],[128.9169,37.0787],[128.9103,37.0683],[128.8871,37.0621],[128.8748,37.0755],[128.885,37.084],[128.8886,37.0917],[128.8874,37.1017],[128.8753,37.1082],[128.87,37.1078],[128.8693,37.1121],[128.8892,37.1247],[128.8869,37.1363],[128.8907,37.1441],[128.9119,37.1493],[128.9163,37.1572],[128.9178,37.1623],[128.9119,37.1773],[128.9149,37.1808],[128.9115,37.1969],[128.9161,37.2118],[128.908,37.2165],[128.9171,37.2255],[128.9181,37.2401],[128.9239,37.2427],[128.9296,37.2407],[128.9354,37.2454],[128.929,37.2676],[128.9244,37.273],[128.9366,37.2741],[128.941,37.2794],[128.9415,37.2889],[128.9464,37.2902],[128.9423,37.2977],[128.9433,37.3055],[128.951,37.3078],[128.958,37.3223],[128.9687,37.3334],[128.9781,37.3364],[128.9953,37.336],[129.0074,37.3456],[129.0124,37.3359],[128.998,37.3246]]]]}},{"type":"Feature","properties":{"code":"32060","name":"속초시"},"geometry":{"type":"MultiPolygon","coordinates":[[[[128.6014,38.2113],[128.5945,38.2107],[128.5924,38.2026],[128.5835,38.1994],[128.5821,38.1933],[128.5935,38.1916],[128.5934,38.2006],[128.6002,38.202],[128.5971,38.2007],[128.598,38.1974],[128.6094,38.1835],[128.6148,38.1811],[128.6098,38.1769],[128.6105,38.1736],[128.6061,38.1739],[128.6081,38.1607],[128.5712,38.1612],[128.5703,38.1543],[128.5598,38.1483],[128.5351,38.1486],[128.5299,38.1361],[128.4913,38.1365],[128.4669,38.119],[128.4649,38.1192],[128.466,38.1369],[128.4431,38.1496],[128.4379,38.1549],[128.4385,38.1627],[128.4211,38.1767],[128.4265,38.1891],[128.4384,38.1926],[128.4424,38.2038],[128.4545,38.1981],[128.4666,38.1986],[128.4771,38.1928],[128.478,38.1883],[128.4846,38.188],[128.5014,38.2033],[128.5221,38.2076],[128.5381,38.2174],[128.5736,38.2215],[128.5849,38.2308],[128.5903,38.2211],[128.6021,38.2147],[128.6027,38.2077],[128.6014,38.2113]]]]}},{"type":"Feature","properties":{"code":"32070","name":"삼척시"},"geometry":{"type":"MultiPolygon","coordinates":[[[[129.1875,37.4559],[129.1895,37.4457],[129.1974,37.4321],[129.192,37.4381],[129.188,37.438],[129.2021,37.4112],[129.2242,37.395],[129.2574,37.3798],[129.2523,37.3764],[129.2508,37.363],[129.2623,37.3455],[129.267,37.3433],[129.2666,37.3311],[129.272,37.3265],[129.2686,37.3266],[129.2703,37.3216],[129.2887,37.3095],[129.2973,37.3111],[129.3021,37.3021],[129.3004,37.2929],[129.3112,37.2861],[129.3171,37.2868],[129.3185,37.2897],[129.3204,37.2824],[129.3291,37.2804],[129.3277,37.2634],[129.3408,37.2547],[129.342,37.2487],[129.3487,37.2478],[129.3501,37.2389],[129.3567,37.2356],[129.3414,37.2259],[129.341,37.2216],[129.3475,37.2121],[129.3428,37.1959],[129.3453,37.1944],[129.3476,37.1768],[129.3432,37.1749],[129.3451,37.1714],[129.3498,37.174],[129.3585,37.1666],[129.3519,37.1642],[129.3639,37.1462],[129.341,37.1446],[129.3395,37.1468],[129.3332,37.1407],[129.3248,37.1423],[129.3181,37.133],[129.3011,37.1266],[129.2952,37.1203],[129.2946,37.1144],[129.2854,37.1172],[129.2712,37.1164],[129.266,37.1023],[129.249,37.0962],[129.2405,37.085],[129.2254,37.0737],[129.2331,37.0639],[129.2285,37.0572],[129.2327,37.0442],[129.2382,37.0408],[129.238,37.0387],[129.2253,37.0446],[129.1854,37.0417],[129.1837,37.0489],[129.1704,37.0604],[129.1661,37.0692],[129.1443,37.0766],[129.1395,37.0823],[129.1272,37.0844],[129.1229,37.0913],[129.1078,37.0935],[129.103,37.0985],[129.0957,37.1003],[129.0879,37.1141],[129.0954,37.1384],[129.0887,37.1439],[129.0886,37.1582],[129.0719,37.1602],[129.0747,37.1647],[129.0718,37.1699],[129.0513,37.1699],[129.0366,37.1759],[129.0272,37.175],[129.0113,37.1865],[129.0089,37.1986],[128.9989,37.2078],[129.0,37.2179],[129.0105,37.2208],[129.0044,37.2271],[129.0081,37.2291],[129.0079,37.2326],[128.9932,37.2353],[128.9899,37.2413],[128.994,37.2446],[129.0018,37.2447],[129.0016,37.2506],[129.0065,37.2506],[129.0103,37.2552],[129.0056,37.2643],[129.0144,37.2749],[129.0039,37.2884],[129.018,37.3047],[128.9983,37.3193],[128.9982,37.3249],[129.0124,37.3359],[129.0083,37.3455],[128.9953,37.336],[128.9781,37.3364],[128.9687,37.3334],[128.958,37.3223],[128.951,37.3078],[128.9433,37.3055],[128.9423,37.2977],[128.9464,37.2902],[128.9415,37.2889],[128.941,37.2794],[128.9366,37.2741],[128.9244,37.273],[128.929,37.2676],[128.9354,37.2454],[128.9296,37.2407],[128.9239,37.2427],[128.9181,37.2401],[128.9171,37.2255],[128.908,37.2165],[128.8986,37.2359],[128.9008,37.2429],[128.8979,37.2487],[128.8799,37.2648],[128.8821,37.2718],[128.8887,37.2759],[128.8746,37.2807],[128.8722,37.2904],[128.8588,37.3002],[128.8597,37.3072],[128.878,37.3238],[128.87,37.3294],[128.8668,37.339],[128.846,37.3397],[128.8516,37.3656],[128.8545,37.3667],[128.858,37.3809],[128.869,37.3915],[128.8707,37.4003],[128.8847,37.4062],[128.8897,37.4053],[128.8954,37.4096],[128.8979,37.4303],[128.9012,37.4355],[128.9041,37.4381],[128.9106,37.4363],[128.9276,37.4486],[128.9343,37.4476],[128.9371,37.4511],[128.9551,37.4494],[128.9752,37.4332],[128.9846,37.4339],[129.0044,37.4268],[129.0102,37.4359],[129.0482,37.457],[129.0652,37.4603],[129.0768,37.4564],[129.0958,37.4634],[129.1074,37.4558],[129.1179,37.4605],[129.1348,37.4532],[129.1394,37.4648],[129.1508,37.4657],[129.1583,37.4762],[129.1875,37.4559]]]]}},{"type":"Feature","properties":{"code":"32310","name":"홍천군"},"geometry":{"type":"MultiPolygon","coordinates":[[[[128.0327,37.9419],[128.0394,37.9277],[128.0455,37.9225],[128.0913,37.8983],[128.1073,37.9001],[128.145,37.8929],[128.1608,37.8951],[128.1638,37.8877],[128.1743,37.8849],[128.1744,37.8792],[128.1688,37.8708],[128.1717,37.857],[128.1687,37.8513],[128.1811,37.8428],[128.1801,37.835],[128.1846,37.83],[128.2087,37.8127],[128.2144,37.8124],[128.2243,37.8205],[128.2347,37.8222],[128.2426,37.8321],[128.2561,37.8396],[128.2629,37.858],[128.2731,37.8607],[128.2775,37.8652],[128.2875,37.8649],[128.2911,37.8693],[128.2971,37.8678],[128.3032,37.8601],[128.3076,37.8435],[128.3201,37.8307],[128.3283,37.8339],[128.3361,37.8279],[128.3475,37.8263],[128.3652,37.8336],[128.3664,37.8364],[128.3628,37.8386],[128.3661,37.847],[128.3782,37.8523],[128.3824,37.8586],[128.4006,37.8612],[128.4027,37.8672],[128.4097,37.8721],[128.4123,37.8847],[128.4215,37.8829],[128.4317,37.8667],[128.4404,37.864],[128.4442,37.8649],[128.4487,37.8734],[128.4663,37.881],[128.4707,37.8857],[128.4754,37.8853],[128.4814,37.893],[128.4966,37.8849],[128.5059,37.8869],[128.5118,37.8801],[128.5252,37.8826],[128.5308,37.8889],[128.541,37.8911],[128.5575,37.88],[128.5595,37.8756],[128.5668,37.8756],[128.5738,37.8646],[128.588,37.8621],[128.5861,37.8451],[128.5816,37.8377],[128.5827,37.8214],[128.5691,37.8075],[128.5564,37.8095],[128.5438,37.8002],[128.5425,37.7883],[128.5334,37.7789],[128.5332,37.771],[128.524,37.764],[128.5241,37.7554],[128.5271,37.7528],[128.5241,37.7426],[128.5277,37.7365],[128.5264,37.7316],[128.5222,37.7297],[128.4787,37.7347],[128.4662,37.7285],[128.4578,37.7308],[128.4449,37.7177],[128.4439,37.7007],[128.4352,37.6924],[128.4044,37.6883],[128.3761,37.6916],[128.358,37.6994],[128.3234,37.69],[128.3125,37.7032],[128.3044,37.6912],[128.2766,37.6689],[128.2788,37.664],[128.2731,37.6525],[128.275,37.6402],[128.2703,37.6327],[128.2663,37.6335],[128.2482,37.6258],[128.2358,37.6252],[128.2087,37.6491],[128.1996,37.6517],[128.1865,37.6444],[128.1858,37.6496],[128.1659,37.6593],[128.1641,37.6647],[128.1526,37.6591],[128.1462,37.6725],[128.1374,37.6796],[128.1187,37.6786],[128.1117,37.6715],[128.1125,37.6649],[128.1056,37.6594],[128.1141,37.6545],[128.1041,37.6498],[128.0933,37.6531],[128.0795,37.6492],[128.0671,37.641],[128.0646,37.6354],[128.0311,37.6222],[128.0201,37.6132],[128.0139,37.6155],[128.0122,37.6262],[127.9924,37.6277],[127.9793,37.6318],[127.9771,37.6362],[127.9712,37.6381],[127.9675,37.6269],[127.9592,37.6256],[127.9512,37.6111],[127.9332,37.6098],[127.927,37.6041],[127.9226,37.6057],[127.9075,37.5984],[127.8934,37.5978],[127.8938,37.5851],[127.889,37.5769],[127.8843,37.5753],[127.8841,37.5713],[127.8724,37.5622],[127.8737,37.5574],[127.8596,37.5577],[127.8481,37.5523],[127.8364,37.5604],[127.8141,37.5642],[127.8042,37.5791],[127.7941,37.5853],[127.7844,37.5781],[127.7666,37.5827],[127.7541,37.5921],[127.7447,37.5879],[127.7231,37.5906],[127.7079,37.5864],[127.6982,37.5909],[127.7008,37.5961],[127.6962,37.6008],[127.6675,37.6173],[127.6638,37.6238],[127.6515,37.6229],[127.647,37.6327],[127.6394,37.6326],[127.6273,37.6427],[127.622,37.6421],[127.6062,37.6508],[127.6022,37.6515],[127.5988,37.6469],[127.5849,37.6423],[127.5807,37.6334],[127.5647,37.6332],[127.5594,37.6285],[127.5483,37.6332],[127.5472,37.6374],[127.5357,37.645],[127.5357,37.6507],[127.5439,37.6517],[127.5462,37.6579],[127.5528,37.6615],[127.549,37.6686],[127.5509,37.6883],[127.5618,37.7196],[127.5599,37.7286],[127.5643,37.7279],[127.5675,37.7327],[127.5737,37.7327],[127.5935,37.7212],[127.5915,37.713],[127.5942,37.7047],[127.6057,37.7044],[127.6096,37.7007],[127.6079,37.6769],[127.6127,37.6756],[127.623,37.6812],[127.6261,37.6948],[127.6356,37.6983],[127.6415,37.6946],[127.6426,37.6803],[127.6495,37.6802],[127.6527,37.6995],[127.6778,37.6951],[127.6841,37.7019],[127.6795,37.7114],[127.6875,37.7163],[127.701,37.7165],[127.7118,37.7276],[127.7217,37.7334],[127.7273,37.7321],[127.743,37.7416],[127.749,37.7403],[127.7547,37.7325],[127.7594,37.7363],[127.7818,37.7423],[127.7875,37.7367],[127.7949,37.735],[127.8063,37.7426],[127.8067,37.7463],[127.8139,37.7484],[127.8257,37.7417],[127.8332,37.7419],[127.8448,37.7495],[127.8403,37.7562],[127.8549,37.7634],[127.8564,37.7694],[127.8466,37.7808],[127.8432,37.7897],[127.8249,37.7983],[127.8276,37.8205],[127.8136,37.8333],[127.8155,37.841],[127.8221,37.8457],[127.8483,37.8356],[127.8693,37.8366],[127.8782,37.8495],[127.8765,37.8565],[127.8807,37.8607],[127.8907,37.8631],[127.9083,37.8554],[127.9057,37.8494],[127.9185,37.8442],[127.9328,37.8264],[127.9371,37.8356],[127.9461,37.8411],[127.943,37.8477],[127.9447,37.853],[127.9575,37.8738],[127.9728,37.8825],[127.9711,37.8987],[127.9863,37.9123],[127.9836,37.9234],[127.9929,37.9309],[127.9951,37.9412],[128.0012,37.9373],[128.0127,37.9383],[128.0161,37.9427],[128.0272,37.9448],[128.0327,37.9419]]]]}},{"type":"Feature","properties":{"code":"32320","name":"횡성군"},"geometry":{"type":"MultiPolygon","coordinates":[[[[128.1462,37.6725],[128.1526,37.6591],[128.1641,37.6647],[128.1659,37.6593],[128.1858,37.6496],[128.1865,37.6444],[128.1996,37.6517],[128.2087,37.6491],[128.2358,37.6252],[128.2539,37.6274],[128.283,37.6206],[128.2794,37.6105],[128.286,37.6019],[128.2801,37.5985],[128.2793,37.5919],[128.2848,37.5854],[128.2843,37.5783],[128.2949,37.5656],[128.2979,37.555],[128.2943,37.544],[128.3023,37.538],[128.2996,37.5344],[128.3008,37.5241],[128.2963,37.5178],[128.2976,37.5118],[128.291,37.5112],[128.2898,37.507],[128.2768,37.5025],[128.2639,37.4846],[128.2435,37.4797],[128.2467,37.4662],[128.2463,37.446],[128.2487,37.441],[128.2577,37.4385],[128.2541,37.428],[128.2655,37.4084],[128.2591,37.4051],[128.2538,37.3932],[128.2447,37.3956],[128.2362,37.3879],[128.2207,37.3942],[128.2081,37.395],[128.1935,37.3903],[128.185,37.3925],[128.1798,37.3872],[128.1812,37.3819],[128.178,37.3751],[128.1847,37.3591],[128.1831,37.3552],[128.1865,37.3414],[128.168,37.3381],[128.1729,37.3271],[128.1686,37.3224],[128.1527,37.3273],[128.1418,37.3249],[128.1295,37.3285],[128.1159,37.3182],[128.1145,37.3113],[128.118,37.304],[128.1086,37.2988],[128.0483,37.311],[128.0397,37.3196],[128.0337,37.3325],[128.0394,37.3435],[128.0369,37.3466],[128.0384,37.3541],[128.0497,37.366],[128.0655,37.3644],[128.0727,37.3674],[128.0768,37.3737],[128.0745,37.3797],[128.0763,37.3846],[128.0719,37.3919],[128.0788,37.4],[128.0974,37.4064],[128.096,37.4102],[128.0886,37.4143],[128.0842,37.4267],[128.0635,37.4359],[128.0589,37.4451],[128.0427,37.4433],[128.0384,37.4471],[128.0274,37.4486],[128.0164,37.4459],[128.0026,37.4568],[127.9832,37.4594],[127.9743,37.4576],[127.965,37.4509],[127.9636,37.4535],[127.9493,37.4544],[127.937,37.4763],[127.9379,37.4828],[127.9329,37.4871],[127.9397,37.5012],[127.9291,37.5069],[127.9188,37.498],[127.9191,37.4929],[127.9097,37.4864],[127.9054,37.4727],[127.8959,37.4723],[127.8971,37.4686],[127.8889,37.4662],[127.8845,37.4702],[127.877,37.4669],[127.8747,37.455],[127.8657,37.447],[127.8634,37.4362],[127.8639,37.4253],[127.8708,37.4176],[127.868,37.3996],[127.8511,37.3955],[127.8476,37.4008],[127.8513,37.4086],[127.84,37.4338],[127.8345,37.434],[127.8198,37.4466],[127.7999,37.4387],[127.7963,37.463],[127.8007,37.4679],[127.7998,37.4724],[127.7896,37.4748],[127.7822,37.4817],[127.7802,37.4887],[127.7761,37.4885],[127.7747,37.4917],[127.76,37.4929],[127.7599,37.5033],[127.7718,37.5052],[127.7811,37.5131],[127.7855,37.5133],[127.7958,37.5242],[127.7963,37.5286],[127.8065,37.5312],[127.8096,37.5379],[127.842,37.5389],[127.8499,37.5535],[127.8596,37.5577],[127.8737,37.5574],[127.8724,37.5622],[127.8841,37.5713],[127.8843,37.5753],[127.889,37.5769],[127.8938,37.5851],[127.8926,37.5972],[127.9075,37.5984],[127.9226,37.6057],[127.927,37.6041],[127.9332,37.6098],[127.9512,37.6111],[127.9592,37.6256],[127.9675,37.6269],[127.9712,37.6381],[127.9771,37.6362],[127.9793,37.6318],[127.9924,37.6277],[128.0122,37.6262],[128.0139,37.6155],[128.0201,37.6132],[128.0311,37.6222],[128.0646,37.6354],[128.0671,37.641],[128.0795,37.6492],[128.0933,37.6531],[128.1041,37.6498],[128.1094,37.6514],[128.1141,37.6545],[128.1056,37.6594],[128.1125,37.6649],[128.1142,37.6747],[128.1187,37.6786],[128.1378,37.6792],[128.1462,37.6725]]]]}},{"type":"Feature","properties":{"code":"32330","name":"영월군"},"geometry":{"type":"MultiPolygon","coordinates":[[[[128.2933,37.4021],[128.2975,37.3887],[128.307,37.3868],[128.3168,37.3779],[128.3259,37.3781],[128.3165,37.3535],[128.3228,37.3437],[128.3245,37.3214],[128.3304,37.3226],[128.3431,37.3117],[128.3576,37.3086],[128.3713,37.2915],[128.3809,37.2887],[128.3972,37.2973],[128.4088,37.2947],[128.4057,37.3016],[128.4108,37.3087],[128.4047,37.3208],[128.4181,37.3428],[128.4487,37.3376],[128.463,37.3242],[128.4625,37.3085],[128.4814,37.3026],[128.4967,37.3034],[128.5009,37.2893],[128.5198,37.2876],[128.529,37.2925],[128.5359,37.2839],[128.5525,37.2892],[128.5594,37.2861],[128.5645,37.2793],[128.5747,37.2797],[128.579,37.2712],[128.576,37.2683],[128.5683,37.2709],[128.5649,37.2581],[128.5659,37.2533],[128.5767,37.2451],[128.5774,37.2223],[128.5792,37.22],[128.5862,37.2212],[128.6002,37.2128],[128.6044,37.2183],[128.6193,37.2186],[128.6225,37.2134],[128.6183,37.2066],[128.623,37.2008],[128.6335,37.1966],[128.6355,37.1878],[128.6421,37.1824],[128.6603,37.1868],[128.6944,37.1846],[128.6992,37.19],[128.7097,37.1908],[128.7253,37.1985],[128.7319,37.1977],[128.7488,37.2119],[128.7683,37.2032],[128.797,37.196],[128.8151,37.1849],[128.8203,37.1763],[128.8335,37.1757],[128.8426,37.1671],[128.8856,37.1685],[128.8919,37.1606],[128.8932,37.1521],[128.9005,37.1471],[128.894,37.1462],[128.8882,37.1411],[128.8888,37.1242],[128.8693,37.1121],[128.87,37.1078],[128.8753,37.1082],[128.8874,37.1017],[128.8886,37.0917],[128.885,37.084],[128.8748,37.0755],[128.8884,37.0617],[128.8988,37.0667],[128.9103,37.0683],[128.9104,37.0661],[128.8981,37.0576],[128.8964,37.0445],[128.8785,37.0533],[128.8768,37.0461],[128.8725,37.0439],[128.8637,37.0487],[128.8469,37.0516],[128.836,37.0659],[128.8317,37.0674],[128.8294,37.0785],[128.8126,37.0787],[128.8079,37.076],[128.8,37.079],[128.7994,37.0869],[128.7858,37.0879],[128.7803,37.0923],[128.7736,37.0875],[128.7778,37.0797],[128.7705,37.0753],[128.7654,37.064],[128.7566,37.0686],[128.7523,37.0559],[128.7614,37.0444],[128.7625,37.0379],[128.7546,37.032],[128.7538,37.0278],[128.751,37.0281],[128.7346,37.0402],[128.7187,37.0438],[128.7091,37.0394],[128.7004,37.0408],[128.6891,37.0531],[128.6829,37.0531],[128.6757,37.0588],[128.6579,37.0608],[128.6548,37.0651],[128.6298,37.0741],[128.6283,37.0813],[128.6226,37.0874],[128.6064,37.0767],[128.601,37.0789],[128.6016,37.0831],[128.5918,37.0782],[128.5744,37.0813],[128.5617,37.0902],[128.5538,37.0866],[128.5381,37.0896],[128.5312,37.1],[128.5142,37.1037],[128.51,37.114],[128.4966,37.1258],[128.4911,37.1239],[128.4778,37.1102],[128.4512,37.1121],[128.4453,37.1075],[128.4352,37.1113],[128.4301,37.1037],[128.4247,37.1025],[128.4236,37.1122],[128.4185,37.1198],[128.4058,37.127],[128.396,37.1286],[128.4037,37.1396],[128.4009,37.1469],[128.3841,37.158],[128.3765,37.1524],[128.3644,37.1564],[128.3597,37.1502],[128.3515,37.1574],[128.3371,37.1579],[128.3307,37.1503],[128.3275,37.1529],[128.3247,37.1481],[128.3095,37.1449],[128.3064,37.1375],[128.2979,37.1341],[128.2927,37.1393],[128.2799,37.1425],[128.2644,37.1604],[128.2811,37.1734],[128.2897,37.1701],[128.2981,37.1717],[128.2956,37.1833],[128.3105,37.1873],[128.3134,37.1968],[128.3264,37.1973],[128.3322,37.2139],[128.3301,37.2162],[128.3166,37.2234],[128.3091,37.2175],[128.2882,37.2151],[128.284,37.2107],[128.2684,37.2079],[128.2509,37.2296],[128.2443,37.2265],[128.2374,37.2293],[128.2292,37.2276],[128.2203,37.2403],[128.2148,37.2418],[128.2146,37.2461],[128.2078,37.2488],[128.2128,37.2627],[128.2117,37.2755],[128.2169,37.2778],[128.2141,37.2882],[128.2066,37.2878],[128.1961,37.2974],[128.1788,37.2919],[128.1778,37.2795],[128.1629,37.2738],[128.1426,37.271],[128.1256,37.2752],[128.1155,37.2725],[128.1142,37.2783],[128.1104,37.2792],[128.1072,37.2928],[128.1086,37.2988],[128.118,37.304],[128.1149,37.3157],[128.12,37.3236],[128.1315,37.3289],[128.1392,37.3251],[128.1527,37.3273],[128.1678,37.3221],[128.1729,37.3271],[128.168,37.3381],[128.1862,37.3409],[128.1847,37.3591],[128.178,37.3751],[128.1812,37.3819],[128.1798,37.3872],[128.1852,37.3927],[128.1935,37.3903],[128.2081,37.395],[128.2207,37.3942],[128.2362,37.3879],[128.2447,37.3956],[128.2538,37.3932],[128.2605,37.4065],[128.2748,37.4074],[128.2933,37.4021]]]]}},{"type":"Feature","properties":{"code":"32340","name":"평창군"},"geometry":{"type":"MultiPolygon","coordinates":[[[[128.3234,37.69],[128.3599,37.6993],[128.3761,37.6916],[128.4044,37.6883],[128.4085,37.6908],[128.4155,37.688],[128.4352,37.6924],[128.4439,37.7007],[128.4449,37.7177],[128.4578,37.7308],[128.4662,37.7285],[128.4787,37.7347],[128.5235,37.7303],[128.5281,37.7335],[128.5241,37.7426],[128.5271,37.7528],[128.5241,37.7554],[128.524,37.764],[128.5332,37.771],[128.5334,37.7789],[128.5425,37.7883],[128.5438,37.8002],[128.5564,37.8095],[128.5691,37.8075],[128.5827,37.8214],[128.6,37.8088],[128.5981,37.8044],[128.6009,37.8017],[128.6014,37.7813],[128.5988,37.7745],[128.6024,37.7693],[128.6104,37.7662],[128.614,37.7705],[128.6236,37.7696],[128.6305,37.7729],[128.6373,37.7825],[128.6557,37.7714],[128.6708,37.7669],[128.6798,37.773],[128.691,37.7697],[128.6984,37.7713],[128.7089,37.768],[128.7254,37.7495],[128.7438,37.7414],[128.7446,37.7234],[128.7485,37.72],[128.7478,37.7141],[128.7532,37.7107],[128.7546,37.6996],[128.7651,37.6735],[128.7525,37.6698],[128.7458,37.665],[128.7437,37.6588],[128.7329,37.6535],[128.7287,37.6368],[128.7358,37.6287],[128.7366,37.6097],[128.723,37.6113],[128.7167,37.6043],[128.7163,37.5934],[128.7121,37.5886],[128.6989,37.5935],[128.684,37.5938],[128.679,37.5699],[128.6675,37.5685],[128.6679,37.5614],[128.6737,37.5566],[128.6451,37.5531],[128.6404,37.5407],[128.6346,37.5397],[128.6324,37.5426],[128.6248,37.5655],[128.6252,37.5732],[128.6155,37.5755],[128.6009,37.5696],[128.5884,37.5572],[128.5894,37.5405],[128.5837,37.5361],[128.5772,37.5111],[128.5753,37.4938],[128.5833,37.4909],[128.5845,37.4873],[128.5807,37.4902],[128.5735,37.4893],[128.57,37.4977],[128.5649,37.5006],[128.5566,37.489],[128.5634,37.4614],[128.5522,37.4564],[128.5238,37.4636],[128.5132,37.4551],[128.519,37.4344],[128.5135,37.4228],[128.5063,37.4182],[128.5084,37.4103],[128.5139,37.4041],[128.5389,37.3997],[128.5404,37.3968],[128.5456,37.3798],[128.5533,37.3702],[128.5525,37.361],[128.5472,37.3549],[128.5561,37.3528],[128.5662,37.3453],[128.5711,37.3266],[128.5846,37.3066],[128.5797,37.2987],[128.5964,37.2826],[128.5843,37.2742],[128.582,37.2667],[128.5759,37.2671],[128.579,37.2712],[128.5747,37.2797],[128.5645,37.2793],[128.5564,37.2885],[128.5494,37.2892],[128.5359,37.2839],[128.529,37.2925],[128.5198,37.2876],[128.5009,37.2893],[128.4967,37.3034],[128.4814,37.3026],[128.4625,37.3085],[128.4638,37.3223],[128.4528,37.3357],[128.4206,37.3437],[128.414,37.3394],[128.412,37.3304],[128.4047,37.3208],[128.4108,37.3087],[128.4057,37.3016],[128.4088,37.2947],[128.3972,37.2973],[128.3827,37.289],[128.3722,37.2911],[128.3576,37.3086],[128.3431,37.3117],[128.3304,37.3226],[128.3245,37.3214],[128.3228,37.3437],[128.3165,37.3535],[128.3259,37.3781],[128.3168,37.3779],[128.307,37.3868],[128.2975,37.3887],[128.2933,37.4021],[128.2828,37.4067],[128.2655,37.4084],[128.2592,37.4169],[128.2541,37.428],[128.2577,37.4385],[128.2487,37.441],[128.2463,37.446],[128.2467,37.4662],[128.2435,37.4797],[128.2639,37.4846],[128.2768,37.5025],[128.2898,37.507],[128.291,37.5112],[128.2976,37.5118],[128.2963,37.5178],[128.3008,37.5241],[128.2996,37.5344],[128.3023,37.538],[128.2943,37.544],[128.2979,37.555],[128.2949,37.5656],[128.2843,37.5783],[128.2848,37.5854],[128.2793,37.5919],[128.2801,37.5985],[128.286,37.6019],[128.2794,37.6105],[128.283,37.6206],[128.2539,37.6274],[128.2663,37.6335],[128.2703,37.6327],[128.275,37.6402],[128.2731,37.6525],[128.2788,37.664],[128.2766,37.6689],[128.3044,37.6912],[128.3125,37.7032],[128.3234,37.69]]]]}},{"type":"Feature","properties":{"code":"32350","name":"정선군"},"geometry":{"type":"MultiPolygon","coordinates":[[[[128.8978,37.5867],[128.901,37.5719],[128.9048,37.5704],[128.9057,37.5526],[128.9129,37.5529],[128.9162,37.548],[128.924,37.5471],[128.9373,37.5378],[128.9551,37.5414],[128.9612,37.5487],[128.9628,37.5432],[128.9734,37.5337],[128.9687,37.5302],[128.9678,37.5206],[128.961,37.5126],[128.9619,37.5095],[128.9651,37.5054],[128.9744,37.5034],[128.971,37.4927],[128.986,37.493],[128.9897,37.4845],[128.9857,37.4828],[128.9881,37.4793],[128.9847,37.4704],[128.9774,37.4686],[128.9678,37.4605],[128.9576,37.4466],[128.9551,37.4494],[128.9371,37.4511],[128.9343,37.4476],[128.9225,37.4463],[128.9106,37.4363],[128.9028,37.4372],[128.8979,37.4303],[128.8968,37.4117],[128.8897,37.4053],[128.8847,37.4062],[128.8707,37.4003],[128.869,37.3915],[128.858,37.3809],[128.849,37.3561],[128.846,37.3397],[128.8668,37.339],[128.87,37.3294],[128.878,37.3238],[128.8597,37.3072],[128.8593,37.299],[128.8711,37.2917],[128.8717,37.2844],[128.8771,37.2787],[128.8887,37.2759],[128.8821,37.2718],[128.8799,37.2648],[128.897,37.2503],[128.9008,37.2429],[128.8986,37.2359],[128.9039,37.228],[128.9055,37.2179],[128.9161,37.2118],[128.9115,37.1969],[128.9149,37.1808],[128.9119,37.1773],[128.9178,37.1623],[128.9119,37.1493],[128.9005,37.1471],[128.8932,37.1521],[128.8919,37.1606],[128.8848,37.1688],[128.8426,37.1671],[128.8335,37.1757],[128.8203,37.1763],[128.8151,37.1849],[128.797,37.196],[128.7683,37.2032],[128.7543,37.2116],[128.7467,37.2108],[128.7319,37.1977],[128.7253,37.1985],[128.7097,37.1908],[128.6992,37.19],[128.6944,37.1846],[128.6603,37.1868],[128.6465,37.1818],[128.6363,37.1871],[128.6335,37.1966],[128.623,37.2008],[128.6183,37.2066],[128.6225,37.2134],[128.6193,37.2186],[128.6044,37.2183],[128.6002,37.2128],[128.5862,37.2212],[128.5788,37.2202],[128.5767,37.2451],[128.5659,37.2533],[128.566,37.2667],[128.5694,37.2711],[128.582,37.2667],[128.5843,37.2742],[128.5964,37.2826],[128.5797,37.2987],[128.5846,37.3066],[128.5711,37.3266],[128.5662,37.3453],[128.5561,37.3528],[128.5472,37.3549],[128.5525,37.361],[128.5533,37.3702],[128.5456,37.3798],[128.5389,37.3997],[128.5139,37.4041],[128.5062,37.417],[128.5135,37.4228],[128.519,37.4344],[128.513,37.45],[128.5149,37.457],[128.5238,37.4636],[128.5522,37.4564],[128.5634,37.4614],[128.5566,37.489],[128.5649,37.5006],[128.57,37.4977],[128.5735,37.4893],[128.5807,37.4902],[128.5845,37.4873],[128.5833,37.4909],[128.5753,37.4938],[128.5825,37.5329],[128.5894,37.5405],[128.587,37.548],[128.5896,37.5603],[128.6009,37.5696],[128.6155,37.5755],[128.6252,37.5732],[128.6272,37.557],[128.6354,37.5397],[128.6419,37.5415],[128.6451,37.5531],[128.6737,37.5566],[128.6679,37.5614],[128.6675,37.5685],[128.6765,37.5706],[128.6836,37.5634],[128.6835,37.5571],[128.689,37.5525],[128.6941,37.5412],[128.7071,37.5322],[128.7209,37.5292],[128.7229,37.5349],[128.7392,37.5477],[128.762,37.5415],[128.78,37.5438],[128.7908,37.5392],[128.7937,37.5298],[128.7977,37.5276],[128.7976,37.5184],[128.8117,37.5099],[128.8138,37.5033],[128.834,37.5131],[128.8404,37.512],[128.8489,37.5156],[128.8486,37.5212],[128.8543,37.5242],[128.8555,37.5373],[128.8594,37.5413],[128.862,37.5536],[128.8588,37.5612],[128.8626,37.5647],[128.8638,37.5752],[128.8735,37.5897],[128.8777,37.5885],[128.8856,37.5929],[128.8978,37.5867]]]]}},{"type":"Feature","properties":{"code":"32360","name":"철원군"},"geometry":{"type":"MultiPolygon","coordinates":[[[[127.7973,38.3231],[127.8217,38.3038],[127.8395,38.3077],[127.8496,38.3142],[127.858,38.3117],[127.8749,38.3169],[127.8885,38.3088],[127.8752,38.2921],[127.8608,38.2826],[127.8446,38.2838],[127.8376,38.2873],[127.8115,38.288],[127.8016,38.2772],[127.7942,38.2787],[127.7822,38.2881],[127.7329,38.2787],[127.7122,38.2593],[127.7131,38.2504],[127.7046,38.2481],[127.6828,38.2523],[127.672,38.2639],[127.647,38.2598],[127.6271,38.2639],[127.6197,38.2695],[127.6193,38.2735],[127.6094,38.2794],[127.6074,38.2847],[127.5994,38.2828],[127.594,38.2779],[127.5986,38.2699],[127.5973,38.2627],[127.5893,38.2574],[127.579,38.2562],[127.5701,38.249],[127.5665,38.2383],[127.5587,38.2325],[127.5432,38.2309],[127.5391,38.222],[127.5424,38.2168],[127.5367,38.2106],[127.5316,38.2106],[127.5245,38.2006],[127.5086,38.1992],[127.5038,38.1849],[127.5042,38.1735],[127.4907,38.1592],[127.5022,38.1493],[127.5023,38.1451],[127.4896,38.1282],[127.4826,38.1246],[127.4572,38.1227],[127.4529,38.1173],[127.4413,38.1243],[127.4226,38.1068],[127.4134,38.102],[127.4055,38.103],[127.4035,38.113],[127.3838,38.1151],[127.3786,38.1184],[127.3659,38.1069],[127.3398,38.1013],[127.337,38.0898],[127.3168,38.0984],[127.3095,38.1183],[127.2863,38.1146],[127.2807,38.1254],[127.2758,38.1242],[127.2748,38.1367],[127.2864,38.1526],[127.284,38.1595],[127.289,38.1695],[127.2962,38.1725],[127.2977,38.1763],[127.2883,38.1769],[127.2836,38.1829],[127.2664,38.1804],[127.2645,38.1717],[127.2588,38.1695],[127.2563,38.1632],[127.2394,38.1566],[127.2344,38.1471],[127.2238,38.147],[127.222,38.1374],[127.1889,38.1618],[127.1859,38.1739],[127.1892,38.1882],[127.1819,38.1858],[127.1789,38.1877],[127.1697,38.1977],[127.1751,38.2055],[127.1712,38.2135],[127.1597,38.2195],[127.1633,38.2385],[127.1489,38.2423],[127.1312,38.2328],[127.1136,38.2368],[127.1099,38.2418],[127.1116,38.2474],[127.1081,38.2583],[127.1081,38.2684],[127.1107,38.271],[127.1014,38.2737],[127.1036,38.2806],[127.095,38.2811],[127.1111,38.2957],[127.1275,38.299],[127.1322,38.3136],[127.14,38.3157],[127.1555,38.304],[127.2112,38.3191],[127.2173,38.3212],[127.2192,38.3264],[127.2424,38.3331],[127.254,38.3268],[127.2855,38.3265],[127.298,38.3181],[127.2995,38.3129],[127.3064,38.3174],[127.3284,38.3183],[127.3444,38.3287],[127.362,38.3241],[127.3814,38.3371],[127.3902,38.3329],[127.4018,38.3336],[127.4276,38.3268],[127.4321,38.3216],[127.4458,38.3167],[127.4539,38.3182],[127.4516,38.3265],[127.4582,38.3267],[127.4653,38.3169],[127.4751,38.3164],[127.4816,38.3068],[127.4883,38.3065],[127.4966,38.2996],[127.5146,38.3039],[127.5498,38.3267],[127.5709,38.3315],[127.5779,38.3364],[127.5916,38.3369],[127.5954,38.3342],[127.609,38.3367],[127.6151,38.3339],[127.6161,38.3264],[127.6335,38.3228],[127.6342,38.3254],[127.6582,38.3235],[127.6636,38.327],[127.6706,38.3234],[127.6914,38.3254],[127.7004,38.3362],[127.714,38.3343],[127.716,38.3295],[127.7452,38.3427],[127.744,38.3396],[127.751,38.3339],[127.7609,38.3382],[127.7693,38.3352],[127.7814,38.3489],[127.7973,38.3231]]]]}},{"type":"Feature","properties":{"code":"32370","name":"화천군"},"geometry":{"type":"MultiPolygon","coordinates":[[[[127.8626,38.2832],[127.8638,38.2767],[127.8534,38.2581],[127.8538,38.2457],[127.8582,38.2352],[127.8527,38.2301],[127.8518,38.2184],[127.8543,38.2138],[127.8517,38.2089],[127.8586,38.2033],[127.8676,38.2052],[127.8782,38.1977],[127.8753,38.1912],[127.8812,38.1695],[127.8755,38.159],[127.8777,38.1532],[127.8738,38.1392],[127.8769,38.1338],[127.8762,38.1191],[127.8878,38.1153],[127.8848,38.1098],[127.8883,38.0935],[127.9014,38.0905],[127.9078,38.0804],[127.9044,38.0701],[127.9132,38.0577],[127.9027,38.0506],[127.879,38.0473],[127.8552,38.0523],[127.8492,38.0363],[127.8508,38.0308],[127.8556,38.0286],[127.8542,38.0253],[127.8581,38.0188],[127.8304,38.0084],[127.8271,38.0008],[127.8132,38.0037],[127.7882,37.9943],[127.7792,38.0137],[127.7734,38.0143],[127.7752,38.0186],[127.77,38.0279],[127.7609,38.0299],[127.7583,38.0348],[127.7502,38.0354],[127.7472,38.0395],[127.7328,38.0356],[127.7254,38.0251],[127.7135,38.0239],[127.7094,38.0323],[127.7002,38.0382],[127.6872,38.0343],[127.6709,38.0348],[127.6541,38.0238],[127.6481,38.0334],[127.652,38.0545],[127.6461,38.0566],[127.6338,38.0502],[127.6237,38.0516],[127.618,38.0572],[127.6125,38.0567],[127.6054,38.0611],[127.6078,38.0717],[127.5968,38.0799],[127.5857,38.0802],[127.5735,38.085],[127.5661,38.0839],[127.5642,38.0717],[127.5666,38.0664],[127.5765,38.062],[127.5796,38.0558],[127.5741,38.0509],[127.5786,38.0398],[127.5669,38.0319],[127.5639,38.022],[127.5448,38.0195],[127.5399,38.0006],[127.5089,38.0013],[127.5039,37.998],[127.4974,38.0037],[127.4716,38.0065],[127.4575,38.017],[127.451,38.0381],[127.4529,38.0472],[127.4462,38.0512],[127.4446,38.0573],[127.4471,38.0807],[127.4452,38.0975],[127.4405,38.1088],[127.4305,38.1154],[127.4413,38.1243],[127.4467,38.1189],[127.4538,38.1174],[127.4572,38.1227],[127.4826,38.1246],[127.4953,38.133],[127.5028,38.1485],[127.4907,38.1592],[127.5042,38.1735],[127.5038,38.1849],[127.5086,38.1992],[127.5245,38.2006],[127.5316,38.2106],[127.5367,38.2106],[127.5424,38.2168],[127.5391,38.222],[127.5432,38.2309],[127.5587,38.2325],[127.5665,38.2383],[127.5701,38.249],[127.579,38.2562],[127.5893,38.2574],[127.5973,38.2627],[127.5986,38.2699],[127.594,38.2779],[127.5973,38.2816],[127.6074,38.2847],[127.6237,38.2658],[127.6346,38.2614],[127.6481,38.2598],[127.672,38.2639],[127.6828,38.2523],[127.7046,38.2481],[127.7131,38.2504],[127.7122,38.2593],[127.7329,38.2787],[127.7822,38.2881],[127.7942,38.2787],[127.8016,38.2772],[127.8079,38.2865],[127.8177,38.288],[127.8626,38.2832]]]]}},{"type":"Feature","properties":{"code":"32380","name":"양구군"},"geometry":{"type":"MultiPolygon","coordinates":[[[[128.1707,38.3157],[128.1678,38.3024],[128.1713,38.2997],[128.1683,38.2889],[128.1724,38.2814],[128.1601,38.2689],[128.161,38.262],[128.1581,38.2587],[128.1469,38.254],[128.1358,38.2444],[128.1243,38.2409],[128.1167,38.2251],[128.1172,38.2182],[128.1214,38.2137],[128.099,38.1923],[128.1055,38.1849],[128.1041,38.1783],[128.0976,38.175],[128.097,38.1626],[128.0864,38.1522],[128.0899,38.1466],[128.0878,38.1385],[128.0935,38.1309],[128.1,38.1298],[128.0981,38.1242],[128.105,38.1086],[128.1013,38.1029],[128.0901,38.1012],[128.088,38.0958],[128.0999,38.0785],[128.113,38.0712],[128.1139,38.0559],[128.1181,38.0476],[128.1127,38.0421],[128.1137,38.037],[128.1032,38.0293],[128.0945,38.0284],[128.0886,38.0331],[128.0804,38.0342],[128.0691,38.0468],[128.0609,38.0473],[128.0564,38.0311],[128.0619,38.0189],[128.0604,38.0151],[128.0451,38.0203],[128.0308,38.014],[128.0249,38.0195],[128.0143,38.0193],[127.9958,38.0017],[127.9894,38.0038],[127.9838,38.0103],[127.9876,38.0226],[127.9854,38.0269],[127.969,38.0309],[127.9554,38.0387],[127.9518,38.0382],[127.947,38.0313],[127.9449,38.0184],[127.9382,38.0142],[127.9103,38.0246],[127.9041,38.0303],[127.9019,38.0382],[127.9038,38.0525],[127.9136,38.0585],[127.9044,38.0701],[127.9078,38.0804],[127.9011,38.0909],[127.8883,38.0935],[127.8848,38.1098],[127.8878,38.1153],[127.8762,38.1191],[127.8769,38.1338],[127.8738,38.1392],[127.8777,38.1532],[127.8755,38.159],[127.8812,38.1695],[127.8753,38.1912],[127.8782,38.1977],[127.8676,38.2052],[127.8586,38.2033],[127.8517,38.2089],[127.8543,38.2138],[127.8518,38.2184],[127.8527,38.2301],[127.8582,38.2352],[127.8538,38.2457],[127.8534,38.2581],[127.8638,38.2767],[127.8633,38.2847],[127.8752,38.2921],[127.8885,38.3088],[127.8971,38.3128],[127.9487,38.3044],[127.9764,38.2867],[127.9858,38.2735],[127.9918,38.2787],[128.0026,38.2755],[128.016,38.2899],[128.013,38.2942],[128.0182,38.3142],[128.0306,38.3151],[128.0311,38.3112],[128.043,38.3116],[128.044,38.3075],[128.0492,38.307],[128.0759,38.3118],[128.0874,38.3177],[128.0918,38.3146],[128.113,38.3277],[128.1228,38.3261],[128.1279,38.3285],[128.1415,38.3243],[128.1549,38.3293],[128.1707,38.3157]]]]}},{"type":"Feature","properties":{"code":"32390","name":"인제군"},"geometry":{"type":"MultiPolygon","coordinates":[[[[128.2336,38.3873],[128.2292,38.379],[128.2337,38.3724],[128.2387,38.3763],[128.2485,38.3708],[128.262,38.3765],[128.2696,38.3762],[128.2725,38.3657],[128.2645,38.3516],[128.2709,38.337],[128.2743,38.3355],[128.2875,38.3401],[128.3121,38.3306],[128.3086,38.3211],[128.3151,38.3023],[128.3205,38.3003],[128.3215,38.2952],[128.3188,38.2877],[128.3192,38.2661],[128.3371,38.2631],[128.3591,38.2657],[128.3685,38.2358],[128.3721,38.2426],[128.3866,38.2471],[128.3973,38.2396],[128.4174,38.2545],[128.4248,38.2532],[128.4329,38.2424],[128.4377,38.2411],[128.4372,38.2303],[128.4407,38.2229],[128.4377,38.2141],[128.4423,38.2037],[128.4384,38.1926],[128.4265,38.1891],[128.4211,38.1767],[128.4385,38.1627],[128.4379,38.1549],[128.4431,38.1496],[128.466,38.1369],[128.4658,38.1213],[128.4649,38.1192],[128.4581,38.1212],[128.4501,38.1152],[128.4277,38.108],[128.411,38.1112],[128.4103,38.099],[128.4042,38.0961],[128.4104,38.081],[128.4102,38.0719],[128.4256,38.0488],[128.4414,38.0581],[128.4548,38.0556],[128.4632,38.0492],[128.477,38.0482],[128.4862,38.0539],[128.5008,38.0381],[128.4986,38.0299],[128.5043,38.0202],[128.5026,38.0173],[128.5081,38.0123],[128.5136,38.013],[128.5129,38.0047],[128.5022,37.9949],[128.5012,37.9861],[128.4965,37.9818],[128.4951,37.9641],[128.4737,37.9615],[128.4728,37.9535],[128.4665,37.9475],[128.4675,37.9403],[128.4636,37.9357],[128.4766,37.9221],[128.4735,37.9004],[128.4818,37.8946],[128.4754,37.8853],[128.4707,37.8857],[128.4663,37.881],[128.4487,37.8734],[128.4442,37.8649],[128.4404,37.864],[128.4317,37.8667],[128.4215,37.8829],[128.4123,37.8847],[128.4097,37.8721],[128.4027,37.8672],[128.4006,37.8612],[128.3824,37.8586],[128.3782,37.8523],[128.3661,37.847],[128.3628,37.8386],[128.3664,37.8364],[128.3652,37.8336],[128.3475,37.8263],[128.3361,37.8279],[128.3283,37.8339],[128.3201,37.8307],[128.3076,37.8435],[128.3032,37.8601],[128.2971,37.8678],[128.2911,37.8693],[128.2875,37.8649],[128.2775,37.8652],[128.2731,37.8607],[128.2629,37.858],[128.2561,37.8396],[128.2426,37.8321],[128.2347,37.8222],[128.2243,37.8205],[128.212,37.8121],[128.2015,37.8162],[128.1846,37.83],[128.1801,37.835],[128.1811,37.8428],[128.1687,37.8513],[128.1717,37.857],[128.1688,37.8708],[128.1744,37.8792],[128.1743,37.8849],[128.1638,37.8877],[128.1608,37.8951],[128.145,37.8929],[128.1073,37.9001],[128.0919,37.8981],[128.0455,37.9225],[128.0301,37.9445],[128.0012,37.9373],[127.9896,37.9452],[127.9873,37.9518],[127.9775,37.9571],[127.9845,37.966],[127.9818,37.9835],[127.984,37.9888],[128.0153,37.9966],[128.0251,38.0117],[128.0432,38.0201],[128.0604,38.0151],[128.0619,38.0189],[128.0564,38.0311],[128.0609,38.0473],[128.0691,38.0468],[128.0804,38.0342],[128.0964,38.0284],[128.1124,38.0354],[128.1127,38.0421],[128.1181,38.0476],[128.1139,38.0559],[128.113,38.0712],[128.1019,38.0765],[128.0888,38.0929],[128.0901,38.1012],[128.1013,38.1029],[128.105,38.1086],[128.0981,38.1242],[128.1,38.1298],[128.0935,38.1309],[128.0878,38.1385],[128.0899,38.1466],[128.0864,38.1522],[128.097,38.1626],[128.0976,38.175],[128.1041,38.1783],[128.1055,38.1849],[128.099,38.1923],[128.1214,38.2137],[128.1172,38.2182],[128.1167,38.2251],[128.1243,38.2409],[128.1358,38.2444],[128.1469,38.254],[128.1581,38.2587],[128.161,38.262],[128.1601,38.2689],[128.1724,38.2814],[128.1683,38.2889],[128.1713,38.2997],[128.1678,38.3024],[128.1707,38.3156],[128.1549,38.3293],[128.1415,38.3243],[128.1279,38.3285],[128.1228,38.3261],[128.113,38.3277],[128.0918,38.3146],[128.0874,38.3177],[128.1153,38.3366],[128.1242,38.3324],[128.1359,38.333],[128.1455,38.3428],[128.1578,38.3425],[128.1586,38.3469],[128.175,38.3643],[128.1843,38.3606],[128.192,38.3729],[128.2014,38.375],[128.2071,38.3751],[128.2125,38.3701],[128.2196,38.3851],[128.2262,38.3896],[128.2336,38.3873]]]]}},{"type":"Feature","properties":{"code":"32400","name":"고성군"},"geometry":{"type":"MultiPolygon","coordinates":[[[[128.372,38.5906],[128.3896,38.5738],[128.3945,38.5729],[128.394,38.5688],[128.4019,38.5647],[128.4048,38.5554],[128.4108,38.5559],[128.4105,38.5472],[128.4051,38.5445],[128.4123,38.535],[128.4119,38.5312],[128.4186,38.5236],[128.4235,38.5227],[128.4184,38.5128],[128.421,38.5064],[128.4266,38.5037],[128.4245,38.5002],[128.4301,38.4907],[128.4385,38.4873],[128.4374,38.481],[128.4403,38.4757],[128.4496,38.4713],[128.45,38.4665],[128.467,38.4501],[128.4592,38.4433],[128.4635,38.4472],[128.4618,38.4489],[128.455,38.4452],[128.4567,38.4316],[128.4768,38.4021],[128.5107,38.3732],[128.5128,38.3686],[128.507,38.3636],[128.5128,38.3563],[128.5128,38.3473],[128.5287,38.3325],[128.531,38.3249],[128.5285,38.3268],[128.5286,38.3213],[128.5434,38.3069],[128.5512,38.3035],[128.547,38.3001],[128.5471,38.2912],[128.5539,38.2807],[128.5539,38.2751],[128.559,38.2737],[128.5601,38.2713],[128.5558,38.2738],[128.5602,38.258],[128.5849,38.2308],[128.5743,38.2218],[128.5337,38.2158],[128.5221,38.2076],[128.4992,38.2022],[128.4978,38.1979],[128.4811,38.1873],[128.4666,38.1986],[128.4545,38.1981],[128.4411,38.2048],[128.4377,38.2141],[128.4407,38.2229],[128.4372,38.2303],[128.4386,38.2392],[128.4248,38.2532],[128.4174,38.2545],[128.3967,38.2394],[128.3884,38.2471],[128.3788,38.2454],[128.3717,38.2423],[128.3685,38.2358],[128.3591,38.2657],[128.3371,38.2631],[128.3192,38.2661],[128.3188,38.2877],[128.3215,38.2952],[128.3205,38.3003],[128.3151,38.3023],[128.3086,38.3211],[128.3121,38.3306],[128.2875,38.3401],[128.2743,38.3355],[128.2709,38.337],[128.2645,38.3516],[128.2725,38.3657],[128.2696,38.3762],[128.262,38.3765],[128.2485,38.3708],[128.2387,38.3763],[128.2337,38.3724],[128.2301,38.3765],[128.2296,38.382],[128.2339,38.3849],[128.2262,38.3896],[128.2292,38.3968],[128.2347,38.4017],[128.2434,38.4027],[128.2458,38.4145],[128.2834,38.4362],[128.2991,38.4716],[128.3067,38.4786],[128.3012,38.4907],[128.3057,38.4985],[128.3044,38.5026],[128.3132,38.5124],[128.3138,38.5225],[128.3107,38.5371],[128.3144,38.5848],[128.3097,38.5939],[128.3371,38.6017],[128.3424,38.6102],[128.3563,38.6137],[128.3601,38.6049],[128.372,38.5906]]]]}},{"type":"Feature","properties":{"code":"32410","name":"양양군"},"geometry":{"type":"MultiPolygon","coordinates":[[[[128.7362,38.022],[128.7293,38.0116],[128.7306,38.0071],[128.7552,37.9832],[128.7641,37.98],[128.7642,37.9779],[128.7603,37.9794],[128.7599,37.9762],[128.7614,37.9724],[128.7659,37.9715],[128.7631,37.9705],[128.7632,37.9663],[128.7767,37.9512],[128.7892,37.9454],[128.7856,37.9435],[128.7887,37.9356],[128.81,37.9175],[128.8034,37.913],[128.7828,37.9143],[128.7755,37.9101],[128.7537,37.9123],[128.7447,37.9042],[128.7324,37.8999],[128.7186,37.9034],[128.7134,37.8988],[128.7022,37.8984],[128.6692,37.8858],[128.6642,37.8908],[128.6478,37.8909],[128.6429,37.8949],[128.6244,37.8816],[128.6208,37.8724],[128.6012,37.8707],[128.5977,37.866],[128.5882,37.862],[128.5788,37.8628],[128.5738,37.8646],[128.5668,37.8756],[128.5595,37.8756],[128.5575,37.88],[128.541,37.8911],[128.5308,37.8889],[128.5252,37.8826],[128.5118,37.8801],[128.5059,37.8869],[128.4966,37.8849],[128.4737,37.9],[128.4766,37.9221],[128.4636,37.9357],[128.4675,37.9403],[128.4665,37.9475],[128.4728,37.9535],[128.4737,37.9615],[128.4951,37.9641],[128.4965,37.9818],[128.5012,37.9861],[128.5022,37.9949],[128.5129,38.0047],[128.5136,38.013],[128.5081,38.0123],[128.5026,38.0173],[128.5043,38.0202],[128.4986,38.0299],[128.5008,38.0381],[128.4862,38.0539],[128.477,38.0482],[128.4632,38.0492],[128.4548,38.0556],[128.4414,38.0581],[128.4252,38.049],[128.4102,38.0719],[128.4104,38.081],[128.4042,38.0961],[128.4103,38.099],[128.411,38.1112],[128.4277,38.108],[128.4501,38.1152],[128.4581,38.1212],[128.4672,38.119],[128.4913,38.1365],[128.5299,38.1361],[128.5351,38.1486],[128.5598,38.1483],[128.5703,38.1543],[128.5712,38.1612],[128.6034,38.1589],[128.6087,38.1613],[128.6088,38.1501],[128.6126,38.1437],[128.6249,38.1289],[128.63,38.127],[128.6354,38.1166],[128.6627,38.0918],[128.666,38.0914],[128.6685,38.0898],[128.6648,38.0906],[128.6748,38.0809],[128.673,38.0786],[128.6774,38.0743],[128.6763,38.0667],[128.6976,38.0451],[128.7254,38.0238],[128.7362,38.022]]]]}}]}