{"type":"FeatureCollection","features":[{"type":"Feature","properties":{"code":"33020","name":"충주시"},"geometry":{"type":"MultiPolygon","coordinates":[[[[127.9818,36.8234],[127.9717,36.8264],[127.9765,36.8369],[127.9669,36.8509],[127.9694,36.8593],[127.9455,36.8735],[127.9507,36.8866],[127.9322,36.8876],[127.9177,36.8811],[127.9137,36.8857],[127.9036,36.8879],[127.9007,36.8974],[127.8939,36.892],[127.883,36.8903],[127.8815,36.8958],[127.864,36.8962],[127.855,36.9072],[127.8379,36.9137],[127.8421,36.9174],[127.84,36.9198],[127.843,36.9277],[127.8357,36.9301],[127.8318,36.9354],[127.8329,36.9399],[127.8216,36.9434],[127.8094,36.9396],[127.8066,36.946],[127.7998,36.9475],[127.7949,36.9459],[127.7916,36.9387],[127.7756,36.9333],[127.7648,36.9398],[127.7626,36.9484],[127.7529,36.9579],[127.7393,36.9524],[127.7269,36.9591],[127.7163,36.9584],[127.7059,36.9658],[127.7021,36.9727],[127.6866,36.9815],[127.6863,36.9859],[127.6684,36.9876],[127.6638,36.9838],[127.6691,36.9827],[127.6671,36.9787],[127.6618,36.9774],[127.6511,36.9828],[127.6551,37.0014],[127.6655,37.0031],[127.6563,37.0159],[127.6646,37.0232],[127.6643,37.0306],[127.672,37.0347],[127.672,37.0402],[127.6912,37.0531],[127.6835,37.0781],[127.6922,37.0813],[127.6992,37.0916],[127.6982,37.0994],[127.7019,37.103],[127.7205,37.1107],[127.7227,37.115],[127.7221,37.1208],[127.712,37.1278],[127.7097,37.1352],[127.6945,37.1413],[127.6952,37.1512],[127.7043,37.1576],[127.7049,37.1675],[127.7169,37.1834],[127.7264,37.1825],[127.7353,37.2081],[127.7435,37.2146],[127.756,37.1709],[127.7655,37.1591],[127.7895,37.1434],[127.8169,37.147],[127.8254,37.1523],[127.8474,37.1529],[127.8532,37.1603],[127.8613,37.1553],[127.862,37.161],[127.872,37.1643],[127.8866,37.1611],[127.8951,37.1562],[127.8989,37.1498],[127.9086,37.1671],[127.915,37.1689],[127.9246,37.1645],[127.955,37.1615],[127.9683,37.1562],[127.9706,37.1421],[127.9769,37.1414],[127.9826,37.1312],[127.9866,37.1312],[127.9854,37.1124],[127.9992,37.1082],[128.0039,37.0985],[128.0115,37.0996],[128.0127,37.1094],[128.0199,37.1179],[128.0372,37.1119],[128.0453,37.1157],[128.0485,37.1084],[128.0455,37.106],[128.0474,37.1027],[128.053,37.097],[128.0631,37.0967],[128.0589,37.0895],[128.0607,37.0867],[128.0757,37.0843],[128.0853,37.0761],[128.0821,37.0708],[128.0858,37.0656],[128.0808,37.0484],[128.0845,37.0444],[128.0835,37.039],[128.0904,37.0233],[128.0856,37.02],[128.0889,37.018],[128.0864,37.0108],[128.0762,37.0035],[128.0789,36.9963],[128.084,36.9955],[128.0849,36.9904],[128.0901,36.9895],[128.0909,36.9856],[128.0865,36.9663],[128.0866,36.951],[128.0849,36.9477],[128.0751,36.95],[128.06,36.9602],[128.0404,36.9544],[128.0432,36.951],[128.043,36.9397],[128.0586,36.9318],[128.0625,36.92],[128.0727,36.9133],[128.0663,36.9094],[128.0663,36.8939],[128.0356,36.855],[128.0368,36.8517],[128.0552,36.8444],[128.062,36.8379],[128.0688,36.8453],[128.0871,36.8515],[128.0914,36.8492],[128.0939,36.8369],[128.0975,36.8335],[128.1107,36.8302],[128.1265,36.834],[128.1336,36.8328],[128.134,36.8284],[128.1185,36.8215],[128.1099,36.8215],[128.1071,36.8073],[128.093,36.8029],[128.0935,36.7968],[128.0838,36.7993],[128.0854,36.8042],[128.0674,36.8168],[128.0592,36.8164],[128.0472,36.8222],[128.039,36.8214],[128.0355,36.8249],[128.024,36.826],[128.023,36.8131],[128.0116,36.8068],[127.9824,36.816],[127.9818,36.8234]]]]}},{"type":"Feature","properties":{"code":"33030","name":"제천시"},"geometry":{"type":"MultiPolygon","coordinates":[[[[127.999,37.2549],[128.0183,37.2457],[128.023,37.2256],[128.0312,37.2238],[128.0388,37.216],[128.0283,37.2023],[128.0372,37.1893],[128.0498,37.1896],[128.0605,37.1941],[128.0743,37.1931],[128.1087,37.2057],[128.1155,37.2203],[128.1224,37.2252],[128.1215,37.2293],[128.1253,37.2345],[128.1329,37.2298],[128.1406,37.2295],[128.1423,37.2243],[128.1509,37.2207],[128.1542,37.2159],[128.1645,37.2135],[128.1731,37.2191],[128.1741,37.2326],[128.2012,37.249],[128.2146,37.2461],[128.2148,37.2418],[128.2203,37.2403],[128.2292,37.2276],[128.2374,37.2293],[128.2443,37.2265],[128.2509,37.2296],[128.2684,37.2079],[128.284,37.2107],[128.2882,37.2151],[128.3091,37.2175],[128.3166,37.2234],[128.3322,37.2139],[128.3264,37.1973],[128.3134,37.1968],[128.3105,37.1873],[128.2956,37.1833],[128.2981,37.1717],[128.2897,37.1701],[128.2811,37.1734],[128.2644,37.1604],[128.2776,37.1442],[128.2927,37.1393],[128.3035,37.1289],[128.3042,37.1173],[128.309,37.1119],[128.3038,37.1003],[128.294,37.0981],[128.2778,37.1108],[128.2776,37.1158],[128.2708,37.1159],[128.2669,37.1086],[128.2564,37.1015],[128.2623,37.0903],[128.2695,37.0876],[128.2552,37.082],[128.2492,37.0751],[128.2468,37.0769],[128.2394,37.0736],[128.2368,37.0654],[128.2254,37.0623],[128.2179,37.0543],[128.2211,37.0496],[128.2171,37.0374],[128.2244,37.0343],[128.2251,37.0272],[128.228,37.0245],[128.2399,37.0241],[128.2561,37.0055],[128.2576,37.0002],[128.2539,36.9975],[128.2585,36.9933],[128.257,36.9847],[128.2657,36.9611],[128.2597,36.9548],[128.2645,36.9523],[128.2635,36.9495],[128.2529,36.9427],[128.2474,36.9446],[128.2448,36.9419],[128.247,36.9379],[128.2363,36.9336],[128.2367,36.9166],[128.2462,36.905],[128.2438,36.891],[128.2509,36.8847],[128.2439,36.88],[128.2395,36.8651],[128.2347,36.8628],[128.2344,36.8547],[128.2387,36.8502],[128.237,36.8453],[128.2137,36.8495],[128.2113,36.8469],[128.2173,36.8194],[128.2154,36.812],[128.1848,36.8166],[128.1713,36.8221],[128.1531,36.8224],[128.1418,36.8333],[128.1222,36.8339],[128.1107,36.8302],[128.0976,36.8335],[128.0939,36.8369],[128.0914,36.8492],[128.0871,36.8515],[128.0688,36.8453],[128.062,36.8379],[128.0552,36.8444],[128.0368,36.8517],[128.0359,36.8559],[128.044,36.8625],[128.0455,36.8705],[128.0509,36.8722],[128.0554,36.8826],[128.0663,36.8939],[128.0663,36.9094],[128.0727,36.9133],[128.0625,36.92],[128.0586,36.9318],[128.043,36.9397],[128.0432,36.951],[128.0404,36.9544],[128.06,36.9602],[128.0751,36.95],[128.0849,36.9477],[128.0866,36.951],[128.0865,36.9663],[128.0909,36.9856],[128.0901,36.9895],[128.0849,36.9904],[128.084,36.9955],[128.0789,36.9963],[128.0762,37.0035],[128.0864,37.0108],[128.0889,37.018],[128.0856,37.02],[128.0904,37.0233],[128.0835,37.039],[128.0845,37.0444],[128.0808,37.0484],[128.0858,37.0656],[128.0821,37.0708],[128.0853,37.0759],[128.0757,37.0843],[128.0607,37.0867],[128.0589,37.0895],[128.0631,37.0967],[128.053,37.097],[128.0474,37.1027],[128.0455,37.106],[128.0485,37.1084],[128.0453,37.1157],[128.0372,37.1119],[128.0199,37.1179],[128.0127,37.1094],[128.0115,37.0996],[128.0039,37.0985],[127.9992,37.1082],[127.9854,37.1124],[127.9866,37.1312],[127.9826,37.1312],[127.9769,37.1414],[127.9706,37.1421],[127.9683,37.1562],[127.955,37.1615],[127.9263,37.1655],[127.9336,37.1758],[127.9326,37.1824],[127.9363,37.1888],[127.9309,37.2011],[127.9325,37.207],[127.9271,37.2202],[127.9217,37.2254],[127.9389,37.2407],[127.9452,37.2406],[127.9527,37.2479],[127.9645,37.251],[127.9697,37.2557],[127.999,37.2549]]]]}},{"type":"Feature","properties":{"code":"33041","name":"청주시 상당구"},"geometry":{"type":"MultiPolygon","coordinates":[[[[127.6838,36.7173],[127.6869,36.7205],[127.6927,36.7121],[127.7015,36.7102],[127.7022,36.7038],[127.7137,36.6952],[127.714,36.6899],[127.7271,36.6825],[127.725,36.6752],[127.7126,36.6677],[127.7103,36.6628],[127.7123,36.6572],[127.7094,36.654],[127.7127,36.6503],[127.7234,36.6513],[127.7259,36.6447],[127.7348,36.6397],[127.7381,36.6413],[127.74,36.6332],[127.75,36.6254],[127.7502,36.6219],[127.7646,36.613],[127.7695,36.604],[127.7688,36.5942],[127.7459,36.5853],[127.7373,36.5926],[127.7365,36.6],[127.7287,36.6023],[127.7138,36.602],[127.7097,36.5961],[127.6946,36.5885],[127.6805,36.5924],[127.6767,36.5967],[127.6686,36.5945],[127.6654,36.6024],[127.654,36.6004],[127.6524,36.6049],[127.6463,36.6066],[127.6357,36.6002],[127.6302,36.5936],[127.6318,36.5889],[127.6115,36.5693],[127.6172,36.5595],[127.6124,36.5514],[127.5809,36.542],[127.5781,36.5375],[127.565,36.5306],[127.5727,36.5159],[127.5702,36.4993],[127.5768,36.4905],[127.5562,36.4718],[127.5532,36.4591],[127.5448,36.4463],[127.5198,36.435],[127.511,36.4103],[127.5016,36.4087],[127.4897,36.4341],[127.5035,36.4494],[127.5038,36.4537],[127.5006,36.4562],[127.4845,36.4529],[127.479,36.4565],[127.4777,36.4605],[127.484,36.4766],[127.4772,36.4805],[127.4757,36.4902],[127.4674,36.4913],[127.4578,36.4959],[127.4551,36.5003],[127.4498,36.5005],[127.4453,36.5131],[127.4541,36.5187],[127.4557,36.5256],[127.4518,36.5413],[127.4474,36.5418],[127.448,36.5472],[127.457,36.549],[127.4665,36.5425],[127.4797,36.5477],[127.485,36.5449],[127.4863,36.5474],[127.4795,36.5572],[127.4818,36.5614],[127.4672,36.5621],[127.4684,36.5717],[127.4741,36.5811],[127.4917,36.5826],[127.4989,36.5884],[127.4974,36.6149],[127.494,36.6163],[127.4939,36.6224],[127.4825,36.6309],[127.4846,36.6366],[127.4828,36.6448],[127.5009,36.6472],[127.5096,36.6532],[127.5184,36.6549],[127.5369,36.6695],[127.5431,36.6687],[127.5486,36.6735],[127.567,36.6744],[127.5792,36.6842],[127.5859,36.6834],[127.5984,36.6974],[127.612,36.6996],[127.6173,36.7072],[127.623,36.7046],[127.6352,36.7088],[127.6424,36.7026],[127.6512,36.702],[127.6627,36.715],[127.6614,36.7223],[127.6645,36.73],[127.6789,36.718],[127.6838,36.7173]]]]}},{"type":"Feature","properties":{"code":"33042","name":"청주시 서원구"},"geometry":{"type":"MultiPolygon","coordinates":[[[[127.4825,36.6309],[127.4939,36.6224],[127.494,36.6163],[127.4974,36.6149],[127.4989,36.5884],[127.4917,36.5826],[127.4741,36.5811],[127.4684,36.5717],[127.4672,36.5621],[127.4818,36.5614],[127.4795,36.5572],[127.4863,36.5474],[127.485,36.5449],[127.4797,36.5477],[127.4665,36.5425],[127.457,36.549],[127.448,36.5472],[127.4474,36.5418],[127.4518,36.5413],[127.4557,36.5256],[127.4541,36.5187],[127.4453,36.5131],[127.4498,36.5005],[127.4551,36.5003],[127.4578,36.4959],[127.4674,36.4913],[127.4757,36.4902],[127.4805,36.4772],[127.4702,36.4735],[127.4638,36.4645],[127.4626,36.4561],[127.4513,36.4493],[127.4441,36.4504],[127.4359,36.4564],[127.4021,36.456],[127.3997,36.4618],[127.4041,36.4811],[127.3961,36.4917],[127.4108,36.4978],[127.4078,36.5033],[127.409,36.5097],[127.3977,36.521],[127.4077,36.5231],[127.4084,36.5272],[127.4018,36.5412],[127.3839,36.5415],[127.3832,36.5479],[127.3785,36.5498],[127.3781,36.5552],[127.3725,36.5597],[127.378,36.5629],[127.3771,36.5679],[127.3867,36.5773],[127.3888,36.5841],[127.4129,36.6058],[127.4155,36.6067],[127.4187,36.6024],[127.4195,36.5966],[127.4338,36.5986],[127.4367,36.6107],[127.4448,36.6164],[127.4431,36.6233],[127.4499,36.6254],[127.4567,36.638],[127.4669,36.6378],[127.469,36.6425],[127.4819,36.6465],[127.4843,36.6406],[127.4825,36.6309]]]]}},{"type":"Feature","properties":{"code":"33043","name":"청주시 흥덕구"},"geometry":{"type":"MultiPolygon","coordinates":[[[[127.363,36.7173],[127.3748,36.7125],[127.3935,36.7176],[127.4002,36.7123],[127.4107,36.7101],[127.4089,36.7055],[127.4258,36.6892],[127.4315,36.6893],[127.4316,36.6846],[127.4484,36.6842],[127.4476,36.6754],[127.4563,36.6748],[127.4619,36.6705],[127.4819,36.6465],[127.469,36.6425],[127.4669,36.6378],[127.4567,36.638],[127.4499,36.6254],[127.4431,36.6233],[127.4448,36.6164],[127.4367,36.6107],[127.4338,36.5986],[127.4195,36.5966],[127.4146,36.6067],[127.3896,36.585],[127.3867,36.5773],[127.3771,36.5679],[127.3576,36.5618],[127.3471,36.5645],[127.3378,36.5624],[127.3358,36.5711],[127.3266,36.5765],[127.3214,36.5838],[127.3058,36.583],[127.2998,36.586],[127.3048,36.5914],[127.3065,36.6014],[127.3008,36.6077],[127.3018,36.6128],[127.2959,36.6197],[127.2963,36.6242],[127.2918,36.6256],[127.2922,36.6356],[127.2794,36.6335],[127.2757,36.6398],[127.2828,36.6423],[127.2816,36.6451],[127.2887,36.6589],[127.2997,36.6622],[127.3051,36.6676],[127.3076,36.682],[127.2853,36.6907],[127.2916,36.697],[127.3084,36.7048],[127.3061,36.7083],[127.3105,36.7243],[127.363,36.7173]]]]}},{"type":"Feature","properties":{"code":"33044","name":"청주시 청원구"},"geometry":{"type":"MultiPolygon","coordinates":[[[[127.5889,36.7606],[127.5872,36.7554],[127.5908,36.7476],[127.6061,36.7434],[127.6106,36.7353],[127.6096,36.7302],[127.6189,36.7163],[127.6179,36.7074],[127.6134,36.7007],[127.5984,36.6974],[127.5859,36.6834],[127.5792,36.6842],[127.567,36.6744],[127.5486,36.6735],[127.5431,36.6687],[127.5369,36.6695],[127.5217,36.6564],[127.4882,36.6449],[127.4828,36.6448],[127.4712,36.6614],[127.4576,36.674],[127.4478,36.6752],[127.4484,36.6842],[127.4351,36.6837],[127.4316,36.6846],[127.4315,36.6893],[127.4258,36.6892],[127.4088,36.7056],[127.4107,36.7101],[127.4002,36.7123],[127.3935,36.7176],[127.3747,36.7125],[127.363,36.7173],[127.3395,36.7189],[127.318,36.7249],[127.3283,36.7346],[127.3392,36.7297],[127.3432,36.7357],[127.3334,36.7467],[127.3353,36.7524],[127.3523,36.7541],[127.3588,36.7606],[127.3685,36.7613],[127.3723,36.7579],[127.3856,36.7595],[127.396,36.7479],[127.4044,36.746],[127.4123,36.7573],[127.4245,36.7588],[127.4271,36.7508],[127.4391,36.7532],[127.4424,36.7494],[127.4509,36.7494],[127.4499,36.7591],[127.4604,36.7699],[127.4704,36.7688],[127.4818,36.776],[127.4904,36.7738],[127.4971,36.78],[127.5087,36.7769],[127.509,36.7668],[127.5648,36.7803],[127.5676,36.7738],[127.5889,36.7606]]]]}},{"type":"Feature","properties":{"code":"33320","name":"보은군"},"geometry":{"type":"MultiPolygon","coordinates":[[[[127.7985,36.6021],[127.7962,36.5953],[127.7985,36.5864],[127.8049,36.5814],[127.8162,36.5781],[127.8245,36.5709],[127.8302,36.5743],[127.8371,36.5701],[127.8524,36.5712],[127.8604,36.568],[127.8703,36.5592],[127.873,36.5513],[127.8705,36.5428],[127.8761,36.537],[127.9025,36.5281],[127.9025,36.5132],[127.9061,36.5061],[127.8887,36.4931],[127.8805,36.4933],[127.8755,36.4857],[127.8824,36.4759],[127.8784,36.4671],[127.882,36.4618],[127.8721,36.4409],[127.8755,36.4297],[127.873,36.4243],[127.8827,36.4244],[127.8827,36.4222],[127.8757,36.4144],[127.873,36.4059],[127.8639,36.403],[127.8663,36.3948],[127.8629,36.393],[127.8757,36.3906],[127.8842,36.38],[127.8799,36.3715],[127.8371,36.3728],[127.8326,36.3691],[127.8316,36.374],[127.8228,36.3799],[127.8006,36.3825],[127.7898,36.3886],[127.7708,36.3875],[127.7624,36.3935],[127.7467,36.3858],[127.7348,36.3925],[127.7303,36.3899],[127.7184,36.3963],[127.7082,36.4065],[127.7101,36.4138],[127.6813,36.4185],[127.6785,36.427],[127.6805,36.436],[127.6658,36.445],[127.6577,36.438],[127.6447,36.4453],[127.6392,36.436],[127.6313,36.4395],[127.6281,36.4286],[127.6173,36.4174],[127.6168,36.4092],[127.6122,36.4034],[127.6053,36.4038],[127.6045,36.4086],[127.5989,36.4078],[127.5986,36.412],[127.5903,36.4119],[127.5841,36.4178],[127.5799,36.4078],[127.5548,36.3928],[127.5537,36.395],[127.5597,36.3982],[127.5456,36.4088],[127.5423,36.4193],[127.5294,36.4192],[127.5243,36.4234],[127.5145,36.4225],[127.5198,36.435],[127.5448,36.4463],[127.5532,36.4591],[127.5562,36.4718],[127.5768,36.4905],[127.5702,36.4993],[127.5727,36.5159],[127.565,36.5306],[127.5781,36.5375],[127.5809,36.542],[127.6124,36.5514],[127.6172,36.5595],[127.6115,36.5693],[127.6318,36.5889],[127.6302,36.5936],[127.6357,36.6002],[127.6463,36.6066],[127.6524,36.6049],[127.654,36.6004],[127.6654,36.6024],[127.6686,36.5945],[127.6767,36.5967],[127.6805,36.5924],[127.6946,36.5885],[127.7097,36.5961],[127.7138,36.602],[127.7287,36.6023],[127.7365,36.6],[127.7373,36.5926],[127.7459,36.5853],[127.7688,36.5942],[127.7695,36.604],[127.7863,36.6138],[127.7985,36.6021]]]]}},{"type":"Feature","properties":{"code":"33330","name":"옥천군"},"geometry":{"type":"MultiPolygon","coordinates":[[[[127.6577,36.438],[127.6658,36.445],[127.6803,36.4363],[127.6785,36.427],[127.6813,36.4185],[127.7101,36.4138],[127.7082,36.4065],[127.7184,36.3963],[127.7303,36.3899],[127.7348,36.3925],[127.7467,36.3858],[127.7624,36.3935],[127.7708,36.3875],[127.7898,36.3886],[127.8006,36.3825],[127.8228,36.3799],[127.8316,36.374],[127.8326,36.3691],[127.8371,36.3728],[127.8521,36.3714],[127.8612,36.3739],[127.8837,36.3706],[127.8913,36.3597],[127.8856,36.3547],[127.8826,36.3459],[127.8701,36.3435],[127.8658,36.3356],[127.8526,36.3296],[127.8507,36.3208],[127.8452,36.3164],[127.825,36.3101],[127.821,36.3052],[127.8174,36.3104],[127.8083,36.3088],[127.8019,36.3037],[127.8003,36.2982],[127.795,36.2968],[127.7944,36.2905],[127.7702,36.2903],[127.7619,36.2801],[127.7616,36.2718],[127.7558,36.2679],[127.7292,36.2762],[127.7217,36.2695],[127.7138,36.2685],[127.7121,36.266],[127.7147,36.2631],[127.7018,36.2608],[127.6938,36.2499],[127.6913,36.2386],[127.6805,36.2257],[127.6725,36.2222],[127.6638,36.2233],[127.6561,36.2293],[127.6507,36.2251],[127.6523,36.2157],[127.6485,36.2071],[127.6544,36.192],[127.65,36.1853],[127.6551,36.1773],[127.6497,36.1707],[127.633,36.1804],[127.6271,36.178],[127.6083,36.1857],[127.5977,36.1849],[127.5925,36.1952],[127.5995,36.2046],[127.598,36.2171],[127.5836,36.2313],[127.5703,36.2335],[127.5639,36.2277],[127.5453,36.2255],[127.5499,36.2384],[127.5379,36.2428],[127.5362,36.2512],[127.5269,36.2483],[127.5181,36.2406],[127.4926,36.238],[127.4876,36.2514],[127.49,36.2573],[127.486,36.2612],[127.4903,36.2684],[127.4888,36.2727],[127.4988,36.2828],[127.4912,36.297],[127.499,36.3057],[127.4946,36.312],[127.4978,36.3164],[127.496,36.3199],[127.503,36.3256],[127.5006,36.3393],[127.5224,36.3543],[127.5266,36.3701],[127.5249,36.3875],[127.5392,36.3979],[127.5548,36.3928],[127.5581,36.3966],[127.5658,36.3979],[127.5805,36.4085],[127.5841,36.4178],[127.5903,36.4119],[127.5986,36.412],[127.5989,36.4078],[127.6045,36.4086],[127.6053,36.4038],[127.6122,36.4034],[127.6168,36.4092],[127.6173,36.4174],[127.6281,36.4286],[127.6313,36.4395],[127.6392,36.436],[127.642,36.4433],[127.6473,36.4444],[127.6577,36.438]]]]}},{"type":"Feature","properties":{"code":"33340","name":"영동군"},"geometry":{"type":"MultiPolygon","coordinates":[[[[127.8415,36.3083],[127.8469,36.3008],[127.8456,36.2937],[127.8521,36.2739],[127.8609,36.2771],[127.8826,36.2737],[127.8899,36.2892],[127.9043,36.3015],[127.9081,36.2855],[127.9309,36.278],[127.9379,36.2691],[127.9474,36.2672],[127.9493,36.2566],[127.9546,36.2572],[127.9602,36.2524],[127.9706,36.2504],[127.9783,36.2546],[127.9767,36.2593],[127.9812,36.2636],[127.9905,36.2634],[127.9944,36.2674],[128.0005,36.2664],[128.0091,36.272],[128.019,36.2673],[128.0262,36.2679],[128.0332,36.2615],[128.0474,36.2566],[128.0457,36.2521],[128.0403,36.252],[128.0357,36.2435],[128.0299,36.24],[128.0393,36.2287],[128.0422,36.2175],[128.0501,36.2165],[128.0508,36.206],[128.0581,36.2012],[128.0386,36.1942],[128.024,36.2066],[128.0097,36.2094],[127.9985,36.2073],[127.993,36.2],[127.978,36.1981],[127.9812,36.1959],[127.9753,36.1877],[127.9841,36.1782],[127.9826,36.1706],[127.9898,36.1652],[127.9905,36.1589],[127.9972,36.1555],[127.9875,36.1474],[127.9878,36.1288],[127.9668,36.1181],[127.9652,36.1128],[127.9687,36.1031],[127.9585,36.0901],[127.9617,36.083],[127.9609,36.0703],[127.9363,36.0511],[127.9302,36.0494],[127.9167,36.0543],[127.9061,36.0467],[127.9027,36.0391],[127.8848,36.0359],[127.8835,36.0281],[127.8768,36.0225],[127.8661,36.0243],[127.8606,36.0315],[127.8557,36.0329],[127.8528,36.0391],[127.8486,36.0397],[127.8189,36.029],[127.7994,36.0261],[127.7876,36.0145],[127.7815,36.0165],[127.7643,36.0124],[127.7593,36.0152],[127.7616,36.0252],[127.7539,36.0241],[127.7473,36.0297],[127.7415,36.0248],[127.7348,36.0323],[127.7019,36.0353],[127.695,36.0459],[127.695,36.0588],[127.6907,36.058],[127.6881,36.0627],[127.6698,36.0514],[127.6727,36.0416],[127.6691,36.0387],[127.6602,36.0385],[127.6544,36.0559],[127.6491,36.058],[127.6446,36.0668],[127.6382,36.0682],[127.6321,36.0824],[127.6173,36.0936],[127.6191,36.1089],[127.5895,36.1343],[127.5909,36.1448],[127.6017,36.16],[127.6015,36.169],[127.5931,36.1774],[127.5947,36.181],[127.5977,36.1849],[127.6083,36.1857],[127.6271,36.178],[127.633,36.1804],[127.6497,36.1707],[127.6551,36.1773],[127.6502,36.1841],[127.6544,36.192],[127.6485,36.2071],[127.6523,36.2157],[127.6506,36.225],[127.6561,36.2293],[127.6638,36.2233],[127.6725,36.2222],[127.6805,36.2257],[127.6913,36.2386],[127.6938,36.2499],[127.7003,36.2589],[127.7147,36.2631],[127.7121,36.266],[127.714,36.2686],[127.7217,36.2695],[127.731,36.2764],[127.7558,36.2679],[127.7616,36.2718],[127.7619,36.2801],[127.7702,36.2903],[127.7944,36.2905],[127.795,36.2968],[127.8003,36.2982],[127.8019,36.3037],[127.8083,36.3088],[127.8174,36.3104],[127.821,36.3052],[127.825,36.3101],[127.8444,36.3155],[127.8415,36.3083]]]]}},{"type":"Feature","properties":{"code":"33350","name":"진천군"},"geometry":{"type":"MultiPolygon","coordinates":[[[[127.449,37.0098],[127.4493,36.9772],[127.4539,36.9741],[127.4571,36.9654],[127.4549,36.9607],[127.4484,36.9632],[127.4464,36.9614],[127.4473,36.9499],[127.4635,36.9484],[127.4665,36.9392],[127.4706,36.9362],[127.4812,36.9337],[127.4861,36.9387],[127.4928,36.9388],[127.4999,36.9332],[127.5114,36.9306],[127.5275,36.911],[127.5338,36.912],[127.5463,36.901],[127.5531,36.8989],[127.5519,36.8939],[127.5557,36.8862],[127.5627,36.8822],[127.5686,36.8857],[127.5723,36.8774],[127.5778,36.8798],[127.585,36.8746],[127.5852,36.8711],[127.5766,36.8647],[127.5756,36.8578],[127.5786,36.8523],[127.5715,36.8501],[127.5727,36.8413],[127.5687,36.8385],[127.5699,36.8293],[127.5792,36.8282],[127.5721,36.82],[127.5557,36.8174],[127.5373,36.8086],[127.5481,36.7984],[127.5552,36.7992],[127.5648,36.7803],[127.509,36.7668],[127.5102,36.7729],[127.505,36.7795],[127.4971,36.78],[127.4904,36.7738],[127.4818,36.776],[127.4704,36.7688],[127.4604,36.7699],[127.4509,36.761],[127.4509,36.7494],[127.4475,36.749],[127.4391,36.7532],[127.4271,36.7508],[127.4248,36.7548],[127.4269,36.7576],[127.4197,36.7577],[127.413,36.7732],[127.4033,36.7751],[127.3955,36.7825],[127.3967,36.7903],[127.4017,36.7951],[127.4008,36.7991],[127.3822,36.8138],[127.3666,36.817],[127.3517,36.8307],[127.3345,36.8307],[127.3365,36.8546],[127.3073,36.8597],[127.3058,36.8634],[127.3113,36.8705],[127.3079,36.8854],[127.2878,36.8938],[127.2974,36.904],[127.3034,36.9164],[127.2984,36.9227],[127.2952,36.9297],[127.2956,36.9313],[127.309,36.9294],[127.3162,36.9347],[127.3268,36.9359],[127.3406,36.9431],[127.3496,36.9528],[127.354,36.9527],[127.3576,36.9477],[127.3757,36.9487],[127.3787,36.9579],[127.3848,36.9596],[127.3873,36.9645],[127.3975,36.9646],[127.4015,36.9677],[127.385,36.9836],[127.3931,36.9974],[127.415,37.0],[127.4212,37.004],[127.4288,37.0022],[127.4365,37.0056],[127.4412,37.0121],[127.449,37.0098]]]]}},{"type":"Feature","properties":{"code":"33360","name":"괴산군"},"geometry":{"type":"MultiPolygon","coordinates":[[[[127.8216,36.9434],[127.8329,36.9399],[127.8318,36.9354],[127.8357,36.9301],[127.843,36.9277],[127.84,36.9198],[127.8421,36.9174],[127.8379,36.9137],[127.855,36.9072],[127.864,36.8962],[127.8815,36.8958],[127.883,36.8903],[127.8939,36.892],[127.9007,36.8974],[127.9036,36.8879],[127.9137,36.8857],[127.9177,36.8811],[127.9322,36.8876],[127.9512,36.8863],[127.9455,36.8735],[127.9694,36.8593],[127.9669,36.8509],[127.9765,36.8369],[127.9717,36.8264],[127.9818,36.8234],[127.9824,36.816],[128.0116,36.8068],[128.0175,36.8081],[128.0234,36.8142],[128.024,36.826],[128.0355,36.8249],[128.0422,36.8206],[128.0472,36.8222],[128.0592,36.8164],[128.0579,36.807],[128.054,36.8052],[128.055,36.7927],[128.0456,36.7824],[128.0448,36.7711],[128.0324,36.7552],[128.0323,36.7476],[128.068,36.7222],[128.0727,36.7119],[128.0704,36.7077],[128.049,36.708],[128.0319,36.7188],[128.0209,36.7219],[128.0148,36.7302],[128.0094,36.7284],[128.0019,36.7173],[127.9868,36.7175],[127.9606,36.7372],[127.957,36.7356],[127.9536,36.7227],[127.9492,36.7199],[127.9495,36.7081],[127.9336,36.7065],[127.9289,36.6908],[127.8939,36.6944],[127.8873,36.6912],[127.882,36.6834],[127.8747,36.6826],[127.88,36.6787],[127.9004,36.6822],[127.913,36.6777],[127.9177,36.6679],[127.9296,36.6688],[127.9322,36.6645],[127.9316,36.6554],[127.9391,36.6527],[127.9392,36.6471],[127.9343,36.6411],[127.936,36.633],[127.9324,36.6187],[127.9241,36.6155],[127.9239,36.602],[127.92,36.6011],[127.9188,36.6087],[127.9118,36.6145],[127.9072,36.6258],[127.8893,36.6297],[127.8892,36.6398],[127.8824,36.6465],[127.8797,36.6568],[127.8739,36.655],[127.8613,36.6356],[127.8468,36.634],[127.8506,36.6313],[127.8478,36.6249],[127.8498,36.6196],[127.8557,36.6176],[127.8583,36.6135],[127.8562,36.6123],[127.8498,36.6131],[127.8407,36.6083],[127.8322,36.6126],[127.821,36.6133],[127.8181,36.6084],[127.802,36.6019],[127.7863,36.6138],[127.7695,36.604],[127.7646,36.613],[127.7502,36.6219],[127.75,36.6254],[127.74,36.6332],[127.7381,36.6413],[127.7348,36.6397],[127.7259,36.6447],[127.7234,36.6513],[127.7127,36.6503],[127.7094,36.654],[127.7123,36.6572],[127.7103,36.6628],[127.7126,36.6677],[127.725,36.6752],[127.7271,36.6825],[127.714,36.6899],[127.7137,36.6952],[127.7022,36.7038],[127.7019,36.7099],[127.6927,36.7121],[127.6869,36.7205],[127.6796,36.7171],[127.6621,36.7325],[127.6511,36.7344],[127.6397,36.732],[127.6355,36.7521],[127.6242,36.7605],[127.6287,36.7725],[127.6272,36.7766],[127.6208,36.7786],[127.6209,36.7879],[127.6274,36.7932],[127.6361,36.7943],[127.6419,36.8007],[127.634,36.8073],[127.635,36.8128],[127.6298,36.8187],[127.6303,36.8288],[127.6386,36.8411],[127.6378,36.8487],[127.642,36.8557],[127.6565,36.8607],[127.6778,36.851],[127.6865,36.8599],[127.6859,36.8685],[127.694,36.8801],[127.7077,36.8759],[127.7086,36.8784],[127.7352,36.8799],[127.7454,36.878],[127.7505,36.8733],[127.7877,36.8806],[127.7871,36.8945],[127.7924,36.8994],[127.7849,36.9059],[127.7918,36.9068],[127.7914,36.9042],[127.7966,36.903],[127.7983,36.9086],[127.7944,36.9162],[127.7842,36.9176],[127.7814,36.9242],[127.7884,36.9268],[127.788,36.9372],[127.7927,36.9395],[127.7949,36.9459],[127.8066,36.946],[127.8077,36.9411],[127.8216,36.9434]]]]}},{"type":"Feature","properties":{"code":"33370","name":"음성군"},"geometry":{"type":"MultiPolygon","coordinates":[[[[127.6868,37.1351],[127.6955,37.1404],[127.7064,37.1371],[127.712,37.1278],[127.7205,37.1231],[127.7229,37.1159],[127.7205,37.1107],[127.7019,37.103],[127.6982,37.0994],[127.6992,37.0916],[127.6922,37.0813],[127.6835,37.0781],[127.6912,37.0531],[127.672,37.0402],[127.672,37.0347],[127.6643,37.0306],[127.6646,37.0232],[127.6563,37.0159],[127.6655,37.0031],[127.6551,37.0014],[127.6511,36.9828],[127.6618,36.9774],[127.6671,36.9787],[127.6691,36.9827],[127.6638,36.9838],[127.6684,36.9876],[127.6863,36.9859],[127.6866,36.9815],[127.7021,36.9727],[127.7059,36.9658],[127.7163,36.9584],[127.7269,36.9591],[127.7393,36.9524],[127.7529,36.9579],[127.7626,36.9484],[127.7639,36.9408],[127.7741,36.9338],[127.788,36.9372],[127.7888,36.9275],[127.7814,36.9242],[127.7867,36.9158],[127.7944,36.9162],[127.7983,36.9083],[127.7966,36.903],[127.7914,36.9042],[127.7918,36.9068],[127.7849,36.9059],[127.7924,36.8994],[127.7871,36.8945],[127.7877,36.8806],[127.7505,36.8733],[127.7454,36.878],[127.7352,36.8799],[127.7086,36.8784],[127.7077,36.8759],[127.694,36.8801],[127.6859,36.8685],[127.6865,36.8599],[127.6778,36.851],[127.6614,36.8598],[127.6524,36.8609],[127.642,36.8557],[127.6375,36.8469],[127.6264,36.8425],[127.6238,36.8356],[127.6156,36.8339],[127.6115,36.8478],[127.6166,36.8587],[127.5965,36.8516],[127.5919,36.8574],[127.5836,36.8601],[127.5785,36.8577],[127.5783,36.8534],[127.5766,36.8647],[127.5851,36.8702],[127.585,36.8746],[127.5778,36.8798],[127.5723,36.8774],[127.5686,36.8857],[127.5627,36.8822],[127.5557,36.8862],[127.5519,36.8939],[127.5531,36.8989],[127.5463,36.901],[127.5338,36.912],[127.5275,36.911],[127.5114,36.9306],[127.4999,36.9332],[127.4928,36.9388],[127.4861,36.9387],[127.4812,36.9337],[127.4706,36.9362],[127.4665,36.9392],[127.4635,36.9484],[127.4473,36.9499],[127.4464,36.9614],[127.4484,36.9632],[127.4549,36.9607],[127.4573,36.9639],[127.4539,36.9741],[127.4493,36.977],[127.4481,36.9899],[127.4505,36.9951],[127.4471,37.012],[127.4509,37.0193],[127.4584,37.0205],[127.4597,37.0251],[127.4569,37.03],[127.4597,37.0381],[127.4569,37.0422],[127.4684,37.0504],[127.4682,37.0535],[127.4862,37.0549],[127.4998,37.0476],[127.5089,37.0494],[127.5116,37.0556],[127.5183,37.0584],[127.5411,37.0507],[127.5568,37.0412],[127.5695,37.0482],[127.565,37.0606],[127.578,37.0753],[127.5963,37.0737],[127.6047,37.0688],[127.6049,37.0762],[127.5995,37.0858],[127.5951,37.088],[127.6119,37.0873],[127.6345,37.0998],[127.6362,37.1139],[127.6331,37.1202],[127.6378,37.1412],[127.6275,37.1517],[127.6283,37.1553],[127.6468,37.1511],[127.6621,37.1392],[127.6868,37.1351]]]]}},{"type":"Feature","properties":{"code":"33380","name":"단양군"},"geometry":{"type":"MultiPolygon","coordinates":[[[[128.4009,37.1469],[128.4037,37.1396],[128.396,37.1286],[128.4058,37.127],[128.4185,37.1198],[128.4236,37.1122],[128.4247,37.1025],[128.4301,37.1037],[128.4352,37.1113],[128.4453,37.1075],[128.4512,37.1121],[128.4778,37.1102],[128.4911,37.1239],[128.4966,37.1258],[128.51,37.114],[128.5142,37.1037],[128.5312,37.1],[128.5381,37.0896],[128.5538,37.0866],[128.5617,37.0902],[128.5744,37.0813],[128.5918,37.0782],[128.6016,37.0831],[128.601,37.0789],[128.6064,37.0767],[128.6226,37.0874],[128.6283,37.0813],[128.6282,37.0752],[128.6521,37.0654],[128.6379,37.0516],[128.6329,37.0405],[128.6228,37.0453],[128.6217,37.0491],[128.6084,37.0528],[128.6068,37.0434],[128.5835,37.0437],[128.5777,37.0356],[128.5716,37.0357],[128.5656,37.0315],[128.5669,37.026],[128.5729,37.0208],[128.5691,37.0128],[128.5568,37.0057],[128.5547,36.9983],[128.543,36.9921],[128.5155,36.9868],[128.5146,36.9776],[128.5064,36.9732],[128.5067,36.9701],[128.4864,36.9622],[128.4849,36.9575],[128.477,36.9574],[128.4672,36.9515],[128.4628,36.9474],[128.4604,36.934],[128.4417,36.9274],[128.4447,36.9137],[128.4382,36.8998],[128.4268,36.8892],[128.4282,36.8848],[128.424,36.8765],[128.4364,36.8737],[128.4491,36.8629],[128.447,36.8437],[128.4341,36.8341],[128.432,36.8241],[128.4211,36.8118],[128.3833,36.8138],[128.3684,36.8021],[128.3641,36.8022],[128.3532,36.8124],[128.3345,36.817],[128.3165,36.8167],[128.3157,36.8228],[128.2956,36.8353],[128.2866,36.845],[128.2825,36.856],[128.2418,36.8723],[128.2439,36.88],[128.2509,36.8847],[128.2438,36.891],[128.2462,36.905],[128.2367,36.9166],[128.2363,36.9336],[128.247,36.9379],[128.2448,36.9419],[128.2474,36.9446],[128.2529,36.9427],[128.2635,36.9495],[128.2645,36.9523],[128.2597,36.9548],[128.2657,36.9611],[128.257,36.9847],[128.2585,36.9933],[128.2539,36.9975],[128.2576,37.0002],[128.2561,37.0055],[128.2399,37.0241],[128.228,37.0245],[128.2251,37.0272],[128.2244,37.0343],[128.2171,37.0374],[128.2211,37.0496],[128.2179,37.0543],[128.2254,37.0623],[128.2368,37.0654],[128.2394,37.0736],[128.2468,37.0769],[128.2492,37.0751],[128.2552,37.082],[128.2695,37.0876],[128.2623,37.0903],[128.2564,37.1015],[128.2669,37.1086],[128.2708,37.1159],[128.2776,37.1158],[128.2778,37.1108],[128.294,37.0981],[128.3038,37.1003],[128.309,37.1119],[128.3042,37.1173],[128.3035,37.1289],[128.2983,37.1342],[128.3064,37.1375],[128.3095,37.1449],[128.3247,37.1481],[128.3275,37.1529],[128.3307,37.1503],[128.3385,37.1581],[128.3515,37.1574],[128.3597,37.1502],[128.3644,37.1564],[128.3765,37.1524],[128.3841,37.158],[128.4009,37.1469]]]]}},{"type":"Feature","properties":{"code":"33390","name":"증평군"},"geometry":{"type":"MultiPolygon","coordinates":[[[[127.5919,36.8574],[127.5965,36.8516],[127.6166,36.8587],[127.6115,36.8478],[127.6156,36.8339],[127.6238,36.8356],[127.6264,36.8425],[127.6352,36.8472],[127.6392,36.8436],[127.6308,36.8302],[127.6298,36.8187],[127.635,36.8128],[127.634,36.8073],[127.6419,36.8007],[127.6361,36.7943],[127.6274,36.7932],[127.6209,36.7879],[127.6205,36.7794],[127.6275,36.7764],[127.6242,36.7605],[127.6355,36.7521],[127.6389,36.7325],[127.6543,36.7344],[127.6645,36.7299],[127.6614,36.7223],[127.6627,36.715],[127.6512,36.702],[127.6424,36.7026],[127.6352,36.7088],[127.623,36.7046],[127.6179,36.7074],[127.6189,36.7163],[127.6096,36.7302],[127.6106,36.7353],[127.6061,36.7434],[127.5908,36.7476],[127.5872,36.7554],[127.5889,36.7606],[127.5676,36.7738],[127.5553,36.7991],[127.5481,36.7984],[127.5373,36.8086],[127.5557,36.8174],[127.5737,36.8214],[127.5792,36.8282],[127.5692,36.83],[127.5687,36.8385],[127.5727,36.8413],[127.5734,36.8472],[127.5715,36.8501],[127.5782,36.8518],[127.5785,36.8577],[127.5836,36.86],[127.5919,36.8574]]]]}}]}