{"type":"FeatureCollection","features":[{"type":"Feature","properties":{"code":"34011","name":"천안시 동남구"},"geometry":{"type":"MultiPolygon","coordinates":[[[[127.3078,36.8854],[127.3093,36.8817],[127.3113,36.8701],[127.3058,36.8634],[127.3073,36.8597],[127.3365,36.8546],[127.3345,36.8307],[127.3544,36.8295],[127.3581,36.8225],[127.3666,36.817],[127.3822,36.8138],[127.4008,36.7991],[127.4017,36.7951],[127.3967,36.7903],[127.3955,36.7825],[127.4033,36.7751],[127.413,36.7732],[127.4197,36.7577],[127.4122,36.7573],[127.4044,36.746],[127.396,36.7479],[127.3887,36.7535],[127.3864,36.7593],[127.3723,36.7579],[127.3685,36.7613],[127.3588,36.7606],[127.3523,36.7541],[127.3355,36.7526],[127.3334,36.7467],[127.3425,36.7338],[127.3376,36.7293],[127.3283,36.7346],[127.318,36.7249],[127.3105,36.7243],[127.3061,36.7083],[127.3084,36.7048],[127.2846,36.6905],[127.2735,36.6953],[127.2652,36.6922],[127.2512,36.697],[127.2457,36.6959],[127.2364,36.7075],[127.2251,36.7104],[127.2236,36.7157],[127.2079,36.719],[127.2031,36.7261],[127.1741,36.7286],[127.1686,36.7331],[127.1596,36.7328],[127.1575,36.7275],[127.1499,36.726],[127.1482,36.7199],[127.1277,36.7086],[127.1361,36.705],[127.1417,36.69],[127.1562,36.6908],[127.1571,36.6957],[127.1614,36.6902],[127.1641,36.6785],[127.1549,36.6643],[127.1606,36.6561],[127.1547,36.6529],[127.1532,36.6452],[127.158,36.6358],[127.1571,36.6272],[127.1605,36.6245],[127.155,36.6242],[127.1504,36.6197],[127.1484,36.6284],[127.1406,36.6367],[127.1405,36.6429],[127.13,36.6465],[127.1272,36.6536],[127.1103,36.6586],[127.0939,36.6541],[127.0886,36.6422],[127.0807,36.6413],[127.0587,36.6454],[127.0541,36.6512],[127.0432,36.6516],[127.037,36.6553],[127.0253,36.6561],[127.0204,36.6501],[127.0084,36.6573],[127.0154,36.6665],[127.0157,36.6724],[127.0295,36.6895],[127.0389,36.6931],[127.059,36.7083],[127.0784,36.7102],[127.08,36.7183],[127.0847,36.7224],[127.0805,36.7304],[127.0883,36.7451],[127.0865,36.7493],[127.0938,36.75],[127.0984,36.7556],[127.0921,36.7611],[127.1054,36.7585],[127.118,36.7636],[127.1191,36.7764],[127.1128,36.7848],[127.1203,36.7905],[127.1248,36.789],[127.1294,36.7954],[127.1354,36.7958],[127.1346,36.8003],[127.1314,36.7999],[127.1332,36.8098],[127.1262,36.8122],[127.1242,36.8173],[127.1311,36.8189],[127.1432,36.8029],[127.1457,36.8036],[127.1503,36.8246],[127.1711,36.8459],[127.177,36.8413],[127.1808,36.8422],[127.1983,36.8533],[127.2061,36.8526],[127.2124,36.8472],[127.2229,36.8488],[127.2288,36.8537],[127.2333,36.8669],[127.2477,36.871],[127.252,36.8788],[127.2595,36.878],[127.2662,36.8831],[127.2714,36.8825],[127.2727,36.8873],[127.2779,36.8902],[127.2814,36.8878],[127.2915,36.8922],[127.3078,36.8854]]]]}},{"type":"Feature","properties":{"code":"34012","name":"천안시 서북구"},"geometry":{"type":"MultiPolygon","coordinates":[[[[127.1457,36.8036],[127.1432,36.8029],[127.1311,36.8189],[127.1242,36.8173],[127.1262,36.8122],[127.1332,36.8098],[127.1314,36.7999],[127.1346,36.8003],[127.1354,36.7958],[127.1294,36.7954],[127.1248,36.789],[127.1203,36.7905],[127.1133,36.7849],[127.111,36.7973],[127.1037,36.7989],[127.1002,36.7926],[127.0956,36.7959],[127.0985,36.8105],[127.0966,36.815],[127.1015,36.8219],[127.1009,36.8316],[127.1056,36.8365],[127.0982,36.8398],[127.1105,36.855],[127.1068,36.8603],[127.0874,36.8619],[127.0863,36.8758],[127.091,36.8823],[127.0882,36.89],[127.093,36.8936],[127.0847,36.9035],[127.0928,36.9087],[127.0939,36.9131],[127.0741,36.9386],[127.0862,36.9477],[127.0958,36.9424],[127.097,36.948],[127.103,36.9532],[127.0964,36.9557],[127.0965,36.9593],[127.1115,36.9713],[127.1297,36.9664],[127.1443,36.9711],[127.1592,36.9698],[127.1554,36.9644],[127.1782,36.9625],[127.1805,36.9567],[127.2036,36.9505],[127.2116,36.9378],[127.2105,36.9305],[127.2203,36.9304],[127.244,36.9176],[127.2531,36.9224],[127.2586,36.9159],[127.2735,36.9115],[127.2788,36.9062],[127.2792,36.9005],[127.2906,36.8922],[127.2845,36.8885],[127.2752,36.8891],[127.2714,36.8825],[127.2662,36.8831],[127.2595,36.878],[127.2524,36.8789],[127.2477,36.871],[127.2333,36.8669],[127.2288,36.8537],[127.2229,36.8488],[127.2124,36.8472],[127.2061,36.8526],[127.1983,36.8533],[127.1808,36.8422],[127.177,36.8413],[127.1711,36.8459],[127.1503,36.8246],[127.1457,36.8036]]]]}},{"type":"Feature","properties":{"code":"34020","name":"공주시"},"geometry":{"type":"MultiPolygon","coordinates":[[[[127.0027,36.6513],[127.0094,36.6563],[127.0204,36.6501],[127.0253,36.6561],[127.037,36.6553],[127.0432,36.6516],[127.0541,36.6512],[127.0587,36.6454],[127.085,36.6415],[127.0896,36.6433],[127.0939,36.6541],[127.1088,36.6586],[127.1202,36.656],[127.1276,36.6534],[127.1311,36.6457],[127.1405,36.6429],[127.1406,36.6367],[127.1484,36.6284],[127.1501,36.619],[127.156,36.6151],[127.1559,36.606],[127.1661,36.6026],[127.1727,36.5955],[127.1817,36.5955],[127.1843,36.5912],[127.1914,36.5939],[127.1893,36.5868],[127.193,36.5808],[127.2004,36.5826],[127.2071,36.5793],[127.2031,36.5674],[127.1938,36.5648],[127.1868,36.5529],[127.1918,36.546],[127.185,36.5437],[127.1787,36.5454],[127.1742,36.5422],[127.173,36.5335],[127.1823,36.5214],[127.17,36.509],[127.1776,36.5024],[127.1732,36.4974],[127.1771,36.4926],[127.1854,36.4932],[127.1947,36.4896],[127.1948,36.4844],[127.1905,36.4795],[127.192,36.4747],[127.1979,36.466],[127.2033,36.465],[127.2047,36.4593],[127.1984,36.4522],[127.2018,36.4463],[127.1989,36.4399],[127.2177,36.4337],[127.2269,36.4212],[127.2423,36.4186],[127.2508,36.4068],[127.2591,36.4091],[127.2586,36.4142],[127.2626,36.4167],[127.2821,36.415],[127.2781,36.3867],[127.281,36.3749],[127.2777,36.3653],[127.2706,36.3609],[127.2791,36.3448],[127.2657,36.338],[127.2681,36.3314],[127.2661,36.3285],[127.2559,36.329],[127.2538,36.3368],[127.2421,36.3387],[127.2405,36.3468],[127.2372,36.3484],[127.2122,36.3495],[127.204,36.346],[127.2059,36.3432],[127.1964,36.3347],[127.1854,36.3299],[127.1793,36.3306],[127.165,36.3225],[127.1586,36.3229],[127.1584,36.3165],[127.143,36.3066],[127.1298,36.3212],[127.1208,36.3184],[127.1068,36.3403],[127.0951,36.3243],[127.0843,36.3165],[127.0778,36.2963],[127.0673,36.2959],[127.0659,36.2771],[127.0392,36.2836],[127.0277,36.2818],[127.0164,36.2912],[127.0146,36.2968],[127.0004,36.2966],[126.9914,36.3009],[126.9865,36.3117],[126.996,36.3275],[126.9894,36.3309],[126.9902,36.3358],[126.9773,36.3351],[126.9895,36.3452],[126.9875,36.3587],[126.992,36.3752],[127.0258,36.3971],[127.0237,36.3989],[127.0273,36.4061],[127.0153,36.4183],[127.0239,36.4242],[127.0178,36.4346],[127.0202,36.4385],[127.007,36.4384],[127.0089,36.4467],[127.0066,36.452],[127.002,36.4516],[127.0031,36.4559],[126.995,36.4613],[126.9749,36.4667],[126.9604,36.4643],[126.9563,36.4687],[126.9306,36.4545],[126.9155,36.4557],[126.9136,36.4652],[126.905,36.4682],[126.8994,36.4768],[126.8935,36.4792],[126.894,36.5036],[126.8836,36.5126],[126.8931,36.5274],[126.8884,36.5338],[126.8897,36.5414],[126.8999,36.5497],[126.8992,36.5601],[126.9103,36.5669],[126.9114,36.5722],[126.9205,36.5775],[126.9248,36.5877],[126.931,36.5917],[126.9274,36.601],[126.932,36.6033],[126.9322,36.6131],[126.9375,36.6158],[126.9358,36.6231],[126.9454,36.6281],[126.9435,36.6329],[126.9484,36.641],[126.9547,36.6447],[126.9545,36.6513],[126.9591,36.6569],[126.9574,36.672],[126.9677,36.6792],[126.9786,36.6609],[126.9781,36.6536],[126.9895,36.6487],[127.0027,36.6513]]]]}},{"type":"Feature","properties":{"code":"34030","name":"보령시"},"geometry":{"type":"MultiPolygon","coordinates":[[[[126.0367,36.2149],[126.0387,36.2112],[126.0332,36.2109],[126.0228,36.2247],[126.0255,36.2265],[126.0344,36.2186],[126.0317,36.2155],[126.0367,36.2149]]],[[[126.0964,36.2261],[126.078,36.2261],[126.0772,36.2207],[126.0673,36.2232],[126.0708,36.2285],[126.0747,36.2285],[126.0749,36.2344],[126.0848,36.2308],[126.0898,36.2378],[126.0964,36.2261]]],[[[125.9705,36.2361],[125.9661,36.2271],[125.9579,36.2299],[125.9583,36.2351],[125.9662,36.2395],[125.9705,36.2361]]],[[[126.2663,36.2652],[126.2607,36.2669],[126.2608,36.2762],[126.2718,36.2793],[126.2663,36.2652]]],[[[126.2072,36.2867],[126.2075,36.2842],[126.1932,36.2824],[126.1976,36.2867],[126.2072,36.2867]]],[[[126.2701,36.3028],[126.266,36.2977],[126.2676,36.2929],[126.259,36.2864],[126.2542,36.2874],[126.2505,36.2949],[126.257,36.2951],[126.2591,36.2981],[126.2554,36.301],[126.2588,36.304],[126.2701,36.3028]]],[[[126.3566,36.3095],[126.3469,36.309],[126.3433,36.3142],[126.3489,36.3119],[126.3509,36.3129],[126.348,36.3152],[126.3541,36.3148],[126.3566,36.3095]]],[[[126.3616,36.3517],[126.3614,36.3411],[126.3708,36.3347],[126.3613,36.331],[126.361,36.3258],[126.3495,36.331],[126.3408,36.3281],[126.3429,36.3326],[126.3407,36.3378],[126.3488,36.3414],[126.3522,36.3549],[126.3616,36.3517]]],[[[126.4434,36.3557],[126.4394,36.36],[126.4085,36.3642],[126.3984,36.3683],[126.3869,36.3663],[126.3841,36.3679],[126.384,36.3763],[126.3873,36.3801],[126.397,36.3806],[126.3982,36.377],[126.4059,36.3767],[126.4145,36.371],[126.4178,36.3725],[126.4126,36.3792],[126.4136,36.382],[126.4179,36.3832],[126.4207,36.3799],[126.4207,36.3849],[126.4352,36.3845],[126.4313,36.3774],[126.4381,36.3758],[126.4388,36.3722],[126.4314,36.3681],[126.4525,36.3606],[126.4597,36.3621],[126.4581,36.3546],[126.4434,36.3557]]],[[[126.4404,36.379],[126.4392,36.3872],[126.4451,36.3902],[126.4485,36.383],[126.4553,36.3797],[126.4404,36.379]]],[[[126.361,36.3861],[126.3652,36.3941],[126.3709,36.3899],[126.3639,36.3783],[126.361,36.3861]]],[[[126.3406,36.3957],[126.338,36.3855],[126.3335,36.3872],[126.3357,36.3989],[126.342,36.3994],[126.3489,36.4056],[126.3556,36.3996],[126.3406,36.3957]]],[[[126.524,36.5196],[126.5405,36.504],[126.5597,36.505],[126.565,36.5084],[126.5661,36.503],[126.5717,36.5019],[126.59,36.5089],[126.6019,36.4885],[126.5986,36.4812],[126.6006,36.4777],[126.5894,36.4752],[126.5738,36.4835],[126.5712,36.4839],[126.5686,36.479],[126.5667,36.4843],[126.5614,36.484],[126.5611,36.4781],[126.5454,36.4723],[126.5341,36.4596],[126.5352,36.4568],[126.527,36.4564],[126.5262,36.4473],[126.5332,36.4404],[126.5388,36.4435],[126.5386,36.4492],[126.5448,36.4486],[126.5512,36.4529],[126.5504,36.4658],[126.5562,36.4676],[126.5578,36.4627],[126.5527,36.4527],[126.5655,36.4521],[126.5695,36.4646],[126.5684,36.4719],[126.5754,36.4753],[126.5791,36.4717],[126.5917,36.4692],[126.6028,36.4733],[126.6147,36.4848],[126.6228,36.4778],[126.6317,36.4762],[126.6342,36.4666],[126.6529,36.4674],[126.6584,36.4597],[126.6719,36.4616],[126.6749,36.46],[126.6768,36.4508],[126.6879,36.4476],[126.684,36.4362],[126.6916,36.4286],[126.6889,36.426],[126.6913,36.4105],[126.7085,36.4021],[126.7092,36.397],[126.7157,36.3937],[126.7114,36.3882],[126.7248,36.3749],[126.7245,36.3712],[126.705,36.3665],[126.7026,36.3616],[126.7041,36.3506],[126.6998,36.3486],[126.6976,36.3365],[126.6785,36.3316],[126.6787,36.3278],[126.6842,36.3223],[126.6801,36.3156],[126.6826,36.3083],[126.6944,36.2985],[126.6873,36.2911],[126.6967,36.2834],[126.6923,36.2805],[126.6966,36.2755],[126.6942,36.2689],[126.7135,36.2615],[126.7201,36.2552],[126.7276,36.2575],[126.7387,36.254],[126.7369,36.2414],[126.7323,36.2372],[126.7182,36.2346],[126.7132,36.2144],[126.6988,36.2036],[126.6921,36.1901],[126.6855,36.189],[126.6808,36.1824],[126.6717,36.1779],[126.6669,36.176],[126.6554,36.1812],[126.6143,36.1723],[126.5801,36.1776],[126.5651,36.1921],[126.5251,36.1875],[126.5378,36.2015],[126.5305,36.2194],[126.529,36.2383],[126.5404,36.2489],[126.5371,36.2516],[126.5401,36.2608],[126.5463,36.261],[126.5481,36.2657],[126.5405,36.2779],[126.5383,36.2751],[126.5347,36.2766],[126.5374,36.2824],[126.5282,36.2971],[126.5223,36.3003],[126.5169,36.299],[126.5151,36.3078],[126.5034,36.3247],[126.5043,36.3298],[126.5151,36.3275],[126.5162,36.3323],[126.5198,36.3353],[126.5433,36.3389],[126.5505,36.3469],[126.5601,36.3508],[126.5598,36.3532],[126.5458,36.355],[126.5097,36.3811],[126.5011,36.3799],[126.5015,36.3829],[126.5076,36.3836],[126.508,36.3865],[126.4859,36.3823],[126.4798,36.3848],[126.4894,36.415],[126.5002,36.4218],[126.4952,36.4257],[126.5059,36.4276],[126.5171,36.4384],[126.5316,36.441],[126.5256,36.4458],[126.4981,36.4327],[126.4964,36.4386],[126.5002,36.4449],[126.4867,36.4548],[126.489,36.4602],[126.4855,36.4647],[126.49,36.4684],[126.4811,36.4776],[126.4793,36.4916],[126.483,36.5141],[126.485,36.509],[126.4914,36.5084],[126.4994,36.5229],[126.5055,36.524],[126.5101,36.5201],[126.524,36.5196]],[[126.5163,36.3322],[126.5283,36.3355],[126.5209,36.3354],[126.5163,36.3322]]]]}},{"type":"Feature","properties":{"code":"34040","name":"아산시"},"geometry":{"type":"MultiPolygon","coordinates":[[[[127.0941,36.9118],[127.0847,36.9035],[127.093,36.8936],[127.0882,36.89],[127.091,36.8823],[127.0863,36.8758],[127.0874,36.8619],[127.1068,36.8603],[127.1105,36.855],[127.0982,36.8398],[127.1056,36.8365],[127.1009,36.8316],[127.1015,36.8219],[127.0966,36.815],[127.0985,36.8105],[127.0956,36.7959],[127.1002,36.7926],[127.1037,36.7989],[127.111,36.7973],[127.113,36.7825],[127.1191,36.7764],[127.1193,36.7662],[127.1086,36.759],[127.0921,36.7611],[127.0984,36.7556],[127.0938,36.75],[127.0865,36.7493],[127.0883,36.7451],[127.0805,36.7304],[127.0847,36.7224],[127.08,36.7183],[127.0784,36.7102],[127.059,36.7083],[127.0389,36.6931],[127.0295,36.6895],[127.0157,36.6724],[127.0154,36.6665],[127.0062,36.6529],[126.9919,36.6486],[126.9781,36.6536],[126.9786,36.6609],[126.9677,36.6792],[126.9678,36.6866],[126.9723,36.6909],[126.9695,36.694],[126.9547,36.6989],[126.95,36.7038],[126.9412,36.7015],[126.9284,36.7045],[126.922,36.7008],[126.9133,36.7039],[126.9022,36.7023],[126.9045,36.7094],[126.8972,36.7236],[126.8921,36.7245],[126.8866,36.7314],[126.875,36.7282],[126.8668,36.7294],[126.8577,36.7428],[126.859,36.747],[126.85,36.7491],[126.8472,36.7533],[126.839,36.753],[126.838,36.7606],[126.8309,36.7621],[126.8291,36.7732],[126.8354,36.7864],[126.8565,36.7894],[126.8591,36.794],[126.8483,36.8169],[126.8369,36.8312],[126.8365,36.8423],[126.8449,36.8843],[126.8628,36.88],[126.8827,36.8868],[126.9059,36.8887],[126.9113,36.8929],[126.9096,36.9016],[126.9167,36.9062],[126.9396,36.9173],[126.9737,36.9259],[126.9952,36.9354],[127.0156,36.9354],[127.031,36.9281],[127.0677,36.9422],[127.0781,36.9339],[127.0941,36.9118]]]]}},{"type":"Feature","properties":{"code":"34050","name":"서산시"},"geometry":{"type":"MultiPolygon","coordinates":[[[[126.3389,36.913],[126.3375,36.9099],[126.3459,36.9048],[126.3452,36.9014],[126.3335,36.904],[126.3317,36.911],[126.3257,36.9144],[126.3389,36.913]]],[[[126.3776,36.929],[126.3885,36.924],[126.3865,36.9195],[126.3733,36.9172],[126.3711,36.9274],[126.3776,36.929]]],[[[126.3962,36.8931],[126.4055,36.8913],[126.41,36.8971],[126.407,36.9017],[126.4135,36.8936],[126.4324,36.9011],[126.4269,36.9068],[126.4107,36.9082],[126.4121,36.914],[126.4047,36.9192],[126.4053,36.9216],[126.4135,36.9196],[126.4178,36.9234],[126.4206,36.9314],[126.4189,36.9374],[126.4162,36.9313],[126.4086,36.936],[126.405,36.9324],[126.396,36.9355],[126.389,36.9268],[126.3902,36.93],[126.3823,36.9365],[126.3803,36.9453],[126.3682,36.947],[126.3594,36.9389],[126.3578,36.9446],[126.362,36.9497],[126.3586,36.953],[126.351,36.9525],[126.3502,36.9614],[126.3331,36.9611],[126.3368,36.9684],[126.3347,36.9734],[126.3374,36.9683],[126.3435,36.9667],[126.3635,36.9683],[126.3704,36.9603],[126.3761,36.9681],[126.3865,36.9675],[126.3877,36.9721],[126.376,36.974],[126.3798,36.9801],[126.3746,36.9826],[126.3652,36.979],[126.3622,36.9829],[126.3504,36.981],[126.3308,36.9853],[126.3274,36.9987],[126.3325,36.9967],[126.3521,37.0046],[126.359,37.0122],[126.3615,37.0065],[126.3834,37.0122],[126.4118,37.0143],[126.4177,37.0122],[126.4175,37.0173],[126.4208,37.0198],[126.4183,37.015],[126.4311,37.0137],[126.4376,37.0105],[126.4365,37.0077],[126.4521,37.0068],[126.4544,36.999],[126.4633,37.0034],[126.4808,36.9785],[126.4902,36.943],[126.4743,36.8948],[126.4741,36.8809],[126.4984,36.8709],[126.5093,36.8706],[126.51,36.8576],[126.5153,36.8512],[126.5103,36.8469],[126.5154,36.8437],[126.5182,36.8363],[126.5235,36.8346],[126.5261,36.8267],[126.5537,36.8244],[126.5666,36.8289],[126.5749,36.8253],[126.5916,36.8381],[126.5951,36.8313],[126.5989,36.8302],[126.5979,36.8204],[126.6008,36.8172],[126.6174,36.8122],[126.6265,36.8144],[126.6319,36.8123],[126.6314,36.807],[126.6359,36.8049],[126.6533,36.7767],[126.6475,36.7611],[126.6528,36.7566],[126.6532,36.7505],[126.6332,36.7579],[126.6332,36.7406],[126.6249,36.7336],[126.6088,36.733],[126.6023,36.72],[126.6096,36.7043],[126.6002,36.6969],[126.6003,36.6904],[126.5963,36.6854],[126.5991,36.6787],[126.595,36.6682],[126.589,36.6635],[126.5814,36.6643],[126.5796,36.6549],[126.5708,36.6486],[126.5653,36.6495],[126.5601,36.6436],[126.5456,36.6402],[126.5343,36.6459],[126.5184,36.6382],[126.516,36.6323],[126.5114,36.6307],[126.5057,36.6349],[126.4973,36.6313],[126.453,36.6258],[126.4527,36.6154],[126.4407,36.6003],[126.4234,36.6061],[126.411,36.6035],[126.4104,36.6063],[126.4161,36.6087],[126.4142,36.615],[126.3859,36.6194],[126.3757,36.6239],[126.3732,36.6202],[126.3709,36.6226],[126.3748,36.6249],[126.3729,36.626],[126.3602,36.6249],[126.3473,36.6802],[126.3462,36.7307],[126.3438,36.741],[126.339,36.7399],[126.337,36.7429],[126.3434,36.7466],[126.3475,36.7562],[126.3506,36.7675],[126.3483,36.7783],[126.3551,36.7903],[126.335,36.815],[126.3375,36.8179],[126.3259,36.8302],[126.3266,36.8364],[126.3212,36.8378],[126.3178,36.8431],[126.3247,36.8478],[126.3285,36.8613],[126.3327,36.8635],[126.3374,36.8605],[126.3467,36.8612],[126.3432,36.8463],[126.3482,36.8442],[126.3543,36.8329],[126.3651,36.8295],[126.3659,36.8341],[126.3594,36.8415],[126.3583,36.8491],[126.3704,36.8576],[126.3719,36.868],[126.3645,36.8765],[126.3784,36.8822],[126.3977,36.8806],[126.3997,36.8839],[126.3952,36.8875],[126.3962,36.8931]]]]}},{"type":"Feature","properties":{"code":"34060","name":"논산시"},"geometry":{"type":"MultiPolygon","coordinates":[[[[127.1208,36.3184],[127.1298,36.3212],[127.143,36.3066],[127.1584,36.3165],[127.1586,36.3229],[127.165,36.3225],[127.1793,36.3306],[127.1854,36.3299],[127.1964,36.3347],[127.2026,36.3234],[127.2055,36.3034],[127.1969,36.2765],[127.1997,36.2703],[127.1972,36.2621],[127.2016,36.2511],[127.2213,36.2622],[127.2373,36.2548],[127.239,36.2359],[127.2454,36.2322],[127.2619,36.2363],[127.2659,36.2421],[127.2735,36.2452],[127.2814,36.2456],[127.2818,36.2358],[127.2923,36.2298],[127.2938,36.2231],[127.3026,36.2219],[127.3036,36.2297],[127.3153,36.2213],[127.3215,36.2134],[127.323,36.2037],[127.3336,36.2007],[127.3298,36.1942],[127.3319,36.1846],[127.327,36.1753],[127.3204,36.1711],[127.3185,36.1618],[127.3184,36.1541],[127.3232,36.1458],[127.3228,36.127],[127.3185,36.1197],[127.3017,36.1252],[127.2971,36.1227],[127.2939,36.1131],[127.2734,36.1073],[127.2521,36.1131],[127.2456,36.101],[127.2466,36.0949],[127.2547,36.0874],[127.2481,36.083],[127.2318,36.0966],[127.2259,36.0991],[127.2148,36.0976],[127.2117,36.1007],[127.2049,36.1002],[127.2008,36.0916],[127.2022,36.0885],[127.198,36.0858],[127.1824,36.0947],[127.1688,36.084],[127.1574,36.0837],[127.1528,36.0856],[127.1512,36.09],[127.1458,36.0903],[127.1352,36.0842],[127.1321,36.0669],[127.1227,36.0636],[127.102,36.0758],[127.0904,36.0718],[127.0749,36.0848],[127.0611,36.089],[127.061,36.1055],[127.057,36.1151],[127.0611,36.1172],[127.063,36.1252],[127.0561,36.1268],[127.0556,36.1301],[127.0453,36.1353],[127.0448,36.1461],[127.0425,36.1465],[127.0397,36.1383],[127.0241,36.1365],[127.0204,36.1382],[127.0157,36.1487],[127.0113,36.1459],[127.0067,36.1474],[127.0055,36.1515],[127.0003,36.1514],[126.9976,36.1588],[127.0027,36.1689],[126.9891,36.1826],[126.9867,36.1914],[126.9893,36.1933],[126.9842,36.202],[126.9874,36.2027],[126.984,36.2078],[127.001,36.2161],[127.0043,36.2158],[127.0054,36.2101],[127.0146,36.2116],[127.0242,36.2192],[127.0305,36.2343],[127.0402,36.2421],[127.04,36.2466],[127.0643,36.256],[127.0703,36.2705],[127.0658,36.2775],[127.0673,36.2959],[127.0778,36.2963],[127.0843,36.3165],[127.0951,36.3243],[127.1068,36.3403],[127.1208,36.3184]]]]}},{"type":"Feature","properties":{"code":"34070","name":"계룡시"},"geometry":{"type":"MultiPolygon","coordinates":[[[[127.2405,36.3468],[127.2417,36.3391],[127.2538,36.3368],[127.2551,36.3298],[127.2598,36.3272],[127.2598,36.2957],[127.2541,36.2969],[127.2467,36.291],[127.2588,36.2761],[127.2812,36.2652],[127.2918,36.2647],[127.2823,36.258],[127.2794,36.2524],[127.2814,36.2456],[127.2669,36.2427],[127.2619,36.2363],[127.2467,36.2319],[127.239,36.2359],[127.2373,36.2548],[127.2213,36.2622],[127.2016,36.2511],[127.1972,36.2621],[127.1997,36.2703],[127.1969,36.2765],[127.2055,36.3034],[127.2026,36.3234],[127.1964,36.3347],[127.2059,36.3432],[127.204,36.346],[127.2175,36.3502],[127.2405,36.3468]]]]}},{"type":"Feature","properties":{"code":"34080","name":"당진시"},"geometry":{"type":"MultiPolygon","coordinates":[[[[126.8056,36.9415],[126.8062,36.9495],[126.8121,36.9445],[126.8096,36.9402],[126.8056,36.9415]]],[[[126.8411,36.953],[126.8291,36.9475],[126.8213,36.9586],[126.8242,36.9647],[126.8217,36.9685],[126.8338,36.9514],[126.8329,36.9494],[126.8411,36.953]]],[[[126.4534,37.0323],[126.4403,37.0377],[126.4532,37.0418],[126.4534,37.0323]]],[[[126.7005,36.9962],[126.7047,36.9994],[126.7416,36.985],[126.7453,36.9881],[126.7456,36.9883],[126.7469,36.9882],[126.7445,36.9866],[126.75,36.9871],[126.7835,36.9743],[126.7797,36.9668],[126.7944,36.9425],[126.7916,36.937],[126.8025,36.9246],[126.8064,36.9313],[126.8116,36.9262],[126.8173,36.8965],[126.8268,36.8885],[126.8449,36.8843],[126.8365,36.8423],[126.8369,36.8312],[126.8579,36.8006],[126.8565,36.7894],[126.8234,36.7838],[126.8169,36.7871],[126.8143,36.7852],[126.8249,36.7773],[126.8104,36.77],[126.8007,36.775],[126.8008,36.7663],[126.7942,36.7677],[126.7873,36.7637],[126.772,36.7493],[126.7591,36.7633],[126.7468,36.7675],[126.7435,36.778],[126.7375,36.7815],[126.7279,36.796],[126.7135,36.8035],[126.6963,36.8005],[126.6975,36.793],[126.694,36.7849],[126.6839,36.7821],[126.676,36.7839],[126.669,36.7806],[126.6625,36.7701],[126.6499,36.7796],[126.6438,36.7939],[126.6314,36.807],[126.6319,36.8123],[126.6265,36.8144],[126.6174,36.8122],[126.6008,36.8172],[126.5979,36.8204],[126.5989,36.8302],[126.5951,36.8313],[126.5918,36.8381],[126.5749,36.8253],[126.5666,36.8289],[126.5537,36.8244],[126.5261,36.8267],[126.5235,36.8346],[126.5182,36.8363],[126.5154,36.8437],[126.5103,36.8469],[126.5153,36.8512],[126.51,36.8576],[126.5093,36.8706],[126.4984,36.8709],[126.4741,36.8809],[126.4743,36.8948],[126.4902,36.943],[126.4808,36.9785],[126.4633,37.0034],[126.4704,37.0083],[126.4602,37.0201],[126.4711,37.0285],[126.4689,37.0306],[126.4891,37.0595],[126.4951,37.0597],[126.4983,37.0649],[126.5191,37.0594],[126.5275,37.0485],[126.5275,37.0436],[126.5419,37.0351],[126.5612,37.037],[126.5632,37.0361],[126.5582,37.0339],[126.5624,37.0289],[126.6315,37.0022],[126.6839,36.998],[126.6948,37.0004],[126.7005,36.9962]]],[[[126.4279,37.06],[126.4319,37.0578],[126.439,37.0577],[126.4409,37.0626],[126.4449,37.0607],[126.4499,37.0546],[126.4476,37.0518],[126.4498,37.0439],[126.4335,37.0435],[126.4279,37.0403],[126.4207,37.0418],[126.4223,37.0549],[126.4174,37.059],[126.4183,37.0631],[126.4283,37.0642],[126.4279,37.06]]]]}},{"type":"Feature","properties":{"code":"34310","name":"금산군"},"geometry":{"type":"MultiPolygon","coordinates":[[[[127.3903,36.2623],[127.3866,36.2525],[127.3909,36.2429],[127.3873,36.2342],[127.3993,36.2325],[127.4106,36.2176],[127.408,36.2129],[127.4294,36.2052],[127.4335,36.1986],[127.4411,36.1948],[127.4556,36.2008],[127.4542,36.207],[127.4603,36.2129],[127.4691,36.2148],[127.4673,36.2223],[127.4778,36.2267],[127.4779,36.2297],[127.4885,36.2325],[127.4926,36.238],[127.5181,36.2406],[127.5326,36.2509],[127.5368,36.2509],[127.5351,36.2473],[127.5379,36.2428],[127.5494,36.2393],[127.5453,36.2255],[127.5639,36.2277],[127.5703,36.2335],[127.5795,36.2328],[127.5978,36.2175],[127.5997,36.2051],[127.5925,36.1952],[127.5977,36.1849],[127.5931,36.1774],[127.6015,36.169],[127.6017,36.16],[127.5909,36.1448],[127.5894,36.1345],[127.599,36.1235],[127.6055,36.1182],[127.6101,36.1185],[127.6131,36.1118],[127.6191,36.1089],[127.6173,36.0936],[127.6321,36.0824],[127.6383,36.0679],[127.6239,36.0673],[127.6206,36.0642],[127.6191,36.0392],[127.6305,36.0422],[127.6327,36.0354],[127.6397,36.0323],[127.635,36.0295],[127.6284,36.032],[127.6229,36.0246],[127.6107,36.0253],[127.6164,36.0191],[127.6187,36.008],[127.6142,36.0008],[127.6106,36.001],[127.6066,36.0119],[127.6001,36.0119],[127.5898,36.026],[127.5826,36.0272],[127.5745,36.0233],[127.5663,36.0312],[127.5522,36.0328],[127.5469,36.0381],[127.5314,36.0408],[127.532,36.0346],[127.5369,36.0326],[127.5388,36.0259],[127.5361,36.0199],[127.5399,36.0117],[127.5321,36.008],[127.5359,35.9949],[127.5244,35.9851],[127.5067,35.9796],[127.4993,35.9874],[127.4944,35.9862],[127.4877,35.9783],[127.4759,35.9806],[127.4684,35.9881],[127.4639,35.9839],[127.4558,35.9838],[127.4486,35.9932],[127.445,36.0066],[127.4372,36.0093],[127.4346,36.0295],[127.4196,36.0227],[127.4134,36.0152],[127.4073,36.0142],[127.4012,36.0087],[127.392,36.0169],[127.3765,36.0229],[127.3782,36.0306],[127.3735,36.0345],[127.3736,36.0411],[127.3604,36.0545],[127.3606,36.0615],[127.3643,36.0658],[127.3595,36.0692],[127.3617,36.0762],[127.357,36.0815],[127.3601,36.0894],[127.3477,36.0983],[127.3549,36.1083],[127.3531,36.1136],[127.3444,36.1179],[127.3385,36.1305],[127.3228,36.1306],[127.3232,36.1459],[127.3184,36.1541],[127.3204,36.1711],[127.3476,36.1976],[127.3469,36.2041],[127.353,36.2118],[127.3642,36.2189],[127.3601,36.2267],[127.3651,36.2436],[127.3642,36.2516],[127.3596,36.2547],[127.3629,36.2691],[127.3776,36.2715],[127.3903,36.2623]]]]}},{"type":"Feature","properties":{"code":"34330","name":"부여군"},"geometry":{"type":"MultiPolygon","coordinates":[[[[126.8443,36.3746],[126.8345,36.3778],[126.832,36.3755],[126.8346,36.364],[126.8448,36.3638],[126.8414,36.3553],[126.8493,36.3547],[126.8536,36.3466],[126.8599,36.3433],[126.86,36.3365],[126.8555,36.3313],[126.8621,36.3215],[126.8847,36.3255],[126.8931,36.3225],[126.9001,36.3316],[126.8999,36.3257],[126.9122,36.3272],[126.9147,36.3204],[126.9268,36.3145],[126.9574,36.3281],[126.9603,36.3324],[126.9859,36.3375],[126.9902,36.3358],[126.9905,36.3296],[126.996,36.3275],[126.9865,36.3117],[126.9931,36.299],[127.0146,36.2968],[127.0164,36.2912],[127.0277,36.2818],[127.0392,36.2836],[127.0659,36.2771],[127.0703,36.2705],[127.0642,36.256],[127.04,36.2466],[127.0402,36.2421],[127.0305,36.2343],[127.0242,36.2192],[127.0146,36.2116],[127.0054,36.2101],[127.0043,36.2158],[127.001,36.2161],[126.984,36.2078],[126.9874,36.2027],[126.9842,36.202],[126.9893,36.1933],[126.9867,36.1914],[126.9891,36.1826],[127.0027,36.1689],[126.9976,36.1588],[126.9999,36.1524],[127.0055,36.1515],[127.0064,36.1501],[126.998,36.1468],[126.9808,36.148],[126.9566,36.1566],[126.9413,36.1521],[126.932,36.1427],[126.9197,36.1363],[126.9111,36.1366],[126.9008,36.1424],[126.8897,36.1396],[126.8822,36.1313],[126.8738,36.1104],[126.8711,36.0716],[126.8629,36.0747],[126.8584,36.073],[126.8532,36.0766],[126.8484,36.0745],[126.842,36.0799],[126.8366,36.0996],[126.8374,36.1049],[126.8406,36.1058],[126.8401,36.1169],[126.8248,36.1264],[126.8188,36.1325],[126.8196,36.1353],[126.8021,36.1413],[126.7937,36.1369],[126.7914,36.1422],[126.7956,36.1504],[126.7956,36.1616],[126.7922,36.1677],[126.7974,36.1711],[126.7956,36.1792],[126.7813,36.1837],[126.749,36.1811],[126.7419,36.1834],[126.7209,36.1749],[126.7137,36.1755],[126.7005,36.1795],[126.6921,36.1901],[126.6988,36.2036],[126.7132,36.2144],[126.7182,36.2346],[126.7323,36.2372],[126.7369,36.2414],[126.7387,36.254],[126.7276,36.2575],[126.7201,36.2552],[126.7135,36.2615],[126.6942,36.2689],[126.6966,36.2755],[126.6923,36.2805],[126.6967,36.2834],[126.6873,36.2911],[126.6944,36.2985],[126.6826,36.3083],[126.6801,36.3156],[126.6842,36.3223],[126.6785,36.3316],[126.6957,36.3344],[126.6998,36.3486],[126.7041,36.3506],[126.7026,36.3616],[126.705,36.3665],[126.7245,36.3712],[126.7267,36.3765],[126.7352,36.3785],[126.7394,36.373],[126.7391,36.3656],[126.7438,36.3633],[126.7483,36.3661],[126.7526,36.356],[126.7665,36.3526],[126.785,36.3569],[126.7909,36.3516],[126.7972,36.3549],[126.809,36.3761],[126.8192,36.3768],[126.8305,36.385],[126.8499,36.3857],[126.8443,36.3746]]]]}},{"type":"Feature","properties":{"code":"34340","name":"서천군"},"geometry":{"type":"MultiPolygon","coordinates":[[[[126.6099,35.9945],[126.6039,35.9916],[126.6005,35.9911],[126.6048,36.0007],[126.6099,35.9945]]],[[[126.6001,35.991],[126.5225,35.9881],[126.6005,35.9911],[126.6001,35.991]]],[[[126.6446,36.0568],[126.6312,36.0547],[126.6307,36.0773],[126.6242,36.0806],[126.6189,36.0775],[126.6242,36.0845],[126.6326,36.0816],[126.6467,36.0884],[126.6447,36.0939],[126.6402,36.0907],[126.6364,36.0932],[126.6307,36.0915],[126.6317,36.0993],[126.62,36.1023],[126.6117,36.0955],[126.6076,36.1006],[126.6074,36.1105],[126.6025,36.1121],[126.5912,36.1286],[126.5696,36.1403],[126.556,36.1284],[126.5504,36.1399],[126.5327,36.1499],[126.5199,36.1523],[126.5069,36.1503],[126.501,36.141],[126.504,36.1293],[126.5089,36.1295],[126.5026,36.1287],[126.493,36.1366],[126.4928,36.1587],[126.4997,36.1593],[126.5017,36.1565],[126.508,36.1603],[126.5189,36.1601],[126.5262,36.1694],[126.5249,36.1873],[126.5651,36.1921],[126.5801,36.1776],[126.6143,36.1723],[126.6554,36.1812],[126.6669,36.176],[126.6808,36.1824],[126.6855,36.189],[126.6921,36.1901],[126.7005,36.1795],[126.7137,36.1755],[126.7209,36.1749],[126.7419,36.1834],[126.749,36.1811],[126.7829,36.1835],[126.7962,36.1777],[126.7974,36.1711],[126.7922,36.1677],[126.7956,36.1616],[126.7956,36.1504],[126.7914,36.1422],[126.7937,36.1369],[126.8021,36.1413],[126.8196,36.1353],[126.8188,36.1325],[126.8248,36.1264],[126.8401,36.1169],[126.8406,36.1058],[126.8374,36.1049],[126.8366,36.0996],[126.842,36.0799],[126.8484,36.0745],[126.8532,36.0766],[126.8584,36.073],[126.8629,36.0747],[126.8711,36.0716],[126.8655,36.0609],[126.8211,36.0499],[126.8058,36.0344],[126.748,36.0258],[126.7365,36.0004],[126.7302,36.0032],[126.7231,36.0002],[126.7077,36.0054],[126.6765,36.0092],[126.6662,36.0048],[126.6612,36.0114],[126.6643,36.0201],[126.6617,36.0289],[126.6687,36.0312],[126.6585,36.0444],[126.6496,36.0476],[126.6446,36.0568]]]]}},{"type":"Feature","properties":{"code":"34350","name":"청양군"},"geometry":{"type":"MultiPolygon","coordinates":[[[[126.8722,36.5698],[126.8932,36.5594],[126.899,36.5596],[126.8999,36.5497],[126.8897,36.5414],[126.8884,36.5338],[126.8931,36.5274],[126.8836,36.5126],[126.894,36.5036],[126.8935,36.4792],[126.8994,36.4768],[126.905,36.4682],[126.9136,36.4652],[126.9155,36.4557],[126.9306,36.4545],[126.9563,36.4687],[126.9604,36.4643],[126.9749,36.4667],[126.995,36.4613],[127.0031,36.4559],[127.002,36.4516],[127.0066,36.452],[127.0089,36.4467],[127.007,36.4384],[127.0202,36.4385],[127.0178,36.4346],[127.0239,36.4242],[127.0153,36.4183],[127.0282,36.4035],[127.0237,36.3989],[127.0258,36.3971],[126.9915,36.3745],[126.9873,36.3556],[126.9897,36.3457],[126.9825,36.338],[126.9603,36.3324],[126.9574,36.3281],[126.9268,36.3145],[126.9147,36.3204],[126.9122,36.3272],[126.8999,36.3257],[126.9001,36.3316],[126.8931,36.3225],[126.8847,36.3255],[126.8621,36.3215],[126.8555,36.3313],[126.86,36.3365],[126.8599,36.3433],[126.8536,36.3466],[126.8493,36.3547],[126.8414,36.3553],[126.8448,36.3638],[126.8346,36.364],[126.832,36.3755],[126.8345,36.3778],[126.8443,36.3746],[126.8503,36.3849],[126.8487,36.387],[126.8305,36.385],[126.8192,36.3768],[126.809,36.3761],[126.8034,36.3635],[126.7939,36.3525],[126.7909,36.3516],[126.785,36.3569],[126.7665,36.3526],[126.7516,36.3567],[126.7483,36.3661],[126.7413,36.3636],[126.7352,36.3785],[126.7248,36.3749],[126.7114,36.3882],[126.7157,36.3937],[126.7092,36.397],[126.7085,36.4021],[126.6913,36.4105],[126.6889,36.426],[126.6916,36.4286],[126.684,36.4362],[126.6887,36.446],[126.6768,36.4508],[126.6749,36.46],[126.6719,36.4616],[126.7008,36.4786],[126.7182,36.482],[126.7295,36.4796],[126.7365,36.4723],[126.7427,36.4835],[126.7469,36.4846],[126.7432,36.4901],[126.7503,36.5037],[126.755,36.5031],[126.7657,36.5121],[126.7729,36.5341],[126.7806,36.5322],[126.785,36.5348],[126.8051,36.5267],[126.8063,36.53],[126.8124,36.5315],[126.8247,36.5287],[126.8329,36.5509],[126.8378,36.5544],[126.8457,36.5696],[126.8722,36.5698]]]]}},{"type":"Feature","properties":{"code":"34360","name":"홍성군"},"geometry":{"type":"MultiPolygon","coordinates":[[[[126.7389,36.6719],[126.7454,36.6707],[126.7371,36.6588],[126.7361,36.6484],[126.7518,36.6457],[126.7498,36.6353],[126.7576,36.6318],[126.7587,36.6266],[126.756,36.6236],[126.7606,36.6184],[126.7704,36.6171],[126.7719,36.6064],[126.7724,36.594],[126.7485,36.5804],[126.7483,36.5575],[126.7419,36.5556],[126.7369,36.5498],[126.741,36.5372],[126.7484,36.531],[126.7591,36.5274],[126.7658,36.5354],[126.7732,36.5344],[126.7657,36.5121],[126.755,36.5031],[126.7503,36.5037],[126.7432,36.4901],[126.7469,36.4846],[126.7427,36.4835],[126.7362,36.4722],[126.7295,36.4796],[126.7182,36.482],[126.7008,36.4786],[126.6761,36.4624],[126.6584,36.4597],[126.6529,36.4674],[126.6342,36.4666],[126.6317,36.4762],[126.6228,36.4778],[126.6147,36.4848],[126.6186,36.495],[126.611,36.4829],[126.599,36.4789],[126.6019,36.4885],[126.593,36.5067],[126.59,36.5089],[126.5717,36.5019],[126.5661,36.503],[126.5657,36.5082],[126.5616,36.5083],[126.5591,36.5243],[126.5605,36.5109],[126.5561,36.5064],[126.5428,36.5092],[126.5286,36.521],[126.5128,36.5231],[126.5132,36.5277],[126.5022,36.5319],[126.483,36.5141],[126.4881,36.5265],[126.4863,36.5295],[126.473,36.5389],[126.4768,36.5359],[126.4689,36.5389],[126.4668,36.5365],[126.4703,36.5333],[126.4663,36.5348],[126.4665,36.5374],[126.469,36.5395],[126.4644,36.5484],[126.4714,36.5596],[126.4638,36.5766],[126.4642,36.5833],[126.4553,36.5954],[126.4407,36.6003],[126.4527,36.6154],[126.453,36.6258],[126.4973,36.6313],[126.5057,36.6349],[126.5114,36.6307],[126.516,36.6323],[126.5184,36.6382],[126.5343,36.6459],[126.5456,36.6402],[126.5601,36.6436],[126.5653,36.6495],[126.5708,36.6486],[126.5796,36.6549],[126.5814,36.6643],[126.5856,36.6655],[126.5958,36.6517],[126.5871,36.6375],[126.5857,36.6184],[126.5969,36.6214],[126.6025,36.6192],[126.6062,36.6253],[126.6155,36.6235],[126.6234,36.6091],[126.6266,36.6139],[126.6263,36.6251],[126.6198,36.6372],[126.6282,36.6496],[126.6495,36.6485],[126.6594,36.6567],[126.6811,36.6617],[126.69,36.6596],[126.6982,36.6632],[126.7076,36.6629],[126.7048,36.6668],[126.7086,36.6725],[126.7254,36.6675],[126.7389,36.6719]]]]}},{"type":"Feature","properties":{"code":"34370","name":"예산군"},"geometry":{"type":"MultiPolygon","coordinates":[[[[126.7279,36.796],[126.7375,36.7815],[126.7435,36.778],[126.7468,36.7675],[126.7591,36.7633],[126.772,36.7493],[126.7873,36.7637],[126.7942,36.7677],[126.8008,36.7663],[126.8007,36.775],[126.8104,36.77],[126.8249,36.7773],[126.8144,36.7858],[126.8234,36.7838],[126.8352,36.7862],[126.8291,36.7732],[126.8309,36.7621],[126.838,36.7606],[126.839,36.753],[126.8472,36.7533],[126.85,36.7491],[126.859,36.747],[126.8577,36.7428],[126.8668,36.7294],[126.875,36.7282],[126.8866,36.7314],[126.8921,36.7245],[126.8972,36.7236],[126.9045,36.7094],[126.9022,36.7023],[126.9133,36.7039],[126.922,36.7008],[126.9284,36.7045],[126.9412,36.7015],[126.95,36.7038],[126.9723,36.6909],[126.9678,36.6866],[126.9677,36.6792],[126.9574,36.672],[126.9591,36.6569],[126.9545,36.6513],[126.9552,36.6454],[126.9435,36.6329],[126.9454,36.6281],[126.9358,36.6231],[126.9375,36.6158],[126.9322,36.6131],[126.932,36.6033],[126.9274,36.601],[126.931,36.5917],[126.9248,36.5877],[126.9205,36.5775],[126.9114,36.5722],[126.9103,36.5669],[126.8936,36.5593],[126.8722,36.5698],[126.8611,36.5685],[126.8497,36.5718],[126.8329,36.5509],[126.8247,36.5287],[126.8124,36.5315],[126.8063,36.53],[126.8051,36.5267],[126.785,36.5348],[126.7781,36.5323],[126.7691,36.5364],[126.7591,36.5274],[126.7466,36.5318],[126.741,36.5372],[126.7371,36.5515],[126.7483,36.5575],[126.7485,36.5804],[126.7724,36.594],[126.7719,36.6064],[126.7704,36.6171],[126.7606,36.6184],[126.756,36.6236],[126.7587,36.6266],[126.7576,36.6318],[126.7498,36.6353],[126.7518,36.6457],[126.7361,36.6484],[126.7371,36.6588],[126.7454,36.6707],[126.7389,36.6719],[126.7254,36.6675],[126.7086,36.6725],[126.7048,36.6668],[126.7076,36.6629],[126.6982,36.6632],[126.69,36.6596],[126.6811,36.6617],[126.6594,36.6567],[126.6495,36.6485],[126.6282,36.6496],[126.6198,36.6372],[126.6263,36.6251],[126.6266,36.6139],[126.6234,36.6091],[126.6155,36.6235],[126.6062,36.6253],[126.6025,36.6192],[126.5969,36.6214],[126.5857,36.6184],[126.5871,36.6375],[126.5958,36.6517],[126.589,36.6635],[126.5982,36.6746],[126.5963,36.6854],[126.6003,36.6904],[126.6002,36.6969],[126.6096,36.7043],[126.6023,36.72],[126.6088,36.733],[126.6249,36.7336],[126.6332,36.7406],[126.6332,36.7579],[126.6532,36.7505],[126.6528,36.7566],[126.6475,36.7611],[126.6513,36.7665],[126.6492,36.7701],[126.6536,36.7749],[126.665,36.7709],[126.669,36.7806],[126.676,36.7839],[126.6839,36.7821],[126.694,36.7849],[126.697,36.801],[126.7101,36.8037],[126.7279,36.796]]]]}},{"type":"Feature","properties":{"code":"34380","name":"태안군"},"geometry":{"type":"MultiPolygon","coordinates":[[[[126.3128,36.4512],[126.3108,36.4481],[126.3017,36.4488],[126.3049,36.452],[126.3034,36.4553],[126.3128,36.4512]]],[[[126.2029,36.5783],[126.2019,36.5756],[126.1963,36.5692],[126.1906,36.5684],[126.1889,36.5719],[126.1979,36.5719],[126.2021,36.5768],[126.2015,36.58],[126.1977,36.5765],[126.1947,36.5785],[126.1955,36.5828],[126.2053,36.5852],[126.2029,36.5783]]],[[[126.3802,36.6064],[126.381,36.6025],[126.3857,36.6043],[126.3808,36.5916],[126.3788,36.597],[126.3751,36.5967],[126.3802,36.6064]]],[[[126.2456,36.6012],[126.2417,36.597],[126.2445,36.5908],[126.242,36.5882],[126.2395,36.5902],[126.2406,36.5944],[126.2341,36.5967],[126.2393,36.603],[126.2348,36.6046],[126.2437,36.6076],[126.2456,36.6012]]],[[[126.3715,36.5903],[126.3758,36.5873],[126.3751,36.5788],[126.3637,36.5773],[126.3588,36.5722],[126.3628,36.5674],[126.3752,36.5645],[126.3743,36.558],[126.379,36.5493],[126.3749,36.542],[126.3866,36.5243],[126.3855,36.5207],[126.3781,36.5192],[126.3814,36.5144],[126.3944,36.5146],[126.391,36.5094],[126.3974,36.5112],[126.3981,36.5067],[126.4018,36.5055],[126.4034,36.4987],[126.3994,36.4965],[126.399,36.4882],[126.4032,36.4901],[126.4056,36.4878],[126.4103,36.4917],[126.4087,36.4746],[126.4175,36.4646],[126.4065,36.4531],[126.4217,36.446],[126.4214,36.4405],[126.4319,36.4374],[126.4278,36.432],[126.4346,36.4196],[126.4222,36.4101],[126.4275,36.3993],[126.4213,36.3999],[126.4181,36.406],[126.4123,36.405],[126.4105,36.4134],[126.4004,36.4124],[126.3972,36.4191],[126.39,36.4219],[126.3797,36.4206],[126.3806,36.4156],[126.376,36.4118],[126.3623,36.4155],[126.3574,36.4244],[126.351,36.4254],[126.3575,36.4394],[126.365,36.4372],[126.364,36.4406],[126.3537,36.4418],[126.3449,36.439],[126.3303,36.4413],[126.333,36.4457],[126.329,36.4579],[126.3309,36.465],[126.3242,36.4682],[126.3318,36.4845],[126.3302,36.5],[126.3387,36.5051],[126.3334,36.5039],[126.3321,36.5103],[126.3279,36.5123],[126.3308,36.5294],[126.3277,36.5549],[126.3142,36.5711],[126.3116,36.5854],[126.3187,36.5864],[126.3232,36.5834],[126.3225,36.5985],[126.3402,36.6083],[126.3478,36.6046],[126.3486,36.6102],[126.3592,36.6125],[126.3659,36.6097],[126.368,36.6001],[126.3748,36.5966],[126.3715,36.5903]]],[[[126.1367,36.6825],[126.1481,36.6862],[126.1488,36.6783],[126.1517,36.6775],[126.1432,36.674],[126.1397,36.6692],[126.1352,36.6727],[126.1313,36.6687],[126.1317,36.6733],[126.1363,36.6756],[126.1351,36.6853],[126.1263,36.6766],[126.1238,36.6791],[126.1314,36.6876],[126.1352,36.6874],[126.1367,36.6825]]],[[[126.0871,36.6897],[126.0841,36.6844],[126.0877,36.6802],[126.0802,36.6767],[126.081,36.6725],[126.0751,36.67],[126.071,36.6736],[126.0582,36.6724],[126.052,36.6675],[126.0489,36.67],[126.0619,36.6801],[126.0727,36.6789],[126.083,36.684],[126.0805,36.6885],[126.0829,36.692],[126.0871,36.6897]]],[[[126.1286,36.7155],[126.1236,36.7076],[126.1196,36.7085],[126.1207,36.7141],[126.127,36.7179],[126.1217,36.7258],[126.1255,36.7266],[126.1259,36.7316],[126.1335,36.7391],[126.1315,36.7466],[126.1341,36.7485],[126.1307,36.7525],[126.1221,36.7531],[126.1239,36.7585],[126.1198,36.7609],[126.1219,36.7645],[126.1132,36.7691],[126.1116,36.7728],[126.1166,36.7729],[126.1164,36.7693],[126.1204,36.7739],[126.1312,36.7743],[126.1287,36.7781],[126.1353,36.7755],[126.1307,36.7871],[126.1387,36.7836],[126.1458,36.7911],[126.146,36.7943],[126.1425,36.7956],[126.1471,36.7958],[126.1497,36.8036],[126.143,36.8087],[126.154,36.8109],[126.1548,36.8136],[126.1494,36.817],[126.1558,36.8165],[126.1607,36.8264],[126.1595,36.8298],[126.1455,36.8377],[126.1549,36.838],[126.1549,36.8418],[126.1491,36.8457],[126.1556,36.8434],[126.1586,36.8486],[126.1604,36.8417],[126.1711,36.8407],[126.1663,36.8306],[126.1707,36.8245],[126.1745,36.8247],[126.1719,36.8118],[126.1769,36.8102],[126.184,36.8129],[126.1855,36.8152],[126.1817,36.82],[126.1884,36.8251],[126.1846,36.8298],[126.1754,36.8324],[126.1912,36.8427],[126.1985,36.8557],[126.1956,36.8596],[126.1919,36.8584],[126.1903,36.8674],[126.1838,36.867],[126.1907,36.8713],[126.1916,36.8771],[126.1864,36.8825],[126.1774,36.8837],[126.1782,36.886],[126.1975,36.8886],[126.2028,36.9049],[126.2079,36.9027],[126.2063,36.9004],[126.2123,36.8995],[126.2213,36.9056],[126.2478,36.914],[126.2519,36.9132],[126.248,36.9095],[126.2765,36.8978],[126.2807,36.9018],[126.2838,36.8991],[126.2925,36.9011],[126.2851,36.9037],[126.2842,36.9071],[126.2942,36.9293],[126.2923,36.9354],[126.2892,36.9362],[126.2904,36.9525],[126.2847,36.9633],[126.286,36.9695],[126.2947,36.9695],[126.2998,36.9771],[126.3047,36.9785],[126.3039,36.9677],[126.292,36.9629],[126.3052,36.9621],[126.3102,36.9562],[126.3017,36.9424],[126.3096,36.9296],[126.3003,36.9193],[126.3134,36.905],[126.3193,36.9033],[126.3194,36.892],[126.3307,36.8911],[126.326,36.8853],[126.318,36.887],[126.3132,36.8835],[126.3118,36.8734],[126.3025,36.8642],[126.3042,36.8596],[126.2956,36.8528],[126.2933,36.843],[126.317,36.8374],[126.3153,36.8328],[126.2952,36.8243],[126.2828,36.8251],[126.2808,36.8178],[126.2889,36.8138],[126.2873,36.7995],[126.2911,36.798],[126.2974,36.8033],[126.2961,36.808],[126.3047,36.8146],[126.3184,36.8141],[126.3225,36.8198],[126.3281,36.8147],[126.335,36.815],[126.3551,36.7903],[126.3483,36.7783],[126.3506,36.7675],[126.3475,36.7562],[126.3434,36.7466],[126.337,36.7429],[126.339,36.7399],[126.3438,36.741],[126.3462,36.7307],[126.3473,36.6802],[126.3602,36.6249],[126.3537,36.6187],[126.3402,36.6158],[126.3354,36.6187],[126.3327,36.6162],[126.3353,36.6116],[126.3215,36.6004],[126.314,36.5884],[126.3069,36.5954],[126.303,36.5933],[126.3028,36.5888],[126.2922,36.5848],[126.2831,36.5939],[126.2888,36.6023],[126.2873,36.6187],[126.2831,36.6222],[126.2851,36.6239],[126.286,36.6241],[126.2888,36.6151],[126.2978,36.6204],[126.3012,36.6266],[126.301,36.6384],[126.2945,36.6578],[126.2843,36.6717],[126.2655,36.6716],[126.2664,36.6821],[126.2613,36.6939],[126.2731,36.7035],[126.2709,36.7139],[126.2737,36.7199],[126.2706,36.7268],[126.2794,36.7299],[126.2763,36.7326],[126.2699,36.7302],[126.2576,36.7178],[126.2525,36.718],[126.2515,36.7137],[126.2481,36.7184],[126.235,36.7181],[126.234,36.7076],[126.2403,36.7055],[126.2391,36.7029],[126.2312,36.7009],[126.2306,36.695],[126.2092,36.6931],[126.2081,36.6879],[126.1987,36.6846],[126.1962,36.6743],[126.1807,36.6784],[126.176,36.6762],[126.1712,36.6798],[126.1525,36.6795],[126.1515,36.6977],[126.1468,36.7028],[126.1632,36.708],[126.1598,36.711],[126.1672,36.7172],[126.1832,36.7139],[126.1993,36.7054],[126.2073,36.7052],[126.2177,36.7108],[126.2234,36.7198],[126.215,36.7273],[126.2043,36.7217],[126.2022,36.7213],[126.1992,36.7216],[126.2022,36.7215],[126.2033,36.7263],[126.2099,36.7309],[126.2114,36.7411],[126.2058,36.7366],[126.1963,36.7383],[126.1825,36.7465],[126.1857,36.7485],[126.185,36.7533],[126.1724,36.7573],[126.1408,36.7541],[126.1499,36.748],[126.1521,36.7362],[126.1493,36.7289],[126.1431,36.729],[126.1415,36.7242],[126.1286,36.7155]]]]}}]}