{"type":"FeatureCollection","features":[{"type":"Feature","properties":{"code":"35011","name":"전주시 완산구"},"geometry":{"type":"MultiPolygon","coordinates":[[[[127.1182,35.8384],[127.1268,35.8323],[127.1272,35.8209],[127.133,35.8175],[127.1356,35.8205],[127.1332,35.8251],[127.1465,35.8307],[127.1567,35.8294],[127.1802,35.8051],[127.1999,35.8106],[127.217,35.8011],[127.2006,35.7865],[127.1988,35.7748],[127.1869,35.7792],[127.1788,35.7752],[127.1619,35.7834],[127.1504,35.7746],[127.1464,35.7595],[127.1366,35.761],[127.1159,35.7493],[127.1026,35.7525],[127.0957,35.7448],[127.0957,35.7375],[127.0851,35.7286],[127.071,35.7407],[127.0697,35.7483],[127.0632,35.7531],[127.0504,35.7556],[127.0535,35.7638],[127.0642,35.7669],[127.0743,35.7756],[127.0654,35.7862],[127.0651,35.802],[127.0692,35.8152],[127.0655,35.8249],[127.0505,35.8289],[127.0522,35.8333],[127.0586,35.833],[127.0586,35.8384],[127.0674,35.8388],[127.0711,35.8252],[127.0833,35.8311],[127.0901,35.8382],[127.1017,35.8385],[127.1044,35.8433],[127.1104,35.8389],[127.1182,35.8384]]]]}},{"type":"Feature","properties":{"code":"35012","name":"전주시 덕진구"},"geometry":{"type":"MultiPolygon","coordinates":[[[[127.137,35.902],[127.1452,35.8959],[127.1513,35.8791],[127.1598,35.8715],[127.1684,35.8536],[127.1847,35.8542],[127.1901,35.8593],[127.1965,35.8603],[127.1984,35.8536],[127.2101,35.8409],[127.2078,35.8292],[127.2103,35.8255],[127.2192,35.8198],[127.2342,35.822],[127.231,35.8198],[127.2281,35.8085],[127.217,35.8017],[127.1999,35.8106],[127.1802,35.8051],[127.1577,35.8288],[127.1465,35.8307],[127.1318,35.824],[127.1356,35.8205],[127.133,35.8175],[127.1272,35.8209],[127.1288,35.8284],[127.1262,35.8329],[127.1044,35.8433],[127.1017,35.8385],[127.0901,35.8382],[127.0833,35.8311],[127.0711,35.8252],[127.0674,35.8388],[127.0558,35.8396],[127.0495,35.8524],[127.0316,35.852],[127.0269,35.8569],[127.0269,35.8675],[127.0168,35.8605],[127.0064,35.866],[127.0074,35.8754],[126.9978,35.8842],[127.0007,35.8932],[127.0275,35.898],[127.0426,35.8983],[127.0517,35.8922],[127.0583,35.8948],[127.0615,35.9003],[127.0801,35.8977],[127.0832,35.8923],[127.0868,35.8918],[127.1213,35.9031],[127.137,35.902]]]]}},{"type":"Feature","properties":{"code":"35020","name":"군산시"},"geometry":{"type":"MultiPolygon","coordinates":[[[[126.4592,35.7348],[126.4534,35.7283],[126.4487,35.7313],[126.451,35.7382],[126.4402,35.7422],[126.4497,35.7485],[126.4592,35.7348]]],[[[126.4429,35.8094],[126.4365,35.801],[126.4255,35.7935],[126.4231,35.7963],[126.4193,35.7937],[126.4136,35.7983],[126.4196,35.8087],[126.4319,35.8022],[126.4324,35.8086],[126.4377,35.8057],[126.4366,35.8106],[126.4429,35.8094]]],[[[126.5195,35.738],[126.523,35.7359],[126.5233,35.7314],[126.5202,35.7317],[126.483,35.8105],[126.4796,35.8124],[126.4865,35.8161],[126.4834,35.8136],[126.5195,35.738]]],[[[126.3741,35.8202],[126.3706,35.816],[126.3724,35.8127],[126.3765,35.814],[126.3806,35.8041],[126.3767,35.8043],[126.3758,35.8],[126.3682,35.8085],[126.3685,35.8215],[126.3741,35.8202]]],[[[126.414,35.8305],[126.4166,35.824],[126.4258,35.8184],[126.4131,35.8213],[126.4102,35.8142],[126.4168,35.8126],[126.4147,35.8059],[126.4088,35.8047],[126.4102,35.8073],[126.4062,35.8092],[126.4005,35.8055],[126.4124,35.8222],[126.4044,35.8275],[126.399,35.8261],[126.4047,35.832],[126.414,35.8305]]],[[[126.3523,35.8535],[126.357,35.8478],[126.3405,35.8507],[126.338,35.8542],[126.3523,35.8535]]],[[[126.3886,35.8529],[126.3801,35.8475],[126.3683,35.8457],[126.3582,35.8486],[126.3646,35.8479],[126.3671,35.8533],[126.3872,35.856],[126.3886,35.8529]]],[[[126.4221,35.857],[126.4333,35.8558],[126.4053,35.8582],[126.3947,35.8544],[126.3992,35.8584],[126.4081,35.8594],[126.4221,35.857]]],[[[126.326,35.8591],[126.3273,35.8528],[126.3191,35.8531],[126.3186,35.8569],[126.3166,35.8536],[126.3135,35.8559],[126.3152,35.859],[126.326,35.8591]]],[[[126.7002,35.9933],[126.6843,35.986],[126.6559,35.9873],[126.6579,35.9905],[126.6998,35.9957],[126.7002,35.9933]]],[[[126.5562,36.0448],[126.5551,36.0314],[126.5397,36.0368],[126.5442,36.0399],[126.5441,36.0465],[126.5562,36.0448]]],[[[126.9011,36.0079],[126.9149,36.0043],[126.9132,35.9909],[126.9082,35.987],[126.9088,35.9814],[126.9023,35.9784],[126.903,35.9721],[126.8851,35.9608],[126.8937,35.9551],[126.883,35.948],[126.8787,35.9345],[126.8596,35.9175],[126.8432,35.9177],[126.8262,35.9059],[126.7904,35.8957],[126.7904,35.8778],[126.7683,35.876],[126.7572,35.8795],[126.6765,35.8699],[126.6746,35.8892],[126.6675,35.8836],[126.6408,35.8844],[126.6302,35.8869],[126.6297,35.8919],[126.6288,35.8866],[126.6203,35.8885],[126.6129,35.8861],[126.6148,35.8912],[126.6106,35.9167],[126.6118,35.9297],[126.6175,35.9399],[126.616,35.9425],[126.588,35.9478],[126.5883,35.9027],[126.5811,35.9027],[126.5757,35.9031],[126.5881,35.903],[126.5879,35.9208],[126.5715,35.9198],[126.5646,35.907],[126.5677,35.904],[126.5648,35.9053],[126.5645,35.9072],[126.5697,35.9172],[126.5646,35.9286],[126.5648,35.9362],[126.5344,35.934],[126.4989,35.8476],[126.5009,35.8431],[126.4984,35.8354],[126.4728,35.811],[126.4625,35.813],[126.4646,35.8193],[126.4547,35.8147],[126.457,35.8102],[126.4536,35.8061],[126.4493,35.8068],[126.4483,35.8134],[126.4432,35.8136],[126.4498,35.8158],[126.4461,35.8196],[126.4533,35.8184],[126.4448,35.8234],[126.4452,35.8266],[126.4417,35.8277],[126.4436,35.8311],[126.4537,35.8315],[126.461,35.8245],[126.4753,35.8223],[126.4907,35.8382],[126.4855,35.8457],[126.4965,35.8471],[126.5327,35.9373],[126.5292,35.9384],[126.5276,35.9332],[126.525,35.9354],[126.5298,35.9437],[126.5218,35.948],[126.5213,35.9722],[126.5175,35.9723],[126.5128,35.9749],[126.5223,35.9731],[126.5233,35.9663],[126.5259,35.9665],[126.5258,35.9736],[126.6132,35.9788],[126.6179,35.9764],[126.6183,35.9707],[126.6244,35.971],[126.6223,35.9779],[126.6409,35.9789],[126.6582,35.9837],[126.6834,35.9842],[126.706,35.9947],[126.7285,35.9845],[126.736,35.9855],[126.7472,35.9919],[126.7559,36.0105],[126.7417,36.0122],[126.748,36.0258],[126.8058,36.0344],[126.8211,36.0499],[126.8651,36.0607],[126.8685,36.0459],[126.873,36.0435],[126.8704,36.0331],[126.8829,36.0268],[126.9011,36.0079]]],[[[126.4448,36.0788],[126.4449,36.0756],[126.4361,36.0768],[126.4294,36.0821],[126.4288,36.0855],[126.4375,36.0867],[126.4448,36.0788]]],[[[125.9933,36.1218],[125.9956,36.1186],[125.9922,36.1105],[125.9849,36.1214],[125.9816,36.1198],[125.9847,36.1139],[125.9784,36.1102],[125.9769,36.1137],[125.9721,36.1128],[125.9666,36.1262],[125.9788,36.1261],[125.9933,36.1218]]]]}},{"type":"Feature","properties":{"code":"35030","name":"익산시"},"geometry":{"type":"MultiPolygon","coordinates":[[[[127.0053,36.1506],[127.0113,36.1459],[127.0154,36.1488],[127.0204,36.1382],[127.0242,36.1365],[127.0397,36.1383],[127.0425,36.1465],[127.0448,36.1461],[127.0453,36.1353],[127.0556,36.1301],[127.0561,36.1268],[127.063,36.1252],[127.0611,36.1172],[127.057,36.1151],[127.061,36.1055],[127.0611,36.089],[127.0749,36.0848],[127.0904,36.0718],[127.102,36.0758],[127.1227,36.0636],[127.131,36.0658],[127.1397,36.057],[127.1164,36.0305],[127.1182,36.0262],[127.1158,36.0241],[127.1212,36.0204],[127.1254,36.0054],[127.1075,35.9954],[127.1096,35.9861],[127.1041,35.9685],[127.1063,35.9594],[127.0946,35.9404],[127.0925,35.9314],[127.0806,35.9214],[127.0768,35.9222],[127.0668,35.9157],[127.0408,35.9256],[127.0365,35.9189],[127.0287,35.9174],[127.0364,35.9091],[127.0325,35.9061],[127.0378,35.902],[127.0383,35.8978],[127.0007,35.8932],[127.0015,35.8893],[126.9964,35.8836],[126.9931,35.8876],[126.9971,35.8908],[126.9908,35.8921],[126.9884,35.8966],[126.9786,35.8991],[126.9731,35.8969],[126.9714,35.9002],[126.962,35.902],[126.9567,35.9086],[126.956,35.9165],[126.952,35.9133],[126.9521,35.9087],[126.9321,35.9147],[126.9291,35.9101],[126.9112,35.9032],[126.8929,35.9141],[126.873,35.9115],[126.8608,35.9057],[126.8568,35.9071],[126.8522,35.911],[126.8514,35.9169],[126.8596,35.9175],[126.8787,35.9345],[126.883,35.948],[126.8937,35.9551],[126.8851,35.9608],[126.903,35.9721],[126.9023,35.9784],[126.9088,35.9814],[126.9082,35.987],[126.9151,35.9967],[126.9149,36.0043],[126.9011,36.0079],[126.8842,36.026],[126.8704,36.0331],[126.873,36.0435],[126.8685,36.0459],[126.8647,36.0561],[126.8708,36.0674],[126.8738,36.1104],[126.8822,36.1313],[126.8952,36.1424],[126.9197,36.1363],[126.932,36.1427],[126.9413,36.1521],[126.9566,36.1566],[126.963,36.1563],[126.9772,36.1485],[126.9952,36.1468],[127.0053,36.1506]]]]}},{"type":"Feature","properties":{"code":"35040","name":"정읍시"},"geometry":{"type":"MultiPolygon","coordinates":[[[[126.8968,35.7533],[126.9157,35.7449],[126.9253,35.7366],[126.9356,35.7198],[126.9359,35.7223],[126.9436,35.721],[126.9527,35.7247],[126.9812,35.7145],[126.9922,35.7016],[126.9916,35.6895],[127.0025,35.6854],[127.0047,35.68],[127.0163,35.6763],[127.0239,35.6683],[127.0307,35.6662],[127.0509,35.6704],[127.056,35.6687],[127.0606,35.6703],[127.0638,35.6774],[127.082,35.6681],[127.0793,35.6601],[127.0896,35.6533],[127.0895,35.638],[127.0936,35.6335],[127.0899,35.6272],[127.093,35.6218],[127.0905,35.6146],[127.1048,35.5959],[127.1026,35.5902],[127.0831,35.5845],[127.0923,35.5671],[127.0839,35.5506],[127.1163,35.5371],[127.1163,35.5322],[127.1051,35.5333],[127.0979,35.5272],[127.0991,35.5234],[127.0939,35.5187],[127.0955,35.5141],[127.1015,35.5207],[127.1096,35.5194],[127.1095,35.5093],[127.0829,35.5068],[127.0668,35.5163],[127.0543,35.5094],[127.0506,35.5121],[127.05,35.5212],[127.0426,35.5228],[127.0391,35.5287],[127.0227,35.5361],[127.0191,35.5461],[126.9929,35.537],[126.9822,35.5481],[126.9801,35.5549],[126.9751,35.5561],[126.9512,35.5385],[126.9515,35.5327],[126.948,35.5296],[126.9394,35.5279],[126.9355,35.5238],[126.9311,35.5248],[126.9283,35.5189],[126.9298,35.5095],[126.9337,35.5072],[126.9355,35.4958],[126.9417,35.4909],[126.9359,35.4881],[126.9342,35.4812],[126.9279,35.4794],[126.9227,35.4829],[126.9135,35.4768],[126.8979,35.4808],[126.8895,35.4784],[126.8806,35.4849],[126.8731,35.4797],[126.8598,35.4797],[126.8691,35.4615],[126.8511,35.4657],[126.84,35.4623],[126.8379,35.4645],[126.8417,35.467],[126.8433,35.4783],[126.8315,35.4804],[126.8279,35.4863],[126.8233,35.4869],[126.8139,35.4842],[126.814,35.4688],[126.7923,35.4676],[126.7819,35.4706],[126.7726,35.4679],[126.7703,35.4822],[126.7643,35.4931],[126.7684,35.4961],[126.7706,35.5076],[126.7607,35.5105],[126.7596,35.5142],[126.7736,35.5238],[126.7611,35.533],[126.7622,35.5447],[126.7662,35.5491],[126.7627,35.555],[126.7694,35.5608],[126.761,35.5712],[126.7544,35.5743],[126.7368,35.5684],[126.7158,35.5752],[126.7176,35.5832],[126.7243,35.5836],[126.7203,35.6302],[126.7268,35.6482],[126.7378,35.6503],[126.744,35.6664],[126.7502,35.6635],[126.7516,35.6677],[126.7553,35.6669],[126.7632,35.662],[126.765,35.6732],[126.773,35.6836],[126.7871,35.6753],[126.798,35.6848],[126.8058,35.6758],[126.8142,35.6833],[126.8271,35.68],[126.8409,35.6977],[126.8335,35.7009],[126.8348,35.7038],[126.8263,35.712],[126.8299,35.7154],[126.8279,35.719],[126.8477,35.7281],[126.8673,35.7275],[126.8818,35.7413],[126.8822,35.7484],[126.875,35.7524],[126.8731,35.7585],[126.8821,35.7581],[126.8835,35.7528],[126.8968,35.7533]]]]}},{"type":"Feature","properties":{"code":"35050","name":"남원시"},"geometry":{"type":"MultiPolygon","coordinates":[[[[127.4402,35.5516],[127.4412,35.5472],[127.4528,35.5401],[127.4562,35.5465],[127.467,35.5466],[127.4709,35.5408],[127.4924,35.5341],[127.4913,35.5271],[127.5016,35.5217],[127.5036,35.5146],[127.5134,35.5089],[127.5161,35.4983],[127.5273,35.4958],[127.5267,35.4858],[127.5139,35.4801],[127.5265,35.4732],[127.5416,35.4716],[127.545,35.4678],[127.5618,35.4735],[127.5596,35.4801],[127.5635,35.4909],[127.5801,35.502],[127.58,35.5139],[127.5711,35.5189],[127.5685,35.5248],[127.5728,35.5461],[127.5849,35.5539],[127.5902,35.554],[127.6093,35.5409],[127.6121,35.5359],[127.6247,35.5337],[127.6287,35.536],[127.6253,35.5314],[127.6257,35.5253],[127.6344,35.5202],[127.6336,35.5133],[127.6442,35.5001],[127.6504,35.4979],[127.6531,35.4869],[127.6366,35.4782],[127.6367,35.4594],[127.6452,35.4491],[127.6534,35.4516],[127.6741,35.4457],[127.6652,35.4356],[127.6658,35.4274],[127.6605,35.4144],[127.6464,35.4027],[127.6363,35.3992],[127.6253,35.3847],[127.6257,35.3769],[127.6102,35.3659],[127.6122,35.3559],[127.6233,35.3422],[127.6207,35.3326],[127.6077,35.325],[127.6048,35.3184],[127.5857,35.3091],[127.5775,35.3089],[127.567,35.319],[127.5423,35.3285],[127.5406,35.3343],[127.531,35.336],[127.5245,35.3449],[127.502,35.3584],[127.4857,35.3583],[127.4708,35.3653],[127.4538,35.3607],[127.4437,35.3609],[127.4414,35.3638],[127.4309,35.3581],[127.4214,35.3509],[127.4088,35.3276],[127.3928,35.3127],[127.3927,35.3073],[127.3846,35.3025],[127.3801,35.3037],[127.3755,35.3122],[127.3543,35.3224],[127.3307,35.3149],[127.3235,35.3074],[127.3087,35.3045],[127.291,35.3134],[127.2572,35.3125],[127.2318,35.3337],[127.2198,35.3341],[127.2097,35.3156],[127.199,35.3167],[127.1877,35.3226],[127.1846,35.3331],[127.1946,35.3392],[127.1871,35.3425],[127.1881,35.3488],[127.1931,35.3564],[127.2018,35.357],[127.215,35.3694],[127.2166,35.3716],[127.2127,35.3737],[127.2261,35.3988],[127.2471,35.3992],[127.2517,35.4173],[127.2601,35.427],[127.2737,35.4209],[127.2783,35.4248],[127.2916,35.4265],[127.2965,35.4334],[127.2982,35.4442],[127.3138,35.4637],[127.3071,35.4841],[127.3115,35.4956],[127.3257,35.4957],[127.3336,35.4919],[127.357,35.501],[127.3537,35.513],[127.3377,35.5255],[127.3377,35.5278],[127.3454,35.5272],[127.3501,35.5355],[127.3482,35.5421],[127.3358,35.5477],[127.3353,35.5536],[127.3502,35.5515],[127.3593,35.5589],[127.38,35.5473],[127.3992,35.5471],[127.4026,35.5483],[127.3992,35.5531],[127.4056,35.5601],[127.4105,35.5608],[127.4252,35.5503],[127.4402,35.5516]]]]}},{"type":"Feature","properties":{"code":"35060","name":"김제시"},"geometry":{"type":"MultiPolygon","coordinates":[[[[126.8514,35.9169],[126.8531,35.9096],[126.8608,35.9057],[126.873,35.9115],[126.8929,35.9141],[126.91,35.9031],[126.9291,35.9101],[126.9321,35.9147],[126.9519,35.9086],[126.952,35.9133],[126.956,35.9165],[126.9567,35.9086],[126.962,35.902],[126.9714,35.9002],[126.9731,35.8969],[126.9786,35.8991],[126.9884,35.8966],[126.9908,35.8921],[126.9971,35.8908],[126.9932,35.8882],[126.9941,35.8843],[126.9995,35.8833],[127.0074,35.8754],[127.006,35.862],[127.0095,35.8467],[126.9952,35.8281],[126.9982,35.8152],[127.0194,35.7997],[127.0292,35.8015],[127.0555,35.7915],[127.0636,35.7918],[127.0743,35.7756],[127.0642,35.7669],[127.0535,35.7638],[127.0504,35.7564],[127.0697,35.7483],[127.071,35.7407],[127.0867,35.7261],[127.0746,35.7199],[127.0616,35.7049],[127.0603,35.7021],[127.0685,35.6946],[127.069,35.6899],[127.0606,35.6703],[127.0406,35.6667],[127.0239,35.6683],[127.0163,35.6763],[127.0047,35.68],[127.0025,35.6854],[126.9916,35.6895],[126.9922,35.7016],[126.9812,35.7145],[126.9527,35.7247],[126.9436,35.721],[126.9359,35.7223],[126.9356,35.7198],[126.9253,35.7366],[126.9157,35.7449],[126.8968,35.7533],[126.8835,35.7528],[126.8799,35.7586],[126.8729,35.7577],[126.875,35.7524],[126.8822,35.7484],[126.8818,35.7413],[126.8673,35.7275],[126.8428,35.7267],[126.8279,35.719],[126.8299,35.7154],[126.8257,35.716],[126.824,35.7128],[126.8224,35.7169],[126.8131,35.7156],[126.8181,35.7254],[126.8113,35.7231],[126.8136,35.729],[126.8048,35.7264],[126.8092,35.7309],[126.8065,35.7328],[126.8067,35.7454],[126.7989,35.7426],[126.7958,35.7534],[126.7831,35.7517],[126.763,35.7966],[126.6982,35.8129],[126.6916,35.8253],[126.69,35.8414],[126.6834,35.842],[126.6765,35.8699],[126.7572,35.8795],[126.7683,35.876],[126.7904,35.8778],[126.7904,35.8957],[126.8262,35.9059],[126.8443,35.9177],[126.8514,35.9169]]]]}},{"type":"Feature","properties":{"code":"35310","name":"완주군"},"geometry":{"type":"MultiPolygon","coordinates":[[[[127.027,35.8566],[127.0339,35.8504],[127.0495,35.8524],[127.0586,35.8384],[127.0586,35.833],[127.0518,35.833],[127.0505,35.8278],[127.0655,35.8249],[127.0692,35.8147],[127.0651,35.791],[127.0555,35.7915],[127.0292,35.8015],[127.0194,35.7997],[126.9982,35.8152],[126.9952,35.8281],[127.0095,35.8467],[127.0064,35.866],[127.0168,35.8605],[127.0269,35.8675],[127.027,35.8566]]],[[[127.0899,35.6272],[127.0936,35.6335],[127.0895,35.638],[127.0896,35.6533],[127.0793,35.6601],[127.082,35.6681],[127.0638,35.6774],[127.0689,35.6925],[127.0603,35.7021],[127.0616,35.7049],[127.0746,35.7199],[127.0865,35.7251],[127.086,35.7302],[127.0957,35.7375],[127.0957,35.7448],[127.1026,35.7525],[127.1159,35.7493],[127.1366,35.761],[127.1464,35.7595],[127.1504,35.7746],[127.1619,35.7834],[127.1788,35.7752],[127.1869,35.7792],[127.1988,35.7748],[127.2006,35.7865],[127.2281,35.8085],[127.231,35.8198],[127.2342,35.822],[127.2192,35.8198],[127.2103,35.8255],[127.2078,35.8292],[127.2101,35.8409],[127.1984,35.8536],[127.1965,35.8603],[127.1901,35.8593],[127.1847,35.8542],[127.1684,35.8536],[127.1598,35.8715],[127.1513,35.8791],[127.1452,35.8959],[127.137,35.902],[127.1188,35.9027],[127.0868,35.8918],[127.0832,35.8923],[127.0801,35.8977],[127.0613,35.9002],[127.0575,35.8942],[127.0496,35.8923],[127.0426,35.8983],[127.0383,35.8978],[127.0378,35.902],[127.0325,35.9061],[127.0364,35.9091],[127.0287,35.9174],[127.0364,35.9188],[127.0419,35.9256],[127.0668,35.9157],[127.0768,35.9222],[127.0806,35.9214],[127.0925,35.9314],[127.0946,35.9404],[127.1063,35.9594],[127.1041,35.9685],[127.1096,35.9861],[127.1075,35.9954],[127.1254,36.0054],[127.1212,36.0204],[127.1158,36.0241],[127.1182,36.0262],[127.1164,36.0305],[127.1397,36.057],[127.131,36.0658],[127.1339,36.0703],[127.1338,36.0815],[127.1377,36.0868],[127.1488,36.0903],[127.1537,36.0847],[127.1688,36.084],[127.1824,36.0947],[127.198,36.0858],[127.2022,36.0885],[127.2008,36.0916],[127.2049,36.1002],[127.2117,36.1007],[127.2195,36.0967],[127.2287,36.0981],[127.2427,36.085],[127.2487,36.0831],[127.2547,36.0874],[127.2466,36.0949],[127.2456,36.101],[127.2521,36.1131],[127.2745,36.1074],[127.2939,36.1131],[127.2971,36.1227],[127.3017,36.1252],[127.3054,36.1258],[127.3153,36.1191],[127.3185,36.1197],[127.3228,36.1306],[127.3385,36.1305],[127.3436,36.1189],[127.3505,36.1164],[127.3549,36.1083],[127.3477,36.0983],[127.3601,36.0894],[127.357,36.0815],[127.3617,36.0762],[127.3595,36.0692],[127.3643,36.0658],[127.3606,36.0615],[127.3604,36.0545],[127.3721,36.0437],[127.3735,36.0345],[127.3782,36.0306],[127.3761,36.0225],[127.3675,36.0212],[127.3605,36.0114],[127.364,35.9908],[127.3527,35.9891],[127.3426,35.9788],[127.342,35.9716],[127.3456,35.9685],[127.3443,35.9591],[127.3528,35.9495],[127.3474,35.9399],[127.3513,35.9348],[127.3489,35.927],[127.3538,35.9132],[127.3321,35.9083],[127.3333,35.8734],[127.3206,35.868],[127.319,35.863],[127.325,35.8569],[127.3213,35.8474],[127.3107,35.8411],[127.3104,35.8245],[127.2972,35.8173],[127.2984,35.8128],[127.2951,35.8079],[127.3031,35.8008],[127.2868,35.7928],[127.2739,35.7904],[127.2751,35.7817],[127.2714,35.7776],[127.265,35.7768],[127.2615,35.7695],[127.2543,35.7664],[127.2449,35.756],[127.2463,35.7482],[127.2536,35.7416],[127.2515,35.7353],[127.2562,35.7328],[127.2507,35.718],[127.2595,35.6934],[127.2467,35.6889],[127.24,35.6902],[127.242,35.6966],[127.2364,35.7034],[127.2239,35.7122],[127.2078,35.7111],[127.2062,35.7232],[127.1882,35.7311],[127.1862,35.7355],[127.1775,35.7376],[127.1623,35.7254],[127.1526,35.7252],[127.1393,35.7192],[127.1373,35.7022],[127.1297,35.6917],[127.1252,35.6912],[127.1264,35.6741],[127.1312,35.6692],[127.1274,35.6588],[127.1357,35.6471],[127.1321,35.6404],[127.1195,35.6332],[127.1059,35.6196],[127.093,35.6218],[127.0899,35.6272]]]]}},{"type":"Feature","properties":{"code":"35320","name":"진안군"},"geometry":{"type":"MultiPolygon","coordinates":[[[[127.4374,36.0091],[127.445,36.0066],[127.4486,35.9932],[127.4567,35.9833],[127.4639,35.9839],[127.4684,35.9881],[127.4759,35.9806],[127.4877,35.9783],[127.4944,35.9862],[127.4993,35.9874],[127.5067,35.9796],[127.5236,35.9855],[127.5279,35.9775],[127.5369,35.9782],[127.5338,35.9712],[127.5466,35.9602],[127.5479,35.9542],[127.5549,35.9469],[127.553,35.9375],[127.5486,35.9331],[127.554,35.9234],[127.5631,35.9229],[127.5684,35.9127],[127.5767,35.9085],[127.5849,35.8979],[127.5746,35.8789],[127.5813,35.8765],[127.5892,35.8776],[127.5931,35.8817],[127.5972,35.8805],[127.6016,35.8811],[127.6031,35.8803],[127.5981,35.8776],[127.5992,35.8723],[127.6128,35.8585],[127.6177,35.8593],[127.6248,35.8474],[127.62,35.8389],[127.6075,35.8311],[127.6007,35.8067],[127.5946,35.8085],[127.5919,35.8029],[127.5791,35.794],[127.5701,35.7944],[127.5591,35.8003],[127.5529,35.8082],[127.5429,35.8068],[127.5331,35.8153],[127.5204,35.811],[127.5184,35.803],[127.5114,35.7952],[127.5134,35.7864],[127.5111,35.7777],[127.5225,35.7543],[127.4952,35.7369],[127.4835,35.7223],[127.4761,35.7184],[127.4778,35.7025],[127.4649,35.693],[127.4669,35.6848],[127.4595,35.6733],[127.4777,35.6586],[127.4741,35.6547],[127.4739,35.6471],[127.4664,35.6375],[127.4701,35.6288],[127.4687,35.6214],[127.4621,35.6222],[127.4538,35.6187],[127.442,35.619],[127.4352,35.623],[127.4305,35.63],[127.4327,35.6345],[127.4283,35.642],[127.4185,35.6412],[127.388,35.6555],[127.3782,35.6542],[127.3777,35.6644],[127.3645,35.6604],[127.3619,35.6668],[127.3563,35.6691],[127.3276,35.6608],[127.3233,35.6636],[127.3177,35.6773],[127.3062,35.6848],[127.298,35.6828],[127.2881,35.6871],[127.2943,35.6989],[127.2908,35.7053],[127.2935,35.7178],[127.2875,35.7333],[127.2812,35.7372],[127.2749,35.7545],[127.2653,35.7646],[127.2751,35.7817],[127.2739,35.7904],[127.2868,35.7928],[127.3031,35.8008],[127.2951,35.8079],[127.2984,35.8128],[127.2972,35.8173],[127.3104,35.8245],[127.3107,35.8411],[127.3213,35.8474],[127.325,35.8569],[127.319,35.863],[127.3206,35.868],[127.3333,35.8734],[127.3321,35.9083],[127.3538,35.9132],[127.3489,35.927],[127.3513,35.9348],[127.3474,35.9399],[127.3528,35.9495],[127.3443,35.9591],[127.3456,35.9685],[127.342,35.9716],[127.3423,35.9775],[127.3527,35.9891],[127.364,35.9908],[127.3605,36.0114],[127.3649,36.0183],[127.3701,36.022],[127.3834,36.0214],[127.4012,36.0087],[127.4073,36.0142],[127.4134,36.0152],[127.4196,36.0227],[127.4346,36.0295],[127.4373,36.0206],[127.4374,36.0091]]]]}},{"type":"Feature","properties":{"code":"35330","name":"무주군"},"geometry":{"type":"MultiPolygon","coordinates":[[[[127.6491,36.058],[127.6544,36.0559],[127.6609,36.0382],[127.6727,36.0416],[127.6698,36.0514],[127.689,36.0627],[127.6907,36.058],[127.695,36.0588],[127.695,36.0459],[127.7019,36.0353],[127.7348,36.0323],[127.7415,36.0248],[127.7473,36.0297],[127.7539,36.0241],[127.7616,36.0252],[127.7593,36.0152],[127.7651,36.0123],[127.7815,36.0165],[127.7876,36.0145],[127.8007,36.0266],[127.816,36.0282],[127.8304,36.0352],[127.8528,36.0391],[127.8557,36.0329],[127.8606,36.0315],[127.8661,36.0243],[127.8768,36.0225],[127.8757,36.0089],[127.8786,36.0025],[127.8756,35.9969],[127.8939,35.9859],[127.8896,35.9797],[127.8963,35.9777],[127.9023,35.9569],[127.9101,35.9512],[127.9101,35.9459],[127.8957,35.9342],[127.8822,35.9289],[127.8824,35.9195],[127.8882,35.9148],[127.8851,35.9096],[127.8795,35.9099],[127.8693,35.904],[127.8595,35.9065],[127.8583,35.897],[127.8507,35.8901],[127.8537,35.8813],[127.8449,35.8756],[127.8418,35.8662],[127.8266,35.8683],[127.8139,35.8536],[127.8044,35.8587],[127.7838,35.8508],[127.7688,35.8383],[127.7578,35.8368],[127.7445,35.8444],[127.738,35.8352],[127.7386,35.8271],[127.7325,35.8209],[127.7312,35.8149],[127.7246,35.8125],[127.7194,35.7973],[127.7105,35.7918],[127.6997,35.7882],[127.6934,35.7916],[127.6882,35.7955],[127.6868,35.8039],[127.6773,35.8103],[127.6708,35.8098],[127.6635,35.8181],[127.6549,35.8117],[127.6467,35.8122],[127.6343,35.8185],[127.6295,35.8148],[127.621,35.8241],[127.6227,35.8313],[127.6194,35.8406],[127.6248,35.8474],[127.6177,35.8593],[127.6128,35.8585],[127.5992,35.8723],[127.5981,35.8776],[127.6016,35.8811],[127.5931,35.8817],[127.5892,35.8776],[127.5813,35.8765],[127.5746,35.8789],[127.5849,35.8979],[127.5767,35.9085],[127.5684,35.9127],[127.5631,35.9229],[127.554,35.9234],[127.5486,35.9331],[127.553,35.9375],[127.5549,35.9469],[127.5479,35.9542],[127.5466,35.9602],[127.5338,35.9712],[127.5369,35.9782],[127.5279,35.9775],[127.5244,35.9851],[127.5359,35.9949],[127.5321,36.008],[127.5399,36.0117],[127.5361,36.0199],[127.5388,36.0259],[127.5369,36.0326],[127.532,36.0346],[127.5314,36.0408],[127.5469,36.0381],[127.5522,36.0328],[127.5663,36.0312],[127.5745,36.0233],[127.5826,36.0272],[127.5898,36.026],[127.6001,36.0119],[127.6066,36.0119],[127.6106,36.001],[127.6135,36.0006],[127.6187,36.008],[127.6164,36.0191],[127.6107,36.0253],[127.6229,36.0246],[127.6284,36.032],[127.635,36.0295],[127.6397,36.0323],[127.6327,36.0354],[127.6305,36.0422],[127.6191,36.0392],[127.6206,36.0642],[127.6239,36.0673],[127.6446,36.0668],[127.6491,36.058]]]]}},{"type":"Feature","properties":{"code":"35340","name":"장수군"},"geometry":{"type":"MultiPolygon","coordinates":[[[[127.6295,35.8148],[127.6343,35.8185],[127.6467,35.8122],[127.6549,35.8117],[127.6635,35.8181],[127.6708,35.8098],[127.6773,35.8103],[127.6868,35.8039],[127.6882,35.7955],[127.6997,35.7882],[127.6848,35.7777],[127.6794,35.7685],[127.6695,35.7714],[127.6635,35.764],[127.661,35.7099],[127.6494,35.7038],[127.6418,35.6929],[127.6405,35.6728],[127.6289,35.664],[127.6295,35.6566],[127.6201,35.6461],[127.6257,35.6291],[127.6353,35.6185],[127.6214,35.6151],[127.613,35.6082],[127.6121,35.5989],[127.6075,35.5949],[127.6112,35.5839],[127.5961,35.5737],[127.5842,35.5528],[127.5728,35.5461],[127.5685,35.5248],[127.5711,35.5189],[127.58,35.5139],[127.5801,35.502],[127.5635,35.4909],[127.5596,35.4801],[127.5618,35.4735],[127.545,35.4678],[127.5416,35.4716],[127.5358,35.4704],[127.515,35.4789],[127.5267,35.4858],[127.5273,35.4958],[127.5161,35.4983],[127.5134,35.5089],[127.5036,35.5146],[127.5016,35.5217],[127.4913,35.5271],[127.4924,35.5341],[127.4709,35.5408],[127.4675,35.5464],[127.4562,35.5465],[127.4528,35.5401],[127.4412,35.5472],[127.4402,35.5516],[127.4241,35.5505],[127.4105,35.5608],[127.4056,35.5601],[127.3992,35.5531],[127.4026,35.5483],[127.3841,35.5461],[127.3637,35.558],[127.3635,35.5668],[127.3789,35.5764],[127.377,35.5836],[127.3718,35.5866],[127.3749,35.5981],[127.3727,35.6062],[127.3817,35.6132],[127.4253,35.6148],[127.4363,35.6221],[127.4427,35.6189],[127.4687,35.6214],[127.4701,35.6288],[127.4664,35.6375],[127.4739,35.6471],[127.4741,35.6547],[127.4777,35.6586],[127.4642,35.6676],[127.4598,35.6746],[127.4669,35.6848],[127.4649,35.693],[127.4778,35.7025],[127.4761,35.7184],[127.4835,35.7223],[127.4952,35.7369],[127.5225,35.7543],[127.5128,35.7712],[127.5134,35.7864],[127.5108,35.7916],[127.5214,35.8122],[127.5331,35.8153],[127.5429,35.8068],[127.5529,35.8082],[127.5591,35.8003],[127.5701,35.7944],[127.5787,35.7939],[127.5919,35.8029],[127.5946,35.8085],[127.6006,35.8066],[127.6067,35.8298],[127.6178,35.8388],[127.6227,35.8313],[127.621,35.8241],[127.6295,35.8148]]]]}},{"type":"Feature","properties":{"code":"35350","name":"임실군"},"geometry":{"type":"MultiPolygon","coordinates":[[[[127.2725,35.7741],[127.2661,35.7693],[127.2656,35.7631],[127.2749,35.7545],[127.2812,35.7372],[127.2875,35.7333],[127.2935,35.7178],[127.2908,35.7053],[127.2943,35.6989],[127.2881,35.6871],[127.298,35.6828],[127.3062,35.6848],[127.3177,35.6773],[127.3233,35.6636],[127.3276,35.6608],[127.3563,35.6691],[127.3619,35.6668],[127.3645,35.6604],[127.3777,35.6644],[127.3782,35.6542],[127.388,35.6555],[127.4185,35.6412],[127.4283,35.642],[127.4327,35.6345],[127.4305,35.63],[127.4363,35.6221],[127.4253,35.6148],[127.3817,35.6132],[127.3727,35.6062],[127.3749,35.5981],[127.3718,35.5866],[127.377,35.5836],[127.3789,35.5764],[127.3635,35.5668],[127.3637,35.5582],[127.3588,35.5588],[127.3502,35.5515],[127.3434,35.5511],[127.3388,35.5545],[127.3346,35.5527],[127.3358,35.5477],[127.3496,35.5391],[127.3454,35.5272],[127.3377,35.5278],[127.3377,35.5257],[127.3539,35.5128],[127.357,35.501],[127.3529,35.4974],[127.3417,35.4966],[127.3336,35.4919],[127.3135,35.4966],[127.3071,35.4853],[127.3086,35.4779],[127.2925,35.4758],[127.2843,35.4789],[127.2743,35.473],[127.2446,35.4845],[127.2302,35.4746],[127.2174,35.4894],[127.203,35.4898],[127.1956,35.4883],[127.1755,35.473],[127.1779,35.4654],[127.1729,35.4598],[127.165,35.463],[127.1442,35.4619],[127.1291,35.5036],[127.1159,35.5042],[127.1095,35.5093],[127.1096,35.5194],[127.1015,35.5207],[127.0948,35.5156],[127.0939,35.5187],[127.0991,35.5234],[127.0979,35.5272],[127.1056,35.5336],[127.1163,35.5322],[127.1169,35.5349],[127.108,35.5423],[127.0839,35.5506],[127.0923,35.5671],[127.0831,35.5845],[127.1026,35.5902],[127.1048,35.5959],[127.0912,35.613],[127.0917,35.6207],[127.1059,35.6196],[127.1195,35.6332],[127.1321,35.6404],[127.1357,35.6471],[127.1274,35.6588],[127.1312,35.6692],[127.1264,35.6741],[127.1252,35.6912],[127.1297,35.6917],[127.1373,35.7022],[127.1393,35.7192],[127.1526,35.7252],[127.1623,35.7254],[127.1775,35.7376],[127.1862,35.7355],[127.1882,35.7311],[127.2062,35.7232],[127.2078,35.7111],[127.2239,35.7122],[127.2364,35.7034],[127.242,35.6966],[127.24,35.6902],[127.2467,35.6889],[127.2593,35.6931],[127.2507,35.718],[127.2562,35.7328],[127.2515,35.7353],[127.2536,35.7416],[127.2463,35.7482],[127.2449,35.756],[127.2543,35.7664],[127.2615,35.7695],[127.265,35.7768],[127.2715,35.7776],[127.2725,35.7741]]]]}},{"type":"Feature","properties":{"code":"35360","name":"순창군"},"geometry":{"type":"MultiPolygon","coordinates":[[[[126.8598,35.4797],[126.8731,35.4797],[126.8806,35.4849],[126.889,35.4784],[126.8979,35.4808],[126.9126,35.4768],[126.9227,35.4829],[126.9279,35.4794],[126.9359,35.482],[126.9359,35.4881],[126.9417,35.4909],[126.9355,35.4958],[126.9337,35.5072],[126.9298,35.5095],[126.9283,35.5189],[126.9311,35.5248],[126.9355,35.5238],[126.9394,35.5279],[126.948,35.5296],[126.9515,35.5327],[126.9512,35.5385],[126.9751,35.5561],[126.9801,35.5549],[126.9822,35.5481],[126.9929,35.537],[127.0191,35.5461],[127.0227,35.5361],[127.0391,35.5287],[127.0426,35.5228],[127.05,35.5212],[127.0506,35.5121],[127.0543,35.5094],[127.0668,35.5163],[127.0829,35.5068],[127.1078,35.5096],[127.1159,35.5042],[127.1291,35.5036],[127.1442,35.4619],[127.165,35.463],[127.1729,35.4598],[127.1779,35.4654],[127.175,35.4716],[127.1781,35.4752],[127.1956,35.4883],[127.2109,35.4902],[127.219,35.4881],[127.2302,35.4746],[127.2446,35.4845],[127.2486,35.4842],[127.2714,35.4732],[127.2843,35.4789],[127.2925,35.4758],[127.3086,35.4779],[127.3143,35.4662],[127.2982,35.4442],[127.2965,35.4334],[127.2911,35.4261],[127.2783,35.4248],[127.2737,35.4209],[127.2601,35.427],[127.2517,35.4173],[127.2471,35.3992],[127.2261,35.3988],[127.2127,35.3737],[127.2166,35.3716],[127.215,35.3694],[127.2018,35.357],[127.1931,35.3564],[127.1881,35.3488],[127.1871,35.3425],[127.1946,35.3389],[127.1609,35.3277],[127.1468,35.3154],[127.1455,35.309],[127.1301,35.3085],[127.126,35.3032],[127.1052,35.2992],[127.0799,35.3105],[127.0681,35.3114],[127.0618,35.3171],[127.0509,35.3167],[127.0431,35.3219],[127.0509,35.3294],[127.0523,35.3403],[127.0624,35.3363],[127.0702,35.3396],[127.0674,35.3455],[127.0699,35.3514],[127.0652,35.3565],[127.0706,35.3652],[127.0636,35.3699],[127.0643,35.376],[127.0576,35.3827],[127.0489,35.3774],[127.0391,35.3801],[127.0395,35.384],[127.0275,35.3947],[127.027,35.3999],[127.0417,35.3987],[127.0469,35.4022],[127.0451,35.4072],[127.0523,35.4265],[127.0448,35.4332],[127.0374,35.4339],[127.0347,35.4666],[127.0239,35.4642],[127.0143,35.4578],[127.003,35.4645],[127.0,35.4629],[126.998,35.4573],[127.0002,35.4524],[126.9945,35.4398],[126.9853,35.4367],[126.9816,35.4266],[126.9714,35.4277],[126.9703,35.4198],[126.9761,35.4],[126.9631,35.395],[126.9417,35.3943],[126.9354,35.3946],[126.9306,35.3988],[126.9332,35.4061],[126.9174,35.4021],[126.9185,35.4125],[126.9031,35.4206],[126.9043,35.4297],[126.8976,35.433],[126.9051,35.4408],[126.8996,35.4427],[126.8968,35.448],[126.8841,35.4513],[126.8811,35.4559],[126.8691,35.4615],[126.8598,35.4797]]]]}},{"type":"Feature","properties":{"code":"35370","name":"고창군"},"geometry":{"type":"MultiPolygon","coordinates":[[[[126.4391,35.4503],[126.4621,35.4804],[126.474,35.5065],[126.4849,35.5223],[126.4911,35.5118],[126.4968,35.5099],[126.4936,35.5163],[126.4978,35.5173],[126.5025,35.5253],[126.5179,35.533],[126.5254,35.5322],[126.5264,35.5348],[126.5411,35.534],[126.5433,35.5326],[126.5417,35.5276],[126.5443,35.5273],[126.5475,35.5346],[126.5497,35.5336],[126.5488,35.5376],[126.5557,35.5367],[126.5599,35.5433],[126.5812,35.5446],[126.5945,35.541],[126.5923,35.5337],[126.5954,35.5297],[126.5939,35.5346],[126.5998,35.5433],[126.5977,35.5443],[126.6108,35.5576],[126.6141,35.5705],[126.6241,35.5683],[126.626,35.5734],[126.6332,35.5747],[126.6475,35.5716],[126.668,35.5527],[126.6731,35.5508],[126.6749,35.5462],[126.6751,35.5506],[126.6667,35.5555],[126.6642,35.566],[126.6776,35.572],[126.6921,35.5695],[126.7051,35.5748],[126.7397,35.5683],[126.7411,35.5715],[126.747,35.57],[126.7544,35.5743],[126.761,35.5712],[126.7694,35.5608],[126.7627,35.555],[126.7662,35.5491],[126.7622,35.5447],[126.7611,35.533],[126.7736,35.5238],[126.7596,35.5142],[126.7607,35.5105],[126.7706,35.5076],[126.7684,35.4961],[126.7643,35.4931],[126.7703,35.4822],[126.7726,35.4679],[126.763,35.4663],[126.7481,35.4506],[126.741,35.453],[126.7377,35.4495],[126.7438,35.4407],[126.7517,35.4359],[126.7542,35.4165],[126.7487,35.4156],[126.7362,35.4034],[126.7225,35.3999],[126.7296,35.3946],[126.7322,35.3832],[126.7313,35.3769],[126.7225,35.3669],[126.7046,35.3651],[126.6993,35.3501],[126.6918,35.3514],[126.6857,35.3442],[126.6664,35.3515],[126.6531,35.328],[126.6443,35.3272],[126.647,35.3247],[126.6448,35.3198],[126.6264,35.3214],[126.6042,35.3357],[126.5981,35.3301],[126.5835,35.3291],[126.5809,35.3173],[126.5894,35.3175],[126.5849,35.3008],[126.5767,35.3044],[126.5727,35.3101],[126.564,35.3095],[126.5511,35.3137],[126.5323,35.3067],[126.5299,35.3123],[126.5237,35.3148],[126.5206,35.3253],[126.5139,35.3275],[126.5205,35.3483],[126.5128,35.362],[126.5038,35.3587],[126.4969,35.35],[126.4935,35.3504],[126.4921,35.3541],[126.4961,35.3576],[126.4974,35.3732],[126.4862,35.3776],[126.4829,35.3846],[126.4774,35.3862],[126.4906,35.3951],[126.4916,35.4113],[126.4804,35.421],[126.476,35.4293],[126.4642,35.4254],[126.4502,35.4279],[126.4463,35.4353],[126.4299,35.4329],[126.4367,35.4485],[126.4295,35.4496],[126.4391,35.4503]]]]}},{"type":"Feature","properties":{"code":"35380","name":"부안군"},"geometry":{"type":"MultiPolygon","coordinates":[[[[126.3156,35.6108],[126.3039,35.5959],[126.29,35.5927],[126.2791,35.5794],[126.2654,35.5759],[126.2626,35.5711],[126.267,35.5667],[126.2555,35.5738],[126.2548,35.5802],[126.2503,35.581],[126.2538,35.5838],[126.2495,35.5841],[126.2485,35.5873],[126.2708,35.5901],[126.2691,35.5934],[126.2567,35.5938],[126.2594,35.5986],[126.2643,35.5952],[126.273,35.5992],[126.2677,35.6048],[126.2714,35.6057],[126.2708,35.6087],[126.2756,35.6043],[126.282,35.6057],[126.2753,35.6171],[126.2846,35.6149],[126.2939,35.6043],[126.2968,35.6124],[126.3035,35.6128],[126.3015,35.6153],[126.2999,35.62],[126.3051,35.6173],[126.3044,35.6206],[126.3013,35.6204],[126.3039,35.6219],[126.3156,35.6108]]],[[[126.2901,35.6335],[126.2949,35.6285],[126.2853,35.6236],[126.285,35.6206],[126.2824,35.6255],[126.2859,35.6264],[126.286,35.63],[126.2781,35.6292],[126.2764,35.6256],[126.2734,35.626],[126.2757,35.6306],[126.2721,35.632],[126.2793,35.6351],[126.2901,35.6335]]],[[[126.1245,35.644],[126.1302,35.6366],[126.1243,35.6339],[126.1209,35.6404],[126.1127,35.6383],[126.1125,35.6443],[126.1245,35.644]]],[[[126.1105,35.6559],[126.1002,35.6597],[126.1036,35.664],[126.111,35.6669],[126.1105,35.6559]]],[[[126.763,35.7966],[126.7831,35.7517],[126.7958,35.7534],[126.7989,35.7426],[126.8067,35.7454],[126.8065,35.7328],[126.8092,35.7309],[126.8048,35.7264],[126.8136,35.729],[126.8113,35.7231],[126.8181,35.7254],[126.8131,35.7156],[126.8224,35.7169],[126.8232,35.7126],[126.8269,35.7156],[126.8263,35.712],[126.8348,35.7038],[126.8335,35.7009],[126.8409,35.6977],[126.8271,35.68],[126.8142,35.6833],[126.8058,35.6758],[126.798,35.6848],[126.7871,35.6753],[126.773,35.6836],[126.765,35.6732],[126.7632,35.662],[126.7553,35.6669],[126.7516,35.6677],[126.7502,35.6635],[126.744,35.6664],[126.7378,35.6503],[126.7268,35.6482],[126.7203,35.6302],[126.7243,35.5836],[126.7165,35.5814],[126.7181,35.5733],[126.7042,35.5748],[126.6921,35.5695],[126.6777,35.572],[126.6732,35.5699],[126.6648,35.5759],[126.6575,35.5869],[126.6512,35.5806],[126.6206,35.5884],[126.6041,35.5864],[126.5936,35.5901],[126.5858,35.5879],[126.575,35.5904],[126.5576,35.5849],[126.5461,35.5861],[126.5292,35.5793],[126.5167,35.5807],[126.5151,35.5877],[126.5105,35.5829],[126.5122,35.5792],[126.5087,35.5792],[126.4987,35.5859],[126.4918,35.5859],[126.4877,35.5898],[126.4872,35.5957],[126.478,35.6023],[126.4692,35.6026],[126.4665,35.5987],[126.4673,35.606],[126.4599,35.6105],[126.463,35.6185],[126.4699,35.6188],[126.4693,35.6234],[126.4637,35.6234],[126.4692,35.628],[126.4686,35.6314],[126.4669,35.6348],[126.4619,35.6335],[126.4581,35.6378],[126.4654,35.6398],[126.466,35.6435],[126.481,35.6454],[126.4921,35.6554],[126.5134,35.6664],[126.521,35.6763],[126.5247,35.6784],[126.5263,35.6749],[126.5333,35.69],[126.5564,35.6978],[126.5334,35.7248],[126.527,35.7269],[126.5245,35.7327],[126.5319,35.7306],[126.5582,35.6982],[126.5669,35.6942],[126.5694,35.6864],[126.5725,35.6907],[126.569,35.6928],[126.5805,35.7009],[126.5842,35.7072],[126.5974,35.7146],[126.6112,35.736],[126.6286,35.7491],[126.6273,35.7806],[126.6214,35.7869],[126.6315,35.7995],[126.6374,35.7988],[126.6394,35.7939],[126.6528,35.7919],[126.6974,35.7981],[126.7065,35.7964],[126.6982,35.8129],[126.763,35.7966]]]]}}]}