{"type":"FeatureCollection","features":[{"type":"Feature","properties":{"code":"38030","name":"진주시"},"geometry":{"type":"MultiPolygon","coordinates":[[[[128.1636,35.3425],[128.1644,35.3362],[128.1788,35.3212],[128.1776,35.3167],[128.1726,35.314],[128.1776,35.2989],[128.1744,35.2927],[128.1795,35.2857],[128.1802,35.2791],[128.1957,35.2656],[128.1939,35.2565],[128.2015,35.2537],[128.206,35.2629],[128.2118,35.2653],[128.2195,35.2647],[128.2382,35.2537],[128.274,35.2574],[128.2864,35.2516],[128.2936,35.2534],[128.2986,35.2499],[128.2938,35.2408],[128.3064,35.2336],[128.3074,35.2215],[128.3197,35.2207],[128.3287,35.2069],[128.3496,35.2101],[128.3572,35.2068],[128.3682,35.1913],[128.3613,35.1633],[128.3622,35.1522],[128.3585,35.1469],[128.3628,35.1402],[128.3581,35.1396],[128.3481,35.1308],[128.3483,35.1271],[128.3384,35.1279],[128.3339,35.1246],[128.3281,35.124],[128.3226,35.1299],[128.3064,35.125],[128.2892,35.1314],[128.2737,35.1324],[128.2635,35.1271],[128.2473,35.1283],[128.2419,35.1208],[128.2287,35.1168],[128.2277,35.1139],[128.2116,35.1147],[128.1991,35.1051],[128.201,35.1005],[128.1984,35.0963],[128.1904,35.0979],[128.1877,35.0894],[128.191,35.0766],[128.2063,35.0764],[128.211,35.0733],[128.1962,35.065],[128.1867,35.0517],[128.1724,35.052],[128.1649,35.0636],[128.156,35.0658],[128.1479,35.0776],[128.1693,35.0838],[128.1721,35.0953],[128.1627,35.1016],[128.1588,35.1008],[128.1555,35.1088],[128.1473,35.1145],[128.1242,35.1157],[128.1181,35.1142],[128.1091,35.1055],[128.0985,35.1066],[128.0915,35.101],[128.0893,35.1043],[128.0911,35.1161],[128.0883,35.1185],[128.0706,35.1283],[128.0564,35.1278],[128.0506,35.1315],[128.0487,35.1246],[128.043,35.1207],[128.0281,35.1229],[128.0226,35.1173],[128.0171,35.1186],[128.0097,35.1138],[128.0026,35.1142],[128.0,35.1233],[128.0031,35.1336],[127.9967,35.1449],[127.9993,35.1465],[127.9986,35.1554],[127.9688,35.1587],[127.9634,35.1525],[127.9635,35.1556],[127.958,35.1577],[127.951,35.152],[127.9386,35.1526],[127.9378,35.1677],[127.9249,35.1783],[127.9083,35.1843],[127.8948,35.197],[127.8945,35.2079],[127.888,35.2165],[127.8899,35.2275],[127.9056,35.2226],[127.9094,35.224],[127.9113,35.2403],[127.9209,35.2523],[127.9243,35.2493],[127.9388,35.2486],[127.9476,35.2417],[127.9668,35.2465],[127.9697,35.2513],[127.9714,35.2501],[127.9735,35.27],[127.9829,35.2705],[127.9854,35.2736],[127.9862,35.2869],[127.9959,35.286],[128.0152,35.3031],[128.0346,35.3078],[128.0434,35.3047],[128.0523,35.3127],[128.0509,35.321],[128.0586,35.3336],[128.0723,35.333],[128.0805,35.337],[128.1016,35.335],[128.1156,35.33],[128.1458,35.3486],[128.1566,35.3496],[128.1636,35.3425]]]]}},{"type":"Feature","properties":{"code":"38050","name":"통영시"},"geometry":{"type":"MultiPolygon","coordinates":[[[[128.4372,34.5376],[128.4343,34.5401],[128.4446,34.5483],[128.4487,34.5476],[128.4447,34.541],[128.4372,34.5376]]],[[[128.1902,34.569],[128.1885,34.5632],[128.1823,34.5586],[128.1767,34.5585],[128.1834,34.5626],[128.183,34.5725],[128.1902,34.569]]],[[[128.3082,34.6153],[128.2989,34.6182],[128.302,34.6252],[128.3072,34.6216],[128.3082,34.6153]]],[[[128.556,34.6288],[128.5491,34.6216],[128.5503,34.6185],[128.546,34.619],[128.548,34.6219],[128.5454,34.629],[128.5543,34.6309],[128.556,34.6288]]],[[[128.2478,34.6517],[128.2757,34.6392],[128.2736,34.6347],[128.265,34.6344],[128.2748,34.6247],[128.2844,34.6385],[128.2904,34.6409],[128.2992,34.639],[128.2936,34.635],[128.2965,34.6314],[128.2896,34.6302],[128.2864,34.6261],[128.2889,34.6208],[128.2757,34.6194],[128.2641,34.6277],[128.2582,34.6208],[128.2438,34.6183],[128.2452,34.6133],[128.2392,34.611],[128.2309,34.6169],[128.2427,34.6197],[128.2426,34.6238],[128.2351,34.6281],[128.2375,34.6349],[128.2279,34.6312],[128.2235,34.6378],[128.2351,34.6405],[128.235,34.6441],[128.2277,34.6488],[128.2341,34.6528],[128.2478,34.6517]]],[[[128.3676,34.6462],[128.3681,34.6417],[128.3718,34.6396],[128.3766,34.6453],[128.3807,34.6403],[128.3759,34.6392],[128.3768,34.6348],[128.3623,34.643],[128.3545,34.6397],[128.346,34.6416],[128.3441,34.6494],[128.3537,34.6513],[128.3676,34.6462]]],[[[128.562,34.6362],[128.5712,34.6419],[128.5737,34.6496],[128.5792,34.6506],[128.5784,34.6471],[128.5851,34.6444],[128.574,34.6344],[128.5652,34.6326],[128.562,34.6362]]],[[[128.3471,34.6621],[128.3523,34.6562],[128.3414,34.6579],[128.3412,34.6621],[128.3471,34.6621]]],[[[128.2514,34.6624],[128.2432,34.6664],[128.2544,34.6682],[128.257,34.6657],[128.2514,34.6624]]],[[[128.2554,34.6712],[128.2533,34.6704],[128.2289,34.6729],[128.2332,34.6772],[128.2528,34.6799],[128.2554,34.6712]]],[[[128.574,34.6823],[128.5778,34.6887],[128.5821,34.6841],[128.5827,34.681],[128.574,34.6823]]],[[[128.1896,34.7108],[128.1992,34.7059],[128.2023,34.6912],[128.1947,34.6858],[128.1964,34.6914],[128.183,34.6912],[128.1685,34.7013],[128.1681,34.7067],[128.1756,34.7116],[128.1896,34.7108]]],[[[128.5528,34.7173],[128.5532,34.7183],[128.5593,34.7161],[128.566,34.7075],[128.5615,34.7069],[128.5528,34.7173]]],[[[128.4232,34.7266],[128.4271,34.7342],[128.4294,34.7286],[128.4273,34.7196],[128.4232,34.7266]]],[[[128.5352,34.7292],[128.5306,34.7273],[128.52,34.7285],[128.5231,34.7329],[128.5361,34.7335],[128.5352,34.7292]]],[[[128.4526,34.7045],[128.4476,34.7086],[128.4507,34.7136],[128.4597,34.7172],[128.4545,34.7273],[128.4642,34.7359],[128.4717,34.7293],[128.4606,34.7186],[128.4673,34.7086],[128.4622,34.7037],[128.4526,34.7045]]],[[[128.406,34.7347],[128.4061,34.7294],[128.4002,34.7293],[128.3929,34.7357],[128.4007,34.7392],[128.406,34.7347]]],[[[128.5017,34.74],[128.5141,34.7369],[128.5141,34.7344],[128.5044,34.7322],[128.5016,34.7385],[128.4955,34.7317],[128.4816,34.7398],[128.4658,34.7412],[128.4751,34.7463],[128.4854,34.7451],[128.4939,34.7503],[128.5017,34.74]]],[[[128.4163,34.7486],[128.4182,34.7463],[128.4044,34.7419],[128.4034,34.7461],[128.3991,34.7465],[128.404,34.7516],[128.4109,34.7473],[128.4163,34.7486]]],[[[128.4262,34.7545],[128.4222,34.7458],[128.4196,34.7446],[128.4159,34.7448],[128.4181,34.745],[128.4216,34.7487],[128.4214,34.7548],[128.4262,34.7545]]],[[[128.3086,34.7558],[128.3068,34.7512],[128.3011,34.7538],[128.2975,34.75],[128.3028,34.7456],[128.2915,34.7494],[128.2862,34.759],[128.2943,34.7632],[128.3086,34.7558]]],[[[128.5386,34.7564],[128.5456,34.7611],[128.5585,34.7598],[128.56,34.7556],[128.5537,34.7535],[128.5608,34.7507],[128.5516,34.7481],[128.5365,34.7549],[128.5249,34.7548],[128.5114,34.7606],[128.5094,34.7649],[128.5341,34.7645],[128.5298,34.7591],[128.5386,34.7564]]],[[[128.3741,34.7827],[128.3719,34.7761],[128.3633,34.7769],[128.3601,34.7744],[128.3558,34.7777],[128.3674,34.7858],[128.3741,34.7827]]],[[[128.5129,34.7936],[128.5107,34.7957],[128.5192,34.7979],[128.5202,34.792],[128.5129,34.7936]]],[[[128.5108,34.8004],[128.5075,34.7997],[128.5044,34.7871],[128.4945,34.7934],[128.4984,34.8025],[128.5108,34.8004]]],[[[128.4778,34.8136],[128.4796,34.8084],[128.4875,34.8116],[128.4849,34.8067],[128.4917,34.8006],[128.4895,34.7956],[128.4934,34.7824],[128.505,34.7844],[128.5042,34.7816],[128.5103,34.7776],[128.5084,34.7667],[128.5023,34.7658],[128.4912,34.7575],[128.4786,34.7623],[128.4675,34.7609],[128.4734,34.7705],[128.4727,34.776],[128.4686,34.7833],[128.4595,34.7865],[128.4632,34.7916],[128.4617,34.8049],[128.4682,34.801],[128.4663,34.7876],[128.4689,34.795],[128.4729,34.7939],[128.4733,34.8033],[128.4765,34.8042],[128.4846,34.7981],[128.4783,34.8061],[128.469,34.8049],[128.4656,34.813],[128.4694,34.8178],[128.4784,34.8156],[128.4844,34.8178],[128.4778,34.8136]]],[[[128.3477,34.816],[128.3468,34.8195],[128.351,34.822],[128.3587,34.8196],[128.3575,34.8136],[128.3477,34.816]]],[[[128.1437,34.8311],[128.1398,34.8272],[128.1416,34.8251],[128.1343,34.8238],[128.1246,34.8312],[128.1269,34.8356],[128.1437,34.8311]]],[[[128.2418,34.8298],[128.2449,34.833],[128.2496,34.8246],[128.2655,34.8182],[128.2661,34.815],[128.2548,34.8081],[128.2458,34.8099],[128.245,34.8132],[128.2382,34.811],[128.2427,34.8084],[128.2453,34.8013],[128.242,34.7949],[128.2386,34.7951],[128.2368,34.8013],[128.2238,34.8015],[128.2241,34.808],[128.2104,34.8076],[128.2091,34.8109],[128.216,34.8134],[128.1994,34.8187],[128.2008,34.8252],[128.2137,34.8211],[128.2069,34.8272],[128.2177,34.839],[128.2259,34.8379],[128.2363,34.8415],[128.2418,34.8298]]],[[[128.3568,34.841],[128.359,34.8379],[128.3561,34.8318],[128.367,34.8317],[128.3703,34.8343],[128.3741,34.8293],[128.3783,34.8295],[128.3853,34.8135],[128.3878,34.8155],[128.384,34.8295],[128.3928,34.8232],[128.4083,34.834],[128.4213,34.8357],[128.4219,34.833],[128.4351,34.8284],[128.4349,34.8253],[128.4398,34.8286],[128.437,34.8296],[128.4385,34.8297],[128.4407,34.8281],[128.4393,34.8126],[128.4423,34.8036],[128.4359,34.8025],[128.4335,34.809],[128.4311,34.8023],[128.4401,34.7947],[128.4345,34.7894],[128.4196,34.7924],[128.4358,34.7806],[128.4244,34.7708],[128.4238,34.762],[128.4212,34.7652],[128.4064,34.7624],[128.4043,34.7643],[128.4066,34.7682],[128.3975,34.7654],[128.3954,34.7747],[128.3973,34.7796],[128.3858,34.7799],[128.3913,34.7863],[128.3818,34.7927],[128.3837,34.7969],[128.3774,34.7955],[128.3751,34.7887],[128.3737,34.794],[128.3637,34.7965],[128.3691,34.8009],[128.3721,34.7999],[128.3723,34.803],[128.3783,34.7986],[128.3807,34.806],[128.3759,34.808],[128.3817,34.8112],[128.3789,34.8154],[128.3673,34.8185],[128.3573,34.8255],[128.3456,34.8254],[128.3403,34.818],[128.3349,34.8181],[128.3297,34.8296],[128.3371,34.8274],[128.3334,34.8344],[128.3403,34.8282],[128.3381,34.8427],[128.3421,34.8416],[128.3444,34.8314],[128.3491,34.835],[128.3484,34.8423],[128.3536,34.8427],[128.3549,34.8389],[128.3568,34.841]]],[[[128.2115,34.8515],[128.2236,34.8521],[128.2324,34.8446],[128.2042,34.842],[128.1999,34.8393],[128.1989,34.8319],[128.1923,34.827],[128.1818,34.8272],[128.1791,34.8314],[128.1841,34.8339],[128.1834,34.8364],[128.1685,34.8411],[128.1676,34.8516],[128.2005,34.8596],[128.2115,34.8515]]],[[[128.4749,34.9188],[128.4726,34.9149],[128.4787,34.909],[128.4762,34.9046],[128.4685,34.9051],[128.4643,34.9088],[128.4676,34.9174],[128.466,34.9213],[128.4749,34.9188]]],[[[128.4845,34.9339],[128.4877,34.9389],[128.4914,34.932],[128.4871,34.929],[128.4845,34.9339]]],[[[128.4907,34.9538],[128.4842,34.9546],[128.4821,34.9636],[128.4867,34.9681],[128.4851,34.9598],[128.4907,34.9538]]],[[[128.4438,34.9685],[128.4291,34.9569],[128.4302,34.9452],[128.4249,34.9408],[128.4316,34.9325],[128.436,34.9315],[128.4285,34.9283],[128.4287,34.9141],[128.4255,34.9164],[128.4177,34.9102],[128.4208,34.9045],[128.4258,34.9038],[128.422,34.9019],[128.4184,34.8916],[128.4235,34.8838],[128.4212,34.8732],[128.4326,34.8773],[128.4345,34.8843],[128.4309,34.8848],[128.4321,34.8883],[128.4455,34.8885],[128.4389,34.893],[128.4442,34.8999],[128.4514,34.9029],[128.4382,34.912],[128.4404,34.9133],[128.4526,34.9148],[128.4524,34.9103],[128.4605,34.905],[128.4539,34.9007],[128.464,34.8996],[128.4659,34.8917],[128.4732,34.894],[128.4755,34.8901],[128.4686,34.8875],[128.4711,34.8844],[128.4664,34.8712],[128.4604,34.873],[128.4599,34.8812],[128.4552,34.8815],[128.4553,34.8746],[128.4519,34.8738],[128.4565,34.8648],[128.4502,34.8681],[128.4469,34.8656],[128.4524,34.8568],[128.4522,34.8465],[128.4413,34.8426],[128.4336,34.8447],[128.4327,34.8411],[128.44,34.8404],[128.4348,34.8382],[128.4275,34.8396],[128.4246,34.8445],[128.4252,34.8396],[128.4182,34.8398],[128.405,34.8326],[128.402,34.8361],[128.3987,34.8353],[128.3959,34.8295],[128.3927,34.8295],[128.3932,34.8343],[128.3834,34.8356],[128.3834,34.838],[128.3889,34.839],[128.3879,34.8425],[128.3817,34.8439],[128.3769,34.8402],[128.3718,34.8442],[128.3776,34.8458],[128.3696,34.85],[128.3723,34.853],[128.3783,34.8516],[128.3851,34.8578],[128.3842,34.8614],[128.3872,34.8595],[128.3885,34.8628],[128.3968,34.8629],[128.397,34.8583],[128.4009,34.8623],[128.4181,34.8594],[128.4194,34.8655],[128.3856,34.8682],[128.386,34.8726],[128.391,34.8736],[128.3881,34.8762],[128.3812,34.8732],[128.3852,34.8817],[128.3811,34.8892],[128.3763,34.8911],[128.3789,34.8833],[128.3751,34.8819],[128.3689,34.8853],[128.376,34.8715],[128.3744,34.8695],[128.3682,34.8726],[128.356,34.8711],[128.3574,34.8802],[128.3531,34.8791],[128.3491,34.8875],[128.3505,34.8767],[128.3483,34.8731],[128.3422,34.8743],[128.3407,34.8823],[128.3335,34.8829],[128.3321,34.8812],[128.3372,34.8776],[128.3283,34.8759],[128.3251,34.8811],[128.3285,34.8863],[128.317,34.8798],[128.3091,34.8935],[128.2978,34.9001],[128.3086,34.9088],[128.339,34.9085],[128.3504,34.9055],[128.3545,34.908],[128.3509,34.9163],[128.3546,34.9194],[128.3461,34.9215],[128.3507,34.9236],[128.3438,34.9257],[128.3415,34.9237],[128.3355,34.9214],[128.3375,34.9268],[128.3409,34.9239],[128.3452,34.9293],[128.3467,34.9403],[128.381,34.947],[128.3894,34.952],[128.3891,34.961],[128.392,34.9637],[128.3999,34.964],[128.4006,34.9708],[128.4156,34.9672],[128.423,34.9754],[128.4321,34.9764],[128.4438,34.9685]]]]}},{"type":"Feature","properties":{"code":"38060","name":"사천시"},"geometry":{"type":"MultiPolygon","coordinates":[[[[128.0802,34.9076],[128.078,34.9041],[128.0821,34.8984],[128.0755,34.8932],[128.0811,34.8895],[128.0746,34.886],[128.0709,34.8901],[128.0762,34.9022],[128.0716,34.9089],[128.0802,34.9076]]],[[[128.033,34.9247],[128.035,34.9274],[128.0418,34.9217],[128.0371,34.9188],[128.033,34.9247]]],[[[127.9713,34.9841],[127.9659,34.9818],[127.9735,34.9805],[127.9804,34.9688],[127.9864,34.9667],[127.9873,34.9729],[127.9921,34.9698],[127.9936,34.9719],[127.9947,34.9687],[127.9823,34.9633],[127.9621,34.9716],[127.9657,34.9895],[127.9713,34.9841]]],[[[128.0142,35.0286],[128.0056,35.0334],[128.0195,35.0407],[128.0099,35.0499],[128.0086,35.0475],[128.0141,35.0396],[128.0086,35.0385],[128.0041,35.0446],[128.0027,35.0425],[127.9871,35.0465],[127.9843,35.0451],[127.9826,35.037],[127.9761,35.033],[127.988,35.0332],[127.9882,35.0391],[127.9961,35.0377],[127.9943,35.032],[128.009,35.0221],[128.0079,35.0126],[128.0184,35.01],[128.0199,35.0046],[128.0147,34.9917],[128.0075,34.9959],[128.008,34.9823],[128.0037,34.9835],[128.0055,34.9882],[127.9999,34.9836],[128.0022,34.9894],[127.9979,34.996],[127.9934,34.9917],[127.9952,34.9845],[127.9929,34.9881],[127.9884,34.9878],[127.9919,34.9821],[127.9884,34.9769],[127.9827,34.9758],[127.9727,34.9864],[127.9728,34.993],[127.9674,34.9917],[127.9646,34.9949],[127.9617,34.9945],[127.9619,34.9901],[127.9567,34.9845],[127.9529,34.9866],[127.9472,34.9836],[127.9535,34.9809],[127.9482,34.9799],[127.9527,34.9756],[127.9349,34.9815],[127.9397,34.9851],[127.9316,34.9922],[127.9411,34.9988],[127.9349,34.9984],[127.9412,35.0014],[127.9407,35.0042],[127.9227,35.0142],[127.9205,35.0232],[127.9252,35.0295],[127.9239,35.0418],[127.9307,35.049],[127.9247,35.0537],[127.9204,35.0642],[127.9145,35.0645],[127.9117,35.0734],[127.9083,35.0734],[127.9063,35.0788],[127.8977,35.0791],[127.8935,35.0866],[127.9023,35.0876],[127.9019,35.0953],[127.9093,35.0981],[127.8994,35.1074],[127.9105,35.1207],[127.8854,35.1305],[127.879,35.1457],[127.8986,35.1567],[127.9097,35.1484],[127.913,35.151],[127.9214,35.1503],[127.9299,35.1448],[127.9314,35.1495],[127.9386,35.1526],[127.951,35.152],[127.958,35.1577],[127.9635,35.1556],[127.9634,35.1525],[127.9688,35.1587],[127.9721,35.1563],[127.9791,35.1588],[127.9986,35.1554],[127.9993,35.1465],[127.9967,35.1449],[128.0031,35.1336],[128.0,35.1233],[128.0026,35.1142],[128.0097,35.1138],[128.0171,35.1186],[128.0226,35.1173],[128.0281,35.1229],[128.043,35.1207],[128.0487,35.1246],[128.0506,35.1315],[128.0564,35.1278],[128.0706,35.1283],[128.0883,35.1185],[128.0911,35.1161],[128.0893,35.1043],[128.0915,35.101],[128.0985,35.1066],[128.1091,35.1055],[128.1185,35.1143],[128.1431,35.1159],[128.1543,35.11],[128.1588,35.1008],[128.1627,35.1016],[128.1721,35.0953],[128.1693,35.0838],[128.1514,35.0802],[128.1488,35.0751],[128.152,35.0744],[128.156,35.0658],[128.1624,35.0662],[128.1724,35.052],[128.1781,35.0535],[128.1843,35.0509],[128.18,35.0385],[128.1734,35.0313],[128.1629,35.0276],[128.1606,35.02],[128.158,35.0062],[128.1702,34.9847],[128.1662,34.9835],[128.1524,34.9913],[128.1434,34.9895],[128.1344,34.9796],[128.133,34.9611],[128.1231,34.9491],[128.1228,34.9389],[128.1143,34.9339],[128.1197,34.9224],[128.1056,34.9221],[128.1015,34.9252],[128.0981,34.9204],[128.0957,34.9264],[128.0887,34.9189],[128.0832,34.917],[128.088,34.9262],[128.0796,34.9285],[128.0742,34.9227],[128.072,34.9274],[128.0551,34.9285],[128.0402,34.9413],[128.0394,34.9465],[128.0298,34.9578],[128.051,34.9704],[128.0524,34.977],[128.0441,34.9828],[128.0387,34.9967],[128.0397,35.003],[128.0505,35.0161],[128.0431,35.0246],[128.0376,35.0209],[128.0396,35.0155],[128.0354,35.0236],[128.0422,35.0313],[128.0388,35.0377],[128.0427,35.0468],[128.0384,35.0488],[128.0395,35.0568],[128.0449,35.0671],[128.0613,35.0791],[128.0578,35.078],[128.0541,35.0817],[128.0461,35.0759],[128.0346,35.0774],[128.0401,35.0758],[128.0412,35.0725],[128.0325,35.0694],[128.0348,35.0627],[128.0258,35.0566],[128.0257,35.0517],[128.031,35.0496],[128.0264,35.0425],[128.0257,35.0338],[128.0142,35.0286]]]]}},{"type":"Feature","properties":{"code":"38070","name":"김해시"},"geometry":{"type":"MultiPolygon","coordinates":[[[[128.8695,35.3918],[128.8796,35.3684],[128.9126,35.3642],[128.9456,35.3378],[128.9689,35.3282],[128.9731,35.3102],[128.9809,35.2994],[129.0041,35.2847],[129.0148,35.2705],[128.9988,35.2381],[128.9897,35.2317],[128.9736,35.2274],[128.9499,35.2252],[128.9402,35.2274],[128.9201,35.2164],[128.9125,35.2225],[128.9092,35.2206],[128.9093,35.2229],[128.905,35.2201],[128.9084,35.2168],[128.8968,35.2132],[128.8864,35.2145],[128.879,35.21],[128.8704,35.2016],[128.8817,35.182],[128.8811,35.1718],[128.8724,35.1723],[128.8814,35.1613],[128.8744,35.1586],[128.8763,35.1517],[128.8742,35.1508],[128.8652,35.1582],[128.8721,35.1626],[128.8674,35.1677],[128.8463,35.1647],[128.8429,35.158],[128.836,35.1591],[128.8275,35.1556],[128.816,35.1602],[128.7862,35.1571],[128.7631,35.1688],[128.757,35.1682],[128.7557,35.1649],[128.741,35.1672],[128.7506,35.2015],[128.7432,35.2062],[128.728,35.207],[128.7225,35.2144],[128.7213,35.2254],[128.7263,35.2398],[128.7233,35.2444],[128.7194,35.2437],[128.7113,35.2632],[128.7025,35.2976],[128.6923,35.3044],[128.6922,35.3081],[128.7148,35.3104],[128.7114,35.3152],[128.7136,35.3229],[128.7179,35.3256],[128.7326,35.316],[128.739,35.3172],[128.7425,35.3207],[128.7416,35.3307],[128.75,35.3323],[128.7502,35.3394],[128.7532,35.3344],[128.7641,35.3455],[128.7861,35.3513],[128.8065,35.3763],[128.8595,35.3955],[128.8695,35.3918]]]]}},{"type":"Feature","properties":{"code":"38080","name":"밀양시"},"geometry":{"type":"MultiPolygon","coordinates":[[[[128.9613,35.6206],[128.9609,35.6156],[128.9826,35.6087],[129.0027,35.6203],[129.0085,35.6159],[129.0225,35.6142],[129.0228,35.5913],[129.0189,35.5838],[129.0079,35.5802],[128.9958,35.5679],[128.9712,35.5603],[128.9809,35.5464],[128.9893,35.5516],[128.999,35.54],[128.9888,35.5217],[128.9896,35.5166],[128.9773,35.5076],[128.9621,35.5094],[128.9585,35.5055],[128.958,35.4989],[128.9676,35.49],[128.9632,35.4845],[128.9676,35.4673],[128.9632,35.4666],[128.9613,35.4609],[128.9501,35.4543],[128.9424,35.4564],[128.9185,35.4518],[128.91,35.4447],[128.9064,35.4373],[128.9223,35.426],[128.9237,35.4208],[128.9132,35.4145],[128.9035,35.4198],[128.8909,35.4145],[128.8903,35.404],[128.8794,35.3981],[128.8806,35.3865],[128.8747,35.3823],[128.8724,35.3822],[128.8695,35.3918],[128.8595,35.3955],[128.8065,35.3763],[128.7861,35.3513],[128.7751,35.3464],[128.7433,35.3482],[128.7179,35.3665],[128.6894,35.3776],[128.6507,35.3749],[128.6474,35.3803],[128.6516,35.3818],[128.6496,35.3855],[128.6385,35.385],[128.6441,35.3881],[128.6442,35.3932],[128.6495,35.398],[128.6459,35.4127],[128.6512,35.4261],[128.6472,35.4307],[128.6362,35.4348],[128.6318,35.4475],[128.6261,35.452],[128.615,35.4461],[128.5993,35.4528],[128.5832,35.4536],[128.5773,35.4597],[128.579,35.4667],[128.5739,35.4725],[128.5712,35.4924],[128.5775,35.5063],[128.5859,35.5065],[128.5918,35.5149],[128.5827,35.5238],[128.5826,35.5327],[128.5774,35.5374],[128.5911,35.537],[128.5925,35.5404],[128.5856,35.5553],[128.5891,35.5572],[128.5891,35.5625],[128.5836,35.5666],[128.5847,35.5797],[128.5905,35.5838],[128.6029,35.5801],[128.6307,35.5874],[128.6365,35.5847],[128.6441,35.5931],[128.6563,35.5979],[128.6644,35.5938],[128.6742,35.5961],[128.6892,35.5945],[128.6949,35.5834],[128.7033,35.578],[128.715,35.5776],[128.724,35.5816],[128.732,35.576],[128.7374,35.5772],[128.7572,35.5677],[128.7675,35.5699],[128.7855,35.5669],[128.795,35.5733],[128.8026,35.5891],[128.8336,35.5974],[128.8447,35.5896],[128.8648,35.609],[128.8739,35.6216],[128.8754,35.6323],[128.8815,35.6355],[128.8872,35.6291],[128.8919,35.6293],[128.9151,35.6406],[128.9512,35.6302],[128.9613,35.6206]]]]}},{"type":"Feature","properties":{"code":"38090","name":"거제시"},"geometry":{"type":"MultiPolygon","coordinates":[[[[128.7179,34.7885],[128.7163,34.781],[128.713,34.7814],[128.711,34.7869],[128.7179,34.7885]]],[[[128.5349,34.8031],[128.5279,34.8028],[128.5265,34.8118],[128.531,34.8132],[128.5366,34.8239],[128.5466,34.8234],[128.5468,34.8171],[128.5349,34.8031]]],[[[128.7513,34.8194],[128.7533,34.8172],[128.7471,34.8152],[128.7494,34.824],[128.7543,34.8267],[128.7513,34.8194]]],[[[128.4737,34.8329],[128.471,34.8292],[128.4795,34.825],[128.4768,34.8209],[128.463,34.8273],[128.4638,34.8341],[128.4737,34.8329]]],[[[128.7326,34.9699],[128.7362,34.968],[128.7297,34.9649],[128.7253,34.9675],[128.7257,34.9713],[128.7326,34.9699]]],[[[128.532,34.9728],[128.5363,34.9656],[128.5213,34.9558],[128.5258,34.9468],[128.5341,34.9415],[128.5324,34.9381],[128.526,34.9399],[128.525,34.9348],[128.5287,34.9346],[128.5305,34.9304],[128.5249,34.9279],[128.5198,34.9309],[128.5118,34.9434],[128.5178,34.9462],[128.5192,34.9519],[128.5182,34.959],[128.5121,34.9646],[128.5168,34.9749],[128.532,34.9728]]],[[[128.6463,35.0],[128.6471,34.9967],[128.6513,34.9961],[128.6451,34.9941],[128.6479,34.9862],[128.6442,34.9788],[128.6286,34.9757],[128.6266,34.9773],[128.6305,34.9806],[128.6217,34.9834],[128.6169,34.9745],[128.6089,34.9747],[128.6126,34.9856],[128.6218,34.986],[128.6265,34.9931],[128.6248,34.9955],[128.6158,34.9952],[128.6174,34.9995],[128.6343,34.9987],[128.6351,35.0029],[128.631,35.0086],[128.638,35.0153],[128.6403,35.0115],[128.6434,35.0123],[128.6485,35.0224],[128.6535,35.0111],[128.6463,35.0]]],[[[128.7425,35.0211],[128.746,35.0149],[128.7344,35.0187],[128.7352,35.0224],[128.7425,35.0211]]],[[[128.67,34.7807],[128.6581,34.7742],[128.6513,34.7786],[128.6454,34.7781],[128.6378,34.7639],[128.6495,34.7504],[128.6472,34.7462],[128.6525,34.7423],[128.6622,34.7419],[128.6629,34.7451],[128.6688,34.7455],[128.681,34.7401],[128.6822,34.7366],[128.6777,34.7381],[128.6754,34.7358],[128.6761,34.729],[128.6714,34.7309],[128.6716,34.7391],[128.6669,34.7355],[128.6537,34.7399],[128.6514,34.7341],[128.6397,34.7358],[128.6292,34.7313],[128.6304,34.7353],[128.6274,34.737],[128.6201,34.7304],[128.6261,34.7282],[128.6306,34.7197],[128.6418,34.7149],[128.6382,34.7076],[128.6258,34.7137],[128.6103,34.7018],[128.5899,34.7086],[128.5768,34.7026],[128.579,34.715],[128.588,34.7172],[128.5847,34.7226],[128.6026,34.7263],[128.6074,34.7318],[128.6018,34.7368],[128.5757,34.7393],[128.5782,34.7531],[128.5821,34.7565],[128.5797,34.7622],[128.601,34.764],[128.6011,34.767],[128.5916,34.7707],[128.5978,34.777],[128.5824,34.7757],[128.5753,34.7786],[128.5673,34.7732],[128.5638,34.7662],[128.5554,34.7665],[128.5529,34.776],[128.5609,34.778],[128.5687,34.7865],[128.5565,34.7894],[128.5544,34.7842],[128.543,34.7753],[128.5411,34.7785],[128.5446,34.7848],[128.5387,34.7875],[128.5462,34.7878],[128.5518,34.7945],[128.5551,34.7903],[128.5624,34.7905],[128.578,34.7936],[128.5842,34.7978],[128.5866,34.8104],[128.5846,34.8176],[128.5955,34.8277],[128.5869,34.8316],[128.5858,34.8375],[128.5786,34.8432],[128.5873,34.8408],[128.5888,34.847],[128.573,34.8543],[128.5625,34.8429],[128.5637,34.8329],[128.5405,34.8359],[128.5367,34.8291],[128.5335,34.8334],[128.524,34.8325],[128.5277,34.8294],[128.5211,34.8268],[128.5274,34.8252],[128.5283,34.8214],[128.5202,34.8232],[128.5237,34.8166],[128.5163,34.8083],[128.5107,34.809],[128.5092,34.8177],[128.5009,34.8239],[128.5015,34.8331],[128.5048,34.8354],[128.4979,34.8335],[128.4821,34.8402],[128.4782,34.8487],[128.481,34.8551],[128.4762,34.855],[128.4759,34.8683],[128.4726,34.8721],[128.4766,34.8839],[128.4843,34.8882],[128.4919,34.9006],[128.4972,34.8986],[128.5023,34.9025],[128.4979,34.9032],[128.4969,34.907],[128.5066,34.9053],[128.5001,34.911],[128.5071,34.9071],[128.5158,34.9097],[128.5275,34.9236],[128.5328,34.9201],[128.5384,34.9212],[128.5372,34.9187],[128.5439,34.9109],[128.5689,34.8985],[128.5763,34.9015],[128.5722,34.9089],[128.5817,34.9129],[128.5816,34.9134],[128.5789,34.9132],[128.5778,34.9138],[128.577,34.9177],[128.5789,34.9133],[128.5883,34.915],[128.591,34.9057],[128.5963,34.9064],[128.5953,34.9136],[128.5972,34.9026],[128.6011,34.9031],[128.5994,34.9139],[128.6013,34.9031],[128.6075,34.9068],[128.6064,34.8975],[128.6106,34.9025],[128.618,34.8911],[128.6239,34.892],[128.6257,34.8985],[128.618,34.9064],[128.6171,34.9137],[128.6082,34.9148],[128.6112,34.9233],[128.6036,34.9248],[128.6003,34.9315],[128.5981,34.9296],[128.586,34.943],[128.588,34.9525],[128.5931,34.9491],[128.5966,34.9508],[128.6005,34.958],[128.5981,34.9663],[128.6062,34.97],[128.6106,34.9657],[128.6051,34.9579],[128.6174,34.9632],[128.6324,34.9612],[128.6325,34.9669],[128.6425,34.9589],[128.6472,34.9601],[128.6494,34.9573],[128.6514,34.9616],[128.6471,34.9629],[128.6472,34.9659],[128.6503,34.9794],[128.6597,34.9814],[128.654,34.9829],[128.654,34.9888],[128.6637,34.9904],[128.6672,34.9882],[128.6598,34.994],[128.6595,34.9977],[128.6668,34.9956],[128.6714,34.9987],[128.6743,34.9884],[128.6788,34.9871],[128.6815,34.9898],[128.6786,34.9967],[128.6732,34.9992],[128.6818,35.0014],[128.6818,35.0071],[128.68,35.0088],[128.6759,35.0044],[128.6674,35.0079],[128.6716,35.0128],[128.6717,35.0209],[128.676,35.0216],[128.6753,35.0318],[128.6847,35.034],[128.675,35.0403],[128.6787,35.0408],[128.686,35.0388],[128.6937,35.0305],[128.6996,35.0316],[128.6989,35.0369],[128.7057,35.0317],[128.7124,35.0315],[128.72,35.0192],[128.7179,35.0099],[128.7021,35.0062],[128.7014,35.0018],[128.7067,35.0008],[128.7066,34.9962],[128.6929,34.9957],[128.6951,34.9906],[128.7009,34.9908],[128.6949,34.9802],[128.6968,34.9729],[128.7041,34.9708],[128.7079,34.9648],[128.7165,34.9642],[128.718,34.961],[128.715,34.9577],[128.7271,34.9461],[128.7262,34.9374],[128.7198,34.9415],[128.7149,34.9363],[128.7198,34.9332],[128.717,34.9295],[128.7199,34.9276],[128.7177,34.9219],[128.7239,34.9151],[128.72,34.9095],[128.7138,34.913],[128.7104,34.9107],[128.7173,34.9006],[128.7071,34.8991],[128.7046,34.8913],[128.6967,34.8913],[128.698,34.8853],[128.6949,34.8788],[128.698,34.8837],[128.7015,34.8863],[128.6964,34.8802],[128.7,34.8786],[128.6977,34.8749],[128.7076,34.8814],[128.7091,34.8766],[128.7052,34.8727],[128.7098,34.8688],[128.7258,34.8878],[128.7196,34.8946],[128.726,34.8879],[128.7343,34.8904],[128.7363,34.8855],[128.74,34.8849],[128.7525,34.8942],[128.7386,34.8784],[128.7438,34.8682],[128.7335,34.8621],[128.7288,34.8627],[128.7294,34.8672],[128.7237,34.8649],[128.7291,34.8587],[128.7292,34.8536],[128.7343,34.8508],[128.7351,34.8433],[128.725,34.8415],[128.7176,34.8497],[128.7018,34.8392],[128.7029,34.8326],[128.7099,34.8284],[128.7164,34.8357],[128.7206,34.8384],[128.719,34.8356],[128.7261,34.828],[128.7184,34.8242],[128.7214,34.8218],[128.7218,34.8141],[128.7283,34.8113],[128.7371,34.7987],[128.7399,34.7869],[128.7362,34.7862],[128.7278,34.7934],[128.7095,34.7951],[128.7153,34.8008],[128.7095,34.8124],[128.7058,34.8129],[128.6955,34.8058],[128.6989,34.7978],[128.6905,34.797],[128.6881,34.7992],[128.6934,34.8052],[128.6922,34.8076],[128.6732,34.8141],[128.6662,34.8106],[128.6693,34.8059],[128.6661,34.8016],[128.6688,34.7984],[128.6662,34.7934],[128.6737,34.7866],[128.67,34.7807]]]]}},{"type":"Feature","properties":{"code":"38100","name":"양산시"},"geometry":{"type":"MultiPolygon","coordinates":[[[[129.0526,35.5145],[129.0906,35.4983],[129.1053,35.4965],[129.1094,35.4866],[129.1083,35.4811],[129.1213,35.4701],[129.1218,35.4634],[129.1432,35.4457],[129.1676,35.4318],[129.1901,35.4349],[129.197,35.4389],[129.2021,35.4321],[129.2002,35.4241],[129.2115,35.4191],[129.2191,35.4077],[129.1936,35.3821],[129.1992,35.376],[129.1988,35.3665],[129.1782,35.3518],[129.1501,35.3639],[129.1182,35.369],[129.1332,35.3564],[129.1346,35.3515],[129.1271,35.3454],[129.124,35.3379],[129.1258,35.3321],[129.1137,35.3202],[129.1086,35.3046],[129.1056,35.3065],[129.0884,35.3026],[129.0743,35.2908],[129.0702,35.2943],[129.0584,35.2948],[129.0475,35.2742],[129.0295,35.2769],[129.0135,35.2738],[129.0041,35.2847],[128.9809,35.2994],[128.9731,35.3102],[128.9721,35.3213],[128.9678,35.3291],[128.9456,35.3378],[128.9126,35.3642],[128.8796,35.3684],[128.8743,35.3822],[128.8806,35.3865],[128.8794,35.3981],[128.8903,35.404],[128.8909,35.4145],[128.9035,35.4198],[128.9132,35.4145],[128.9237,35.4208],[128.9223,35.426],[128.9064,35.4373],[128.91,35.4447],[128.9185,35.4518],[128.9424,35.4564],[128.9501,35.4543],[128.9613,35.4609],[128.9632,35.4666],[128.9676,35.4673],[128.9632,35.4845],[128.9676,35.49],[128.9579,35.499],[128.9619,35.5094],[128.9773,35.5076],[128.9896,35.5166],[128.9888,35.5217],[128.9946,35.5281],[129.0076,35.5291],[129.009,35.524],[129.013,35.5231],[129.0558,35.5323],[129.0566,35.5271],[129.0533,35.5257],[129.0526,35.5145]]]]}},{"type":"Feature","properties":{"code":"38111","name":"창원시 의창구"},"geometry":{"type":"MultiPolygon","coordinates":[[[[128.6507,35.3749],[128.6894,35.3776],[128.7179,35.3665],[128.7433,35.3482],[128.7641,35.3455],[128.7532,35.3344],[128.7502,35.3394],[128.75,35.3323],[128.7421,35.3315],[128.7425,35.3207],[128.739,35.3172],[128.7326,35.316],[128.7179,35.3256],[128.7136,35.3229],[128.7114,35.3152],[128.7148,35.3104],[128.6922,35.3081],[128.6923,35.3044],[128.7025,35.2976],[128.7112,35.2633],[128.7194,35.2437],[128.7233,35.2444],[128.7253,35.2375],[128.6951,35.2326],[128.6976,35.2268],[128.6917,35.2203],[128.6731,35.2316],[128.6791,35.2402],[128.6655,35.246],[128.6555,35.2434],[128.6496,35.2399],[128.6524,35.2411],[128.673,35.2316],[128.6625,35.2278],[128.6592,35.2293],[128.6508,35.2194],[128.6442,35.2211],[128.6269,35.2171],[128.6118,35.2223],[128.6158,35.2354],[128.602,35.2456],[128.6042,35.2494],[128.6003,35.2554],[128.5851,35.2645],[128.5861,35.2721],[128.5916,35.2732],[128.5894,35.2779],[128.5828,35.2788],[128.5814,35.2873],[128.5729,35.3003],[128.5822,35.3083],[128.572,35.3157],[128.5713,35.3213],[128.5648,35.3275],[128.5702,35.3359],[128.5647,35.3411],[128.5624,35.347],[128.5644,35.3497],[128.5593,35.3527],[128.5613,35.357],[128.5711,35.3578],[128.5772,35.3659],[128.5741,35.3721],[128.5764,35.3808],[128.5934,35.3917],[128.6015,35.3934],[128.6343,35.3686],[128.6507,35.3749]]]]}},{"type":"Feature","properties":{"code":"38112","name":"창원시 성산구"},"geometry":{"type":"MultiPolygon","coordinates":[[[[128.6731,35.2316],[128.6917,35.2203],[128.6976,35.2268],[128.6951,35.2326],[128.7262,35.2366],[128.7213,35.2254],[128.7225,35.2144],[128.728,35.207],[128.7432,35.2062],[128.7506,35.2015],[128.7514,35.1977],[128.7442,35.1858],[128.7384,35.1566],[128.7121,35.1669],[128.6891,35.1698],[128.6698,35.1807],[128.6638,35.1809],[128.6382,35.1766],[128.6181,35.1548],[128.6098,35.151],[128.6107,35.1623],[128.6053,35.1603],[128.6014,35.1628],[128.5986,35.165],[128.6006,35.1682],[128.5926,35.1745],[128.5893,35.1994],[128.6084,35.2119],[128.6233,35.2121],[128.6331,35.2192],[128.6508,35.2194],[128.6592,35.2293],[128.6625,35.2278],[128.673,35.2316],[128.6524,35.2411],[128.6496,35.2399],[128.6509,35.2414],[128.6693,35.246],[128.673,35.2448],[128.6729,35.2413],[128.6779,35.2409],[128.6731,35.2316]]]]}},{"type":"Feature","properties":{"code":"38113","name":"창원시 마산합포구"},"geometry":{"type":"MultiPolygon","coordinates":[[[[128.5609,35.0665],[128.5681,35.054],[128.5557,35.0538],[128.5425,35.0666],[128.5424,35.0692],[128.554,35.0698],[128.5609,35.0665]]],[[[128.5704,35.1795],[128.5665,35.1826],[128.5728,35.1874],[128.5747,35.1846],[128.5704,35.1795]]],[[[128.4791,35.0817],[128.4793,35.0784],[128.4739,35.0756],[128.4683,35.0816],[128.4615,35.0717],[128.4531,35.0741],[128.4394,35.0723],[128.4391,35.067],[128.4272,35.0551],[128.4227,35.0579],[128.427,35.0711],[128.427,35.0865],[128.4111,35.0927],[128.3997,35.0904],[128.3996,35.0836],[128.3925,35.0878],[128.386,35.103],[128.3796,35.1043],[128.3719,35.1111],[128.3575,35.1089],[128.3501,35.1118],[128.3537,35.1184],[128.3481,35.1308],[128.3634,35.1411],[128.3585,35.1469],[128.3622,35.1522],[128.3613,35.1633],[128.3653,35.172],[128.3672,35.1943],[128.3741,35.1931],[128.3763,35.1986],[128.3904,35.2072],[128.4009,35.2048],[128.4072,35.194],[128.4031,35.185],[128.4058,35.1796],[128.4116,35.1776],[128.4168,35.1702],[128.4343,35.1642],[128.444,35.1702],[128.4454,35.1806],[128.4655,35.189],[128.479,35.188],[128.4886,35.1801],[128.5196,35.1777],[128.5287,35.1864],[128.5411,35.1911],[128.5362,35.2096],[128.5411,35.2128],[128.5515,35.2122],[128.5644,35.2168],[128.5767,35.2148],[128.5792,35.2202],[128.5847,35.2224],[128.59,35.22],[128.5905,35.2147],[128.5842,35.2049],[128.5759,35.1995],[128.5646,35.1845],[128.5704,35.175],[128.5798,35.1727],[128.5858,35.1652],[128.5827,35.1637],[128.5843,35.1615],[128.5909,35.1579],[128.5844,35.1554],[128.5908,35.1547],[128.5915,35.1518],[128.5854,35.1465],[128.5974,35.1423],[128.5872,35.1304],[128.579,35.1396],[128.5722,35.1326],[128.5824,35.1274],[128.5941,35.1325],[128.6002,35.132],[128.5988,35.1243],[128.5859,35.1202],[128.5995,35.1192],[128.6025,35.1019],[128.6175,35.0937],[128.612,35.0916],[128.6219,35.09],[128.628,35.0832],[128.6054,35.0806],[128.6027,35.0747],[128.6112,35.0753],[128.6118,35.0724],[128.6076,35.0708],[128.6108,35.0696],[128.6253,35.0739],[128.6354,35.0713],[128.635,35.0689],[128.6016,35.0563],[128.5736,35.0538],[128.5782,35.0605],[128.5969,35.0697],[128.587,35.0728],[128.5875,35.0698],[128.5808,35.0646],[128.5799,35.0669],[128.5697,35.07],[128.5625,35.0673],[128.5612,35.0698],[128.5661,35.0706],[128.5629,35.0757],[128.5642,35.0824],[128.581,35.0875],[128.5832,35.0913],[128.5502,35.0968],[128.5464,35.093],[128.5455,35.0983],[128.548,35.1004],[128.5414,35.1015],[128.5488,35.1073],[128.5436,35.1107],[128.5386,35.1068],[128.5369,35.1078],[128.5367,35.1105],[128.5385,35.1082],[128.5409,35.11],[128.5386,35.1145],[128.5411,35.1181],[128.5377,35.1207],[128.5302,35.1071],[128.527,35.1044],[128.52,35.1052],[128.5178,35.098],[128.5063,35.0984],[128.4958,35.1068],[128.4843,35.1085],[128.4855,35.1017],[128.4813,35.0996],[128.4797,35.1024],[128.4709,35.0982],[128.459,35.1062],[128.4514,35.1043],[128.4472,35.0978],[128.4611,35.0896],[128.4791,35.0817]]]]}},{"type":"Feature","properties":{"code":"38114","name":"창원시 마산회원구"},"geometry":{"type":"MultiPolygon","coordinates":[[[[128.5777,35.2691],[128.5861,35.2721],[128.5854,35.264],[128.6003,35.2554],[128.6042,35.2494],[128.602,35.2456],[128.6158,35.2354],[128.6118,35.2223],[128.6269,35.2171],[128.6171,35.2126],[128.5877,35.2097],[128.5904,35.2186],[128.5847,35.2224],[128.5792,35.2202],[128.5767,35.2148],[128.5644,35.2168],[128.5508,35.2121],[128.5441,35.2143],[128.5362,35.2096],[128.5411,35.1911],[128.5287,35.1864],[128.5179,35.1771],[128.4886,35.1801],[128.4802,35.1858],[128.479,35.188],[128.4905,35.2047],[128.4843,35.2118],[128.4793,35.2126],[128.4742,35.2223],[128.4744,35.241],[128.479,35.2534],[128.4883,35.2599],[128.491,35.2739],[128.4972,35.2756],[128.5071,35.2734],[128.5094,35.2687],[128.5245,35.2704],[128.5333,35.2662],[128.5377,35.2718],[128.5434,35.271],[128.557,35.2771],[128.5777,35.2691]]]]}},{"type":"Feature","properties":{"code":"38115","name":"창원시 진해구"},"geometry":{"type":"MultiPolygon","coordinates":[[[[128.6621,35.1053],[128.6547,35.1014],[128.6604,35.1019],[128.661,35.0942],[128.6526,35.0996],[128.6461,35.0991],[128.6438,35.1025],[128.6621,35.1053]]],[[[128.7614,35.061],[128.7664,35.0669],[128.7635,35.0776],[128.7558,35.0778],[128.751,35.0823],[128.7417,35.078],[128.7462,35.0854],[128.7402,35.083],[128.7359,35.0911],[128.7437,35.0999],[128.7387,35.0994],[128.7289,35.09],[128.7307,35.0939],[128.7248,35.0971],[128.7142,35.0953],[128.7135,35.1068],[128.7104,35.1036],[128.7031,35.1058],[128.7003,35.1033],[128.7028,35.1002],[128.6987,35.098],[128.6961,35.1001],[128.6961,35.0972],[128.6885,35.1026],[128.689,35.1077],[128.6859,35.107],[128.6954,35.1098],[128.7009,35.1166],[128.6996,35.1257],[128.6934,35.133],[128.6973,35.1345],[128.6963,35.1384],[128.6907,35.1378],[128.6878,35.1415],[128.6909,35.1476],[128.6708,35.1425],[128.6778,35.1263],[128.6663,35.1185],[128.6589,35.1369],[128.6445,35.1356],[128.6421,35.1454],[128.6428,35.148],[128.6472,35.1464],[128.6472,35.1505],[128.6378,35.1495],[128.637,35.1458],[128.6262,35.1484],[128.6188,35.1359],[128.6214,35.1329],[128.6287,35.1326],[128.6208,35.1325],[128.616,35.1398],[128.6071,35.1377],[128.6103,35.1436],[128.615,35.1447],[128.6098,35.151],[128.6181,35.1548],[128.6382,35.1766],[128.6638,35.1809],[128.6698,35.1807],[128.6891,35.1698],[128.7121,35.1669],[128.733,35.1574],[128.7384,35.1566],[128.741,35.1672],[128.7557,35.1649],[128.757,35.1682],[128.7631,35.1688],[128.7778,35.1595],[128.7937,35.1572],[128.8021,35.1419],[128.8067,35.1425],[128.8154,35.1326],[128.8345,35.1288],[128.8381,35.1229],[128.836,35.1189],[128.8428,35.1135],[128.8432,35.1092],[128.8348,35.1018],[128.8235,35.1019],[128.8201,35.0929],[128.8145,35.0908],[128.8192,35.0911],[128.8233,35.0943],[128.8287,35.09],[128.8185,35.083],[128.8115,35.083],[128.8115,35.0776],[128.7847,35.0777],[128.7825,35.0853],[128.7899,35.094],[128.8004,35.0938],[128.8026,35.0983],[128.799,35.1005],[128.7883,35.0984],[128.7916,35.1018],[128.7883,35.107],[128.7895,35.1131],[128.7826,35.1125],[128.7793,35.1029],[128.7723,35.099],[128.7696,35.1036],[128.763,35.1052],[128.7656,35.0976],[128.7842,35.0975],[128.7793,35.0821],[128.7731,35.083],[128.7714,35.0629],[128.7614,35.061]]]]}},{"type":"Feature","properties":{"code":"38310","name":"의령군"},"geometry":{"type":"MultiPolygon","coordinates":[[[[128.3123,35.5168],[128.3213,35.5084],[128.339,35.5096],[128.3496,35.5009],[128.3594,35.5032],[128.3649,35.5002],[128.3734,35.5039],[128.3703,35.5157],[128.3944,35.5089],[128.4198,35.4935],[128.421,35.4775],[128.4121,35.4697],[128.3829,35.4611],[128.3759,35.4535],[128.3747,35.4456],[128.376,35.4397],[128.3883,35.4259],[128.4232,35.4159],[128.4302,35.4062],[128.4374,35.3928],[128.4283,35.3889],[128.4198,35.3784],[128.4288,35.3658],[128.4158,35.3627],[128.4146,35.3583],[128.4065,35.3608],[128.3845,35.3587],[128.3815,35.3519],[128.3964,35.3357],[128.3902,35.3327],[128.3554,35.3393],[128.3383,35.3588],[128.3239,35.3629],[128.3165,35.3614],[128.3118,35.3515],[128.3179,35.3263],[128.2977,35.3154],[128.2905,35.3021],[128.2915,35.2941],[128.3016,35.2829],[128.2825,35.2756],[128.274,35.2574],[128.2382,35.2537],[128.2195,35.2647],[128.2118,35.2653],[128.206,35.2629],[128.2015,35.2537],[128.1978,35.2542],[128.1939,35.2565],[128.1957,35.2656],[128.1802,35.2791],[128.1795,35.2857],[128.1744,35.2927],[128.1776,35.2989],[128.1726,35.314],[128.1776,35.3167],[128.1788,35.3212],[128.1644,35.3362],[128.1636,35.3425],[128.1566,35.3496],[128.1458,35.3486],[128.1156,35.33],[128.1105,35.3379],[128.0973,35.3417],[128.0921,35.3483],[128.0991,35.3535],[128.0954,35.3598],[128.1,35.3616],[128.1019,35.367],[128.0881,35.3662],[128.0831,35.3688],[128.0826,35.3696],[128.0991,35.3682],[128.0989,35.3711],[128.1124,35.3823],[128.1276,35.3723],[128.13,35.3732],[128.1259,35.3838],[128.1287,35.3877],[128.1466,35.386],[128.1899,35.399],[128.1909,35.4116],[128.1852,35.4192],[128.2002,35.4322],[128.2071,35.4484],[128.2078,35.4601],[128.2163,35.4617],[128.2029,35.473],[128.2017,35.4779],[128.2379,35.4947],[128.2494,35.4934],[128.2619,35.4972],[128.2608,35.5021],[128.2665,35.5099],[128.2902,35.5123],[128.2926,35.5174],[128.3123,35.5168]]]]}},{"type":"Feature","properties":{"code":"38320","name":"함안군"},"geometry":{"type":"MultiPolygon","coordinates":[[[[128.5764,35.3808],[128.5741,35.3721],[128.5772,35.3659],[128.5711,35.3578],[128.5613,35.357],[128.5593,35.3527],[128.5644,35.3497],[128.5624,35.347],[128.5647,35.3411],[128.5702,35.3359],[128.5648,35.3275],[128.5713,35.3213],[128.572,35.3157],[128.5822,35.3083],[128.5729,35.3003],[128.5814,35.2873],[128.5828,35.2788],[128.5894,35.2779],[128.5916,35.2732],[128.5777,35.2691],[128.557,35.2771],[128.5434,35.271],[128.5377,35.2718],[128.5333,35.2662],[128.5245,35.2704],[128.5094,35.2687],[128.5071,35.2734],[128.4972,35.2756],[128.491,35.2739],[128.4883,35.2599],[128.479,35.2534],[128.4761,35.2476],[128.4742,35.2223],[128.4793,35.2126],[128.49,35.2069],[128.49,35.2022],[128.479,35.188],[128.4655,35.189],[128.4454,35.1806],[128.444,35.1702],[128.4371,35.165],[128.4303,35.1643],[128.4168,35.1702],[128.4116,35.1776],[128.4058,35.1796],[128.4031,35.185],[128.4072,35.194],[128.4009,35.2048],[128.3904,35.2072],[128.3763,35.1986],[128.3741,35.1931],[128.3672,35.1943],[128.3529,35.2095],[128.3287,35.2069],[128.3197,35.2207],[128.3063,35.223],[128.3064,35.2336],[128.2938,35.2408],[128.2979,35.2506],[128.2936,35.2534],[128.2864,35.2516],[128.274,35.2574],[128.2825,35.2756],[128.3016,35.2829],[128.2915,35.2941],[128.2905,35.3021],[128.2977,35.3154],[128.3179,35.3263],[128.3118,35.3515],[128.3125,35.3571],[128.3176,35.3619],[128.3383,35.3588],[128.3554,35.3393],[128.3902,35.3327],[128.3964,35.3357],[128.3815,35.3519],[128.3831,35.357],[128.401,35.3608],[128.4146,35.3583],[128.4158,35.3627],[128.4285,35.3651],[128.4198,35.3784],[128.4314,35.391],[128.4373,35.3928],[128.4448,35.3866],[128.4609,35.3812],[128.4801,35.3812],[128.5017,35.4006],[128.512,35.4015],[128.5168,35.3939],[128.5398,35.3797],[128.5764,35.3808]]]]}},{"type":"Feature","properties":{"code":"38330","name":"창녕군"},"geometry":{"type":"MultiPolygon","coordinates":[[[[128.5307,35.6629],[128.5374,35.6598],[128.5348,35.6437],[128.5382,35.6326],[128.5369,35.6238],[128.5587,35.6148],[128.5608,35.6032],[128.569,35.6025],[128.573,35.5932],[128.5932,35.5844],[128.5847,35.5797],[128.5836,35.5666],[128.5891,35.5625],[128.5891,35.5572],[128.5856,35.5553],[128.5925,35.5404],[128.5911,35.537],[128.5774,35.5379],[128.5826,35.5327],[128.5827,35.5238],[128.5918,35.5149],[128.5859,35.5065],[128.5775,35.5063],[128.5712,35.4924],[128.5739,35.4725],[128.579,35.4667],[128.5773,35.4597],[128.5832,35.4536],[128.5993,35.4528],[128.615,35.4461],[128.6261,35.452],[128.6318,35.4475],[128.6362,35.4348],[128.6453,35.4327],[128.6512,35.4261],[128.6459,35.4127],[128.6495,35.398],[128.6442,35.3932],[128.6441,35.3881],[128.6385,35.385],[128.6496,35.3855],[128.6516,35.3818],[128.6474,35.3803],[128.6507,35.3749],[128.6375,35.3695],[128.6307,35.3709],[128.6015,35.3934],[128.5714,35.3795],[128.5398,35.3797],[128.5168,35.3939],[128.512,35.4015],[128.5017,35.4006],[128.4801,35.3812],[128.4553,35.3824],[128.438,35.3918],[128.4232,35.4159],[128.3883,35.4259],[128.376,35.4397],[128.3759,35.4535],[128.3829,35.4611],[128.4121,35.4697],[128.421,35.4775],[128.4214,35.4855],[128.4198,35.4935],[128.4125,35.5001],[128.3733,35.5162],[128.3514,35.5368],[128.3507,35.5515],[128.3574,35.5644],[128.3592,35.5813],[128.3524,35.6077],[128.3656,35.6134],[128.3824,35.6065],[128.3844,35.6099],[128.4029,35.6173],[128.4069,35.6145],[128.4229,35.6252],[128.4322,35.624],[128.4465,35.6384],[128.4532,35.6369],[128.4603,35.6406],[128.4707,35.6366],[128.4785,35.6405],[128.4827,35.635],[128.5057,35.6393],[128.5107,35.6457],[128.5068,35.6501],[128.5076,35.6729],[128.53,35.683],[128.5268,35.6756],[128.5307,35.6629]]]]}},{"type":"Feature","properties":{"code":"38340","name":"고성군"},"geometry":{"type":"MultiPolygon","coordinates":[[[[128.2178,34.927],[128.2211,34.9325],[128.2263,34.9341],[128.2279,34.9308],[128.2238,34.9236],[128.2178,34.927]]],[[[128.2892,35.1314],[128.3064,35.125],[128.3161,35.1296],[128.3226,35.1299],[128.3281,35.124],[128.3384,35.1279],[128.3483,35.1271],[128.3537,35.1184],[128.3501,35.1118],[128.3575,35.1089],[128.3719,35.1111],[128.3796,35.1043],[128.386,35.103],[128.3925,35.0878],[128.3996,35.0836],[128.3997,35.0904],[128.4111,35.0927],[128.427,35.0865],[128.4231,35.0563],[128.4153,35.0552],[128.4173,35.06],[128.412,35.0619],[128.3961,35.0527],[128.3837,35.0505],[128.3831,35.0459],[128.3814,35.0488],[128.3734,35.0495],[128.3716,35.0444],[128.3651,35.0482],[128.3822,35.0359],[128.3748,35.03],[128.3694,35.0314],[128.3708,35.0261],[128.3751,35.024],[128.3665,35.0218],[128.3681,35.0165],[128.3889,35.017],[128.3891,35.0326],[128.3831,35.0342],[128.3836,35.0356],[128.3893,35.0331],[128.4025,35.0412],[128.4328,35.0474],[128.438,35.0456],[128.4391,35.0495],[128.4505,35.0516],[128.4425,35.0602],[128.4445,35.0661],[128.4526,35.0713],[128.4603,35.0632],[128.4685,35.0682],[128.4689,35.0756],[128.482,35.0655],[128.4751,35.0549],[128.4821,35.0524],[128.4793,35.0469],[128.4649,35.0498],[128.4589,35.0471],[128.4705,35.0411],[128.4736,35.0346],[128.4765,35.0421],[128.486,35.0384],[128.4811,35.0289],[128.4997,35.0214],[128.5012,35.0136],[128.4952,35.012],[128.4919,35.0054],[128.4846,35.0117],[128.4807,35.004],[128.4835,35.001],[128.4761,34.9983],[128.4781,34.9928],[128.4641,34.9978],[128.4704,34.9902],[128.4666,34.988],[128.4382,34.9948],[128.4273,34.9931],[128.4146,34.9968],[128.4073,34.9941],[128.4062,34.9861],[128.4095,34.9835],[128.4178,34.9868],[128.4343,34.9851],[128.4414,34.982],[128.4431,34.9733],[128.4251,34.976],[128.4156,34.9672],[128.4011,34.9711],[128.3999,34.964],[128.392,34.9637],[128.3891,34.961],[128.3894,34.952],[128.381,34.947],[128.3689,34.9463],[128.3361,34.9356],[128.3417,34.9404],[128.3405,34.9484],[128.3338,34.9448],[128.3298,34.949],[128.3325,34.9568],[128.3223,34.9571],[128.3203,34.9629],[128.3175,34.9617],[128.3182,34.9526],[128.3159,34.9506],[128.3199,34.9445],[128.3138,34.9427],[128.3142,34.9383],[128.3087,34.9418],[128.3067,34.9363],[128.2993,34.9359],[128.2999,34.922],[128.3049,34.9194],[128.2983,34.9169],[128.3003,34.9127],[128.2893,34.9098],[128.2812,34.9161],[128.28,34.9084],[128.2828,34.9045],[128.2742,34.9034],[128.2729,34.8997],[128.2712,34.9043],[128.2758,34.9047],[128.276,34.9099],[128.2708,34.9118],[128.2718,34.9145],[128.2659,34.9122],[128.2678,34.9184],[128.2576,34.93],[128.2613,34.9271],[128.2686,34.93],[128.2676,34.939],[128.2634,34.9373],[128.2589,34.9404],[128.2566,34.9364],[128.2522,34.9412],[128.2481,34.941],[128.2455,34.9356],[128.2439,34.9403],[128.2465,34.9431],[128.2267,34.9409],[128.2229,34.9463],[128.2191,34.9445],[128.2178,34.9389],[128.2107,34.942],[128.2091,34.9356],[128.2063,34.9405],[128.1969,34.937],[128.2039,34.9317],[128.1992,34.9327],[128.2036,34.9251],[128.1963,34.9117],[128.1997,34.9019],[128.2034,34.8996],[128.202,34.8939],[128.1875,34.8936],[128.1868,34.899],[128.1897,34.9014],[128.1868,34.9059],[128.1838,34.8949],[128.1777,34.9003],[128.1789,34.9055],[128.1754,34.9061],[128.1718,34.9029],[128.1765,34.8954],[128.1692,34.8968],[128.1699,34.9009],[128.1656,34.9027],[128.1643,34.8993],[128.1671,34.8969],[128.1623,34.8996],[128.1603,34.9071],[128.1567,34.909],[128.1518,34.904],[128.1458,34.9051],[128.1486,34.8997],[128.141,34.9028],[128.1409,34.8938],[128.1335,34.8882],[128.1208,34.9047],[128.1138,34.9061],[128.1142,34.9027],[128.1031,34.9002],[128.1111,34.9027],[128.1009,34.9144],[128.11,34.9166],[128.1037,34.9158],[128.1035,34.9191],[128.1119,34.923],[128.1218,34.9214],[128.1158,34.9269],[128.1143,34.9339],[128.1226,34.9387],[128.1231,34.9491],[128.1329,34.9607],[128.1349,34.9805],[128.1434,34.9895],[128.1497,34.9915],[128.1662,34.9835],[128.1702,34.9847],[128.1578,35.007],[128.1627,35.0272],[128.1736,35.0314],[128.1952,35.0641],[128.211,35.0733],[128.2107,35.0756],[128.1905,35.0771],[128.1877,35.0887],[128.1904,35.0979],[128.1984,35.0963],[128.201,35.1005],[128.1991,35.1051],[128.2116,35.1147],[128.2277,35.1139],[128.2287,35.1168],[128.2419,35.1208],[128.2473,35.1283],[128.2635,35.1271],[128.2744,35.1322],[128.2892,35.1314]]]]}},{"type":"Feature","properties":{"code":"38350","name":"남해군"},"geometry":{"type":"MultiPolygon","coordinates":[[[[128.043,34.6847],[128.0481,34.6917],[128.0518,34.6848],[128.0463,34.681],[128.043,34.6847]]],[[[128.0561,34.6995],[128.0573,34.6953],[128.0472,34.6952],[128.0514,34.6999],[128.0561,34.6995]]],[[[127.9428,34.7288],[127.9428,34.7235],[127.9346,34.7284],[127.94,34.7317],[127.9428,34.7288]]],[[[128.0264,34.9041],[128.0151,34.8925],[128.01,34.8674],[128.0203,34.8635],[128.0243,34.8658],[128.0218,34.8816],[128.0315,34.8893],[128.03,34.892],[128.0355,34.8975],[128.0386,34.8966],[128.0364,34.8932],[128.0387,34.892],[128.0412,34.8947],[128.0477,34.897],[128.0475,34.8942],[128.0411,34.8933],[128.0407,34.8888],[128.0476,34.8903],[128.0502,34.887],[128.0475,34.8822],[128.0585,34.8836],[128.0577,34.8792],[128.0639,34.8784],[128.0628,34.8745],[128.0669,34.8743],[128.0647,34.8613],[128.0574,34.8593],[128.0534,34.8526],[128.0626,34.8552],[128.0607,34.8448],[128.0764,34.8437],[128.0789,34.8385],[128.085,34.8362],[128.0868,34.828],[128.0777,34.8282],[128.0781,34.8323],[128.0723,34.8356],[128.065,34.8305],[128.0548,34.8386],[128.0459,34.8359],[128.0241,34.8473],[128.022,34.8435],[128.0241,34.8393],[128.0192,34.8433],[128.0173,34.8379],[128.0014,34.836],[127.9884,34.8364],[127.9693,34.8434],[127.9706,34.8484],[127.9649,34.8525],[127.9653,34.8584],[127.9615,34.8635],[127.9635,34.8714],[127.9774,34.8791],[127.9782,34.8853],[127.9816,34.8853],[127.9901,34.8942],[127.9905,34.9016],[128.0028,34.9153],[128.0173,34.9211],[128.0327,34.92],[128.0264,34.9041]]],[[[127.9145,34.8478],[127.9172,34.8355],[127.9251,34.8306],[127.9299,34.8347],[127.9406,34.8277],[127.9436,34.8101],[127.9536,34.805],[127.9657,34.8086],[127.9584,34.8136],[127.9783,34.8203],[127.9751,34.8227],[127.9769,34.8256],[127.9897,34.8323],[128.0192,34.8301],[128.0192,34.8328],[128.0306,34.8343],[128.034,34.8274],[128.0414,34.8228],[128.0509,34.8261],[128.0666,34.8182],[128.0632,34.8156],[128.0657,34.8127],[128.0614,34.8056],[128.0629,34.7998],[128.0552,34.8019],[128.0509,34.7963],[128.0554,34.7922],[128.0598,34.7956],[128.0491,34.781],[128.05,34.7735],[128.0546,34.7694],[128.0564,34.7457],[128.0493,34.7432],[128.0509,34.7399],[128.0417,34.7379],[128.0353,34.7312],[128.0339,34.7238],[128.0453,34.7136],[128.0537,34.7149],[128.0602,34.7094],[128.0567,34.7084],[128.0539,34.7119],[128.0532,34.708],[128.0427,34.7066],[128.0443,34.7023],[128.0362,34.7028],[128.0367,34.7074],[128.0298,34.7086],[128.0261,34.706],[128.0273,34.7028],[128.0195,34.7024],[128.0261,34.7184],[128.015,34.7242],[128.0075,34.721],[128.0112,34.7164],[128.0072,34.7111],[127.999,34.7171],[127.9925,34.7141],[127.9923,34.7195],[127.9891,34.7204],[127.9836,34.7183],[127.9879,34.712],[127.9843,34.7092],[127.9689,34.713],[127.9656,34.7097],[127.9571,34.7094],[127.9531,34.716],[127.959,34.7178],[127.9496,34.7263],[127.9545,34.7311],[127.9475,34.7308],[127.9441,34.7469],[127.9484,34.7657],[127.9545,34.7727],[127.949,34.7776],[127.9281,34.7757],[127.9179,34.7688],[127.9094,34.7689],[127.9034,34.765],[127.9052,34.754],[127.9104,34.7499],[127.9092,34.7444],[127.913,34.7403],[127.9061,34.7277],[127.8907,34.7217],[127.875,34.7275],[127.8574,34.7279],[127.8623,34.7332],[127.8587,34.7366],[127.8521,34.7367],[127.8558,34.7415],[127.8534,34.7476],[127.8492,34.7501],[127.8457,34.7473],[127.8377,34.7493],[127.8354,34.756],[127.842,34.7575],[127.8437,34.7629],[127.8411,34.7673],[127.8504,34.7679],[127.8524,34.7691],[127.8503,34.7741],[127.8578,34.7762],[127.849,34.7753],[127.8478,34.7788],[127.8537,34.7824],[127.8445,34.7789],[127.8469,34.7846],[127.8364,34.7917],[127.8356,34.8022],[127.8312,34.8073],[127.833,34.811],[127.828,34.811],[127.828,34.8168],[127.8132,34.8339],[127.8126,34.8477],[127.8077,34.8533],[127.8118,34.854],[127.8102,34.8595],[127.8185,34.8681],[127.8178,34.8746],[127.8211,34.8762],[127.826,34.8734],[127.8284,34.8758],[127.8301,34.8807],[127.8256,34.8827],[127.8331,34.8928],[127.824,34.8942],[127.8311,34.8956],[127.8257,34.9026],[127.842,34.8981],[127.8417,34.9067],[127.8445,34.9016],[127.8621,34.9014],[127.8639,34.9046],[127.8564,34.9111],[127.8513,34.9102],[127.8568,34.9128],[127.8516,34.9159],[127.8535,34.9218],[127.8593,34.922],[127.8542,34.9276],[127.8659,34.9313],[127.8652,34.9363],[127.8707,34.942],[127.8943,34.947],[127.9027,34.9412],[127.9074,34.9431],[127.9087,34.9387],[127.9136,34.9416],[127.9181,34.9394],[127.9184,34.9423],[127.9255,34.9407],[127.9208,34.9337],[127.9307,34.9246],[127.9237,34.9271],[127.9244,34.9202],[127.9292,34.9153],[127.9247,34.9106],[127.9279,34.9069],[127.9218,34.9006],[127.9254,34.8916],[127.9136,34.8889],[127.9094,34.8836],[127.9013,34.884],[127.898,34.8726],[127.9038,34.8607],[127.9145,34.8478]]]]}},{"type":"Feature","properties":{"code":"38360","name":"하동군"},"geometry":{"type":"MultiPolygon","coordinates":[[[[127.8322,34.9395],[127.8334,34.9393],[127.8344,34.9386],[127.8321,34.9317],[127.8341,34.9277],[127.8284,34.9296],[127.8313,34.9395],[127.8322,34.9395]]],[[[127.6582,35.3288],[127.6647,35.3206],[127.6857,35.3218],[127.6888,35.3192],[127.6885,35.2941],[127.6927,35.2878],[127.6903,35.2836],[127.7003,35.2748],[127.7048,35.2649],[127.7435,35.2532],[127.7506,35.2468],[127.7543,35.2347],[127.7761,35.2195],[127.8243,35.2221],[127.8353,35.2296],[127.8432,35.2276],[127.8472,35.2355],[127.8578,35.2425],[127.8568,35.2489],[127.8686,35.2599],[127.8756,35.2572],[127.8745,35.2509],[127.8931,35.2504],[127.8878,35.2376],[127.8903,35.2279],[127.8878,35.2185],[127.8945,35.2079],[127.8948,35.197],[127.9083,35.1843],[127.9249,35.1783],[127.9393,35.1659],[127.9386,35.1526],[127.9314,35.1495],[127.9299,35.1448],[127.9214,35.1503],[127.913,35.151],[127.9097,35.1484],[127.8986,35.1567],[127.879,35.1457],[127.8854,35.1305],[127.9105,35.1207],[127.8994,35.1074],[127.9093,35.0981],[127.9019,35.0953],[127.9023,35.0876],[127.8935,35.0866],[127.8977,35.0791],[127.9063,35.0788],[127.9083,35.0734],[127.9117,35.0734],[127.9145,35.0645],[127.9204,35.0642],[127.9247,35.0537],[127.9312,35.0477],[127.9239,35.0418],[127.9252,35.0295],[127.9205,35.0232],[127.923,35.0156],[127.9187,35.0104],[127.9222,35.0051],[127.9165,34.9971],[127.9197,34.9934],[127.9145,34.9926],[127.9235,34.9892],[127.9171,34.9886],[127.9188,34.9814],[127.9141,34.985],[127.9076,34.983],[127.911,34.98],[127.9119,34.9724],[127.9016,34.9721],[127.8974,34.9565],[127.8889,34.9556],[127.8866,34.9516],[127.8848,34.9562],[127.8813,34.9531],[127.8821,34.9496],[127.8746,34.9477],[127.8555,34.9494],[127.8478,34.9469],[127.8483,34.9501],[127.8441,34.9526],[127.8457,34.9587],[127.8408,34.9629],[127.8399,34.9569],[127.8342,34.9586],[127.8387,34.956],[127.8378,34.9494],[127.8253,34.952],[127.8224,34.9557],[127.8242,34.951],[127.8291,34.948],[127.822,34.9457],[127.8154,34.9489],[127.8189,34.9422],[127.8029,34.9349],[127.8057,34.9244],[127.8056,34.9241],[127.8001,34.923],[127.8055,34.9243],[127.8033,34.9322],[127.7953,34.9306],[127.7898,34.9427],[127.7815,34.9438],[127.7733,34.955],[127.7701,34.9671],[127.7594,34.9668],[127.764,34.9767],[127.7803,34.9897],[127.7868,35.0109],[127.7852,35.0204],[127.7716,35.0337],[127.7653,35.0536],[127.7433,35.061],[127.7364,35.0736],[127.7161,35.0835],[127.6973,35.1018],[127.6946,35.125],[127.6887,35.1352],[127.6593,35.159],[127.6484,35.1604],[127.6226,35.1849],[127.6181,35.1909],[127.6215,35.1918],[127.6169,35.2069],[127.6207,35.2127],[127.6211,35.2246],[127.6192,35.2354],[127.6128,35.2416],[127.6153,35.2504],[127.6102,35.262],[127.5957,35.2681],[127.5841,35.2911],[127.5774,35.2952],[127.5769,35.3084],[127.5857,35.3091],[127.6048,35.3184],[127.6077,35.325],[127.6151,35.3307],[127.6207,35.3326],[127.6381,35.3254],[127.6582,35.3288]]]]}},{"type":"Feature","properties":{"code":"38370","name":"산청군"},"geometry":{"type":"MultiPolygon","coordinates":[[[[127.8709,35.5755],[127.8748,35.5672],[127.8693,35.5595],[127.872,35.5522],[127.8774,35.5504],[127.8745,35.5384],[127.8806,35.5315],[127.8782,35.5279],[127.8876,35.5314],[127.8939,35.5302],[127.9019,35.535],[127.9132,35.5256],[127.9213,35.5237],[127.92,35.52],[127.9254,35.5154],[127.9412,35.5144],[127.9489,35.5198],[127.9599,35.518],[127.9626,35.5],[127.9746,35.4949],[127.9744,35.4753],[127.9793,35.4673],[127.9785,35.4619],[127.9849,35.4565],[127.9816,35.4515],[127.9863,35.451],[127.9965,35.4362],[128.0075,35.4361],[128.0113,35.4265],[128.0231,35.4264],[128.0313,35.4163],[128.0416,35.4193],[128.0453,35.4158],[128.0542,35.4167],[128.0592,35.4054],[128.0661,35.4023],[128.0649,35.3988],[128.0721,35.3897],[128.0807,35.3891],[128.0893,35.3812],[128.0802,35.3702],[128.0881,35.3662],[128.1019,35.367],[128.1,35.3616],[128.0954,35.3598],[128.0992,35.3538],[128.0921,35.3483],[128.0942,35.3449],[128.1152,35.3328],[128.1083,35.3309],[128.1016,35.335],[128.0805,35.337],[128.0723,35.333],[128.0586,35.3336],[128.0509,35.321],[128.0523,35.3127],[128.0434,35.3047],[128.0346,35.3078],[128.0152,35.3031],[127.9959,35.286],[127.9862,35.2869],[127.9854,35.2736],[127.9829,35.2705],[127.9735,35.27],[127.9714,35.2501],[127.9697,35.2513],[127.9668,35.2465],[127.9476,35.2417],[127.9345,35.2503],[127.9247,35.2493],[127.92,35.252],[127.9113,35.2403],[127.9087,35.2235],[127.8907,35.226],[127.8878,35.2376],[127.8931,35.2504],[127.8745,35.2509],[127.8756,35.2572],[127.8692,35.26],[127.8568,35.2489],[127.8578,35.2425],[127.8472,35.2355],[127.8432,35.2276],[127.8353,35.2296],[127.8243,35.2221],[127.7761,35.2195],[127.7543,35.2347],[127.7506,35.2468],[127.7435,35.2532],[127.7048,35.2649],[127.7003,35.2748],[127.6903,35.2836],[127.6927,35.2878],[127.6885,35.2941],[127.6888,35.3192],[127.7006,35.3161],[127.7185,35.3344],[127.7312,35.3375],[127.7352,35.3471],[127.7341,35.3612],[127.7388,35.3648],[127.7386,35.3724],[127.7526,35.3832],[127.7484,35.3971],[127.7585,35.4027],[127.7593,35.4153],[127.77,35.4207],[127.7689,35.4262],[127.78,35.4343],[127.7727,35.4397],[127.7733,35.4447],[127.7773,35.4469],[127.7883,35.445],[127.7894,35.4518],[127.7823,35.4571],[127.783,35.4598],[127.814,35.4705],[127.8077,35.4781],[127.8095,35.4827],[127.8053,35.4856],[127.8054,35.4894],[127.8163,35.4907],[127.8228,35.4997],[127.8203,35.5097],[127.8233,35.5166],[127.816,35.5217],[127.8169,35.5254],[127.8243,35.5291],[127.8404,35.5458],[127.8564,35.5694],[127.8632,35.5758],[127.8709,35.5755]]]]}},{"type":"Feature","properties":{"code":"38380","name":"함양군"},"geometry":{"type":"MultiPolygon","coordinates":[[[[127.6994,35.7577],[127.7097,35.7474],[127.7162,35.7311],[127.7337,35.7197],[127.7481,35.7311],[127.7552,35.7335],[127.761,35.7308],[127.7641,35.721],[127.7816,35.707],[127.7954,35.7042],[127.8034,35.6859],[127.8114,35.6857],[127.8184,35.6751],[127.8216,35.6756],[127.8264,35.6698],[127.8329,35.6699],[127.8348,35.6595],[127.8381,35.6608],[127.8468,35.6565],[127.8615,35.6594],[127.869,35.6709],[127.8778,35.6671],[127.8744,35.6519],[127.8751,35.6427],[127.8779,35.641],[127.8707,35.634],[127.8714,35.6211],[127.8538,35.5965],[127.8472,35.5946],[127.8426,35.5872],[127.8352,35.5831],[127.8355,35.5773],[127.8504,35.5779],[127.8564,35.5694],[127.8404,35.5458],[127.8243,35.5291],[127.8169,35.5254],[127.816,35.5217],[127.8233,35.5166],[127.8203,35.5097],[127.8228,35.4997],[127.8163,35.4907],[127.8054,35.4894],[127.8053,35.4856],[127.8095,35.4827],[127.8077,35.4781],[127.814,35.4705],[127.7967,35.4665],[127.7823,35.4591],[127.7894,35.4518],[127.7893,35.446],[127.7733,35.4447],[127.7727,35.4397],[127.78,35.4343],[127.7689,35.4262],[127.77,35.4207],[127.7593,35.4153],[127.7585,35.4027],[127.7484,35.3971],[127.7526,35.3832],[127.7386,35.3724],[127.7388,35.3648],[127.7341,35.3612],[127.7352,35.3471],[127.7312,35.3375],[127.7185,35.3344],[127.6996,35.3158],[127.6839,35.3227],[127.6647,35.3206],[127.6582,35.3288],[127.6402,35.3246],[127.6207,35.3326],[127.6233,35.3422],[127.6122,35.3559],[127.6102,35.3659],[127.6257,35.3769],[127.6253,35.3847],[127.6363,35.3992],[127.6464,35.4027],[127.6605,35.4144],[127.6658,35.4274],[127.6652,35.4356],[127.6741,35.4457],[127.6534,35.4516],[127.6452,35.4491],[127.6367,35.4594],[127.6366,35.4782],[127.6531,35.4869],[127.6504,35.4979],[127.6442,35.5001],[127.6336,35.5133],[127.6344,35.5202],[127.6257,35.5253],[127.6253,35.5314],[127.6287,35.536],[127.6247,35.5337],[127.6127,35.5356],[127.5915,35.5534],[127.5849,35.5539],[127.5961,35.5737],[127.6112,35.5839],[127.6075,35.5949],[127.6121,35.5989],[127.613,35.6082],[127.6214,35.6151],[127.6353,35.6185],[127.6257,35.6291],[127.6201,35.6461],[127.6295,35.6566],[127.6289,35.664],[127.6405,35.6728],[127.6418,35.6929],[127.6494,35.7038],[127.661,35.7099],[127.6623,35.7608],[127.6658,35.7688],[127.6758,35.7709],[127.6994,35.7577]]]]}},{"type":"Feature","properties":{"code":"38390","name":"거창군"},"geometry":{"type":"MultiPolygon","coordinates":[[[[127.8848,35.8931],[127.8935,35.8868],[127.9202,35.8932],[127.9185,35.8904],[127.9229,35.8826],[127.9302,35.8786],[127.9288,35.8703],[127.9331,35.864],[127.9258,35.8556],[127.9422,35.8545],[127.9512,35.8616],[127.9596,35.8603],[127.9625,35.8554],[127.974,35.8521],[127.9817,35.8587],[127.997,35.8371],[128.0118,35.8289],[128.0298,35.8356],[128.0517,35.8299],[128.0549,35.8344],[128.0609,35.8343],[128.0698,35.8412],[128.0844,35.837],[128.0907,35.8306],[128.0839,35.8224],[128.0847,35.8175],[128.0744,35.8135],[128.069,35.8062],[128.0535,35.8058],[128.0479,35.7953],[128.038,35.7909],[128.035,35.7861],[128.0408,35.7799],[128.0517,35.7755],[128.0487,35.7681],[128.051,35.7611],[128.0444,35.7516],[128.0523,35.7465],[128.0617,35.7237],[128.0728,35.7187],[128.0743,35.7012],[128.083,35.6946],[128.0952,35.6908],[128.0929,35.6844],[128.0813,35.6838],[128.072,35.6727],[128.0662,35.6827],[128.0503,35.6784],[128.0441,35.6612],[128.021,35.6527],[128.0179,35.6434],[128.0039,35.6379],[127.9996,35.6322],[128.0018,35.6279],[127.9967,35.6231],[128.0008,35.6111],[127.9843,35.6089],[127.9828,35.601],[127.987,35.5925],[127.9793,35.574],[127.9811,35.5658],[127.9748,35.5636],[127.9719,35.5559],[127.9653,35.5549],[127.9543,35.5456],[127.9535,35.5298],[127.9611,35.5234],[127.9597,35.518],[127.9466,35.5193],[127.9412,35.5144],[127.9254,35.5154],[127.92,35.52],[127.9213,35.5237],[127.9132,35.5256],[127.9019,35.535],[127.8939,35.5302],[127.8876,35.5314],[127.8782,35.5279],[127.8806,35.5315],[127.8745,35.5384],[127.8774,35.5504],[127.872,35.5522],[127.8694,35.559],[127.8748,35.5654],[127.8709,35.5755],[127.864,35.5762],[127.8566,35.5693],[127.8504,35.5779],[127.8355,35.5773],[127.8352,35.5831],[127.8426,35.5872],[127.8472,35.5946],[127.8538,35.5965],[127.8714,35.6211],[127.8707,35.634],[127.8779,35.641],[127.8751,35.6427],[127.8744,35.6519],[127.8769,35.6694],[127.869,35.6709],[127.8615,35.6594],[127.8468,35.6565],[127.8381,35.6608],[127.8348,35.6595],[127.8329,35.6699],[127.8264,35.6698],[127.8216,35.6756],[127.8184,35.6751],[127.8114,35.6857],[127.8034,35.6859],[127.7954,35.7042],[127.7816,35.707],[127.7641,35.721],[127.761,35.7308],[127.7552,35.7335],[127.7481,35.7311],[127.7337,35.7197],[127.7162,35.7311],[127.7097,35.7474],[127.7019,35.7556],[127.6843,35.7633],[127.6794,35.7685],[127.6848,35.7777],[127.7003,35.7891],[127.7194,35.7973],[127.7246,35.8125],[127.7297,35.813],[127.7386,35.8271],[127.738,35.8352],[127.7445,35.8444],[127.7595,35.8369],[127.7728,35.8396],[127.7838,35.8508],[127.8044,35.8587],[127.8139,35.8536],[127.8266,35.8683],[127.8418,35.8662],[127.8445,35.8693],[127.8449,35.8756],[127.8537,35.8813],[127.8507,35.8901],[127.8583,35.897],[127.8595,35.9065],[127.8693,35.904],[127.8795,35.9099],[127.8851,35.9096],[127.8848,35.8931]]]]}},{"type":"Feature","properties":{"code":"38400","name":"합천군"},"geometry":{"type":"MultiPolygon","coordinates":[[[[128.1109,35.8239],[128.1194,35.8249],[128.1231,35.8224],[128.1219,35.8035],[128.1287,35.7943],[128.1289,35.7894],[128.1375,35.7843],[128.1544,35.7864],[128.159,35.7837],[128.1589,35.7801],[128.1637,35.7772],[128.1615,35.77],[128.165,35.7635],[128.1893,35.7518],[128.1936,35.7381],[128.1981,35.7359],[128.1966,35.7304],[128.2023,35.7176],[128.2003,35.7077],[128.2046,35.6971],[128.2026,35.6926],[128.2048,35.6839],[128.1841,35.68],[128.1792,35.673],[128.1637,35.673],[128.1601,35.6675],[128.1602,35.6549],[128.1659,35.653],[128.1857,35.6576],[128.1971,35.6507],[128.2012,35.6437],[128.2297,35.6395],[128.236,35.6407],[128.2364,35.6511],[128.2435,35.6555],[128.2586,35.6478],[128.2623,35.6427],[128.2768,35.647],[128.2795,35.6523],[128.2963,35.6507],[128.2981,35.6562],[128.3179,35.6515],[128.324,35.6466],[128.3295,35.6485],[128.3378,35.6448],[128.35,35.646],[128.3601,35.6331],[128.3646,35.6134],[128.355,35.6099],[128.3517,35.6041],[128.3592,35.5813],[128.3574,35.5644],[128.3507,35.5515],[128.3514,35.5368],[128.3685,35.5201],[128.3799,35.5136],[128.3694,35.515],[128.3734,35.5039],[128.3649,35.5002],[128.3594,35.5032],[128.3496,35.5009],[128.339,35.5096],[128.3213,35.5084],[128.3123,35.5168],[128.2926,35.5174],[128.2902,35.5123],[128.2665,35.5099],[128.2608,35.5021],[128.2619,35.4972],[128.2551,35.4942],[128.2379,35.4947],[128.2173,35.4844],[128.2096,35.4837],[128.2007,35.4754],[128.2163,35.4617],[128.2078,35.4601],[128.2071,35.4484],[128.2002,35.4322],[128.1852,35.4192],[128.1909,35.4116],[128.1899,35.399],[128.1466,35.386],[128.1287,35.3877],[128.1259,35.3838],[128.13,35.3732],[128.1269,35.3722],[128.1219,35.3781],[128.1124,35.3823],[128.0989,35.3711],[128.0991,35.3682],[128.0925,35.3679],[128.0802,35.3702],[128.0893,35.3812],[128.0807,35.3891],[128.0721,35.3897],[128.0649,35.3988],[128.0661,35.4023],[128.0592,35.4054],[128.053,35.4177],[128.0453,35.4158],[128.0416,35.4193],[128.0313,35.4163],[128.0231,35.4264],[128.0113,35.4265],[128.0075,35.4361],[127.9965,35.4362],[127.9863,35.451],[127.9816,35.4515],[127.9849,35.4565],[127.9785,35.4619],[127.9793,35.4673],[127.9744,35.4753],[127.9746,35.4949],[127.9626,35.5],[127.9611,35.5234],[127.9538,35.5292],[127.9532,35.534],[127.9556,35.5485],[127.9719,35.5559],[127.9748,35.5636],[127.9811,35.5658],[127.9793,35.574],[127.987,35.5925],[127.9828,35.601],[127.9843,35.6089],[128.0008,35.6111],[127.9967,35.6231],[128.0018,35.6279],[127.9996,35.6322],[128.0039,35.6379],[128.0179,35.6434],[128.021,35.6527],[128.0441,35.6612],[128.0503,35.6784],[128.0662,35.6827],[128.072,35.6727],[128.0813,35.6838],[128.0929,35.6844],[128.0952,35.6908],[128.083,35.6946],[128.0743,35.7012],[128.0728,35.7187],[128.0617,35.7237],[128.0523,35.7465],[128.0444,35.7516],[128.051,35.7611],[128.0487,35.7681],[128.0517,35.7755],[128.0399,35.7805],[128.035,35.7865],[128.0479,35.7953],[128.0535,35.8058],[128.069,35.8062],[128.0744,35.8135],[128.0847,35.8175],[128.0839,35.8224],[128.0907,35.8306],[128.0986,35.8307],[128.1109,35.8239]]]]}}]}