{"type":"FeatureCollection","features":[{"type":"Feature","properties":{"code":"39010","name":"제주시"},"geometry":{"type":"MultiPolygon","coordinates":[[[[126.2322,33.41],[126.2308,33.406],[126.2225,33.4059],[126.2228,33.4116],[126.2322,33.41]]],[[[126.959,33.5174],[126.9588,33.5128],[126.9678,33.5163],[126.9727,33.5146],[126.9651,33.5131],[126.9713,33.4986],[126.9667,33.4969],[126.9671,33.4907],[126.9639,33.4892],[126.9597,33.4927],[126.9433,33.4948],[126.9409,33.5066],[126.9509,33.5177],[126.9481,33.5231],[126.9545,33.5259],[126.9625,33.5194],[126.959,33.5174]]],[[[126.8996,33.5097],[126.9096,33.5097],[126.9134,33.5032],[126.9094,33.4954],[126.9106,33.4891],[126.9041,33.4882],[126.9019,33.4825],[126.8845,33.4807],[126.8547,33.4633],[126.8255,33.4532],[126.8221,33.4467],[126.8069,33.4443],[126.7993,33.4396],[126.7886,33.4414],[126.7835,33.4349],[126.7613,33.4215],[126.7414,33.4203],[126.7318,33.4267],[126.7047,33.4208],[126.6694,33.4004],[126.6605,33.402],[126.6527,33.3947],[126.6308,33.3931],[126.6231,33.3843],[126.5748,33.372],[126.5537,33.3737],[126.5295,33.3617],[126.5111,33.361],[126.5066,33.358],[126.4991,33.3598],[126.4904,33.355],[126.4827,33.3597],[126.4741,33.357],[126.4657,33.36],[126.4456,33.3589],[126.437,33.3548],[126.4376,33.3487],[126.4326,33.3411],[126.3759,33.3469],[126.3675,33.3411],[126.3402,33.3436],[126.3226,33.3258],[126.3059,33.3267],[126.2964,33.3219],[126.2924,33.3105],[126.2791,33.2995],[126.245,33.2883],[126.2428,33.2832],[126.2447,33.273],[126.2298,33.2847],[126.1926,33.2982],[126.1917,33.2937],[126.1712,33.2886],[126.1687,33.2826],[126.1609,33.2908],[126.1674,33.2989],[126.1635,33.3066],[126.1684,33.3166],[126.1667,33.3234],[126.1625,33.3246],[126.1656,33.3314],[126.1615,33.3341],[126.167,33.3388],[126.1668,33.343],[126.172,33.3427],[126.1689,33.343],[126.1687,33.3454],[126.1734,33.3431],[126.1798,33.3463],[126.1829,33.3585],[126.205,33.3684],[126.2061,33.3723],[126.2133,33.375],[126.2146,33.3821],[126.2232,33.39],[126.2346,33.3895],[126.2366,33.3951],[126.2402,33.3944],[126.2501,33.401],[126.2488,33.4042],[126.2522,33.409],[126.2587,33.4094],[126.2552,33.4094],[126.2529,33.4158],[126.2558,33.4127],[126.2628,33.4167],[126.2606,33.4231],[126.2583,33.4218],[126.2585,33.418],[126.2578,33.4172],[126.2523,33.4169],[126.2579,33.4176],[126.257,33.4215],[126.2598,33.425],[126.2642,33.4237],[126.2631,33.4368],[126.2731,33.4351],[126.2789,33.4423],[126.2996,33.4472],[126.3104,33.4599],[126.3077,33.4658],[126.3128,33.4698],[126.3216,33.4665],[126.3314,33.4695],[126.3381,33.467],[126.3538,33.4779],[126.3689,33.4784],[126.3857,33.4893],[126.3913,33.4894],[126.3945,33.4841],[126.4006,33.4834],[126.4076,33.4852],[126.4104,33.49],[126.4209,33.4908],[126.427,33.4959],[126.4281,33.4939],[126.4451,33.4988],[126.4516,33.4973],[126.4536,33.5044],[126.4631,33.5031],[126.4635,33.507],[126.467,33.5057],[126.4662,33.5086],[126.4834,33.5111],[126.4858,33.5175],[126.4942,33.5209],[126.5146,33.5158],[126.5178,33.5195],[126.5319,33.5174],[126.5317,33.5213],[126.5353,33.5198],[126.5428,33.5229],[126.5417,33.5296],[126.5462,33.5245],[126.5534,33.5242],[126.5469,33.5219],[126.55,33.5206],[126.559,33.523],[126.5618,33.5275],[126.5653,33.5242],[126.5692,33.527],[126.571,33.5258],[126.5735,33.5253],[126.5738,33.5253],[126.5748,33.5281],[126.585,33.5254],[126.5975,33.5377],[126.6031,33.535],[126.6135,33.5381],[126.6345,33.536],[126.6349,33.5452],[126.6393,33.5459],[126.6447,33.5556],[126.6499,33.5533],[126.6481,33.549],[126.6529,33.5528],[126.6671,33.5428],[126.6743,33.545],[126.6779,33.5525],[126.6893,33.5484],[126.6993,33.553],[126.7165,33.5536],[126.7194,33.5579],[126.7299,33.5607],[126.7381,33.5548],[126.7455,33.5557],[126.7393,33.5575],[126.7403,33.5598],[126.7572,33.557],[126.7619,33.5588],[126.762,33.5654],[126.7654,33.566],[126.7748,33.565],[126.7747,33.5611],[126.7791,33.5661],[126.7837,33.5649],[126.7981,33.5553],[126.8136,33.5614],[126.8276,33.5594],[126.8257,33.5544],[126.8296,33.551],[126.8272,33.5478],[126.8287,33.5432],[126.8408,33.5336],[126.8517,33.5322],[126.8613,33.5249],[126.8714,33.5307],[126.8928,33.5269],[126.9059,33.5207],[126.9012,33.5181],[126.8996,33.5097]]],[[[126.3383,33.9525],[126.3419,33.9465],[126.3273,33.9449],[126.3244,33.9407],[126.3252,33.9352],[126.3308,33.9332],[126.329,33.9301],[126.3211,33.9302],[126.3122,33.9459],[126.3031,33.9501],[126.3045,33.9534],[126.3107,33.9523],[126.3137,33.9549],[126.3259,33.9515],[126.3372,33.9569],[126.3415,33.9538],[126.3383,33.9525]]],[[[126.2842,33.9677],[126.2999,33.9628],[126.2946,33.9615],[126.3019,33.9587],[126.3017,33.9525],[126.2972,33.9523],[126.2865,33.9604],[126.2891,33.9629],[126.2838,33.9643],[126.2819,33.971],[126.2842,33.9677]]],[[[126.3447,34.0107],[126.3531,34.006],[126.3484,34.0041],[126.3297,34.0108],[126.3447,34.0107]]]]}},{"type":"Feature","properties":{"code":"39020","name":"서귀포시"},"geometry":{"type":"MultiPolygon","coordinates":[[[[126.2695,33.1233],[126.2704,33.1165],[126.2678,33.1124],[126.2648,33.118],[126.2695,33.1233]]],[[[126.2798,33.1675],[126.2723,33.1652],[126.2741,33.1645],[126.2694,33.1608],[126.2677,33.1664],[126.2624,33.1686],[126.2706,33.176],[126.2798,33.1675]]],[[[126.9131,33.4727],[126.9206,33.4694],[126.9248,33.472],[126.9208,33.4647],[126.9233,33.4555],[126.9317,33.464],[126.9279,33.4673],[126.9289,33.4735],[126.9352,33.4736],[126.936,33.4784],[126.9365,33.4642],[126.9453,33.4596],[126.9462,33.4562],[126.9316,33.4599],[126.9228,33.4498],[126.9218,33.4435],[126.9252,33.4356],[126.9365,33.4292],[126.9294,33.4226],[126.9231,33.4264],[126.9255,33.4299],[126.9239,33.4343],[126.9161,33.4339],[126.918,33.4273],[126.9142,33.4238],[126.9083,33.4064],[126.9027,33.4019],[126.9077,33.3982],[126.9065,33.3915],[126.8835,33.3835],[126.8713,33.3722],[126.8735,33.3682],[126.8674,33.3638],[126.8697,33.3618],[126.8684,33.354],[126.8599,33.3469],[126.8566,33.3381],[126.844,33.3328],[126.8448,33.3255],[126.8499,33.325],[126.8484,33.3196],[126.8437,33.319],[126.8358,33.3089],[126.8225,33.3053],[126.8162,33.3076],[126.8078,33.3018],[126.8056,33.3056],[126.7918,33.3027],[126.7778,33.3068],[126.7725,33.3005],[126.7662,33.2985],[126.7647,33.2919],[126.7428,33.2777],[126.7333,33.2816],[126.7313,33.2785],[126.7259,33.2793],[126.6995,33.271],[126.6784,33.2707],[126.6776,33.267],[126.6582,33.2739],[126.6607,33.2689],[126.6422,33.2659],[126.6436,33.2617],[126.6402,33.257],[126.6198,33.2497],[126.6183,33.2415],[126.6047,33.2387],[126.5999,33.2345],[126.5858,33.2436],[126.5778,33.2448],[126.5688,33.243],[126.5673,33.2399],[126.5712,33.2359],[126.5675,33.2327],[126.5702,33.2357],[126.561,33.243],[126.5592,33.2387],[126.5642,33.2347],[126.5508,33.2413],[126.5435,33.2386],[126.5402,33.2416],[126.5332,33.2391],[126.5209,33.2409],[126.5105,33.2304],[126.4986,33.2292],[126.4913,33.2325],[126.4772,33.2277],[126.4778,33.2237],[126.4728,33.223],[126.4615,33.2313],[126.462,33.2373],[126.4571,33.2412],[126.4293,33.2352],[126.4181,33.2436],[126.4086,33.2446],[126.3865,33.2345],[126.3754,33.2336],[126.3729,33.2297],[126.3671,33.2313],[126.3667,33.2289],[126.3618,33.2371],[126.3603,33.2342],[126.3442,33.2363],[126.3278,33.2318],[126.3354,33.2348],[126.3337,33.2395],[126.3277,33.2408],[126.3164,33.2364],[126.3087,33.2264],[126.3061,33.2279],[126.2979,33.2227],[126.2903,33.2054],[126.2946,33.1968],[126.288,33.1958],[126.2849,33.2005],[126.2756,33.1985],[126.2764,33.1959],[126.2709,33.1941],[126.261,33.1998],[126.264,33.2024],[126.2632,33.2094],[126.256,33.2105],[126.2596,33.2068],[126.2565,33.2074],[126.2511,33.2196],[126.2478,33.2178],[126.241,33.2215],[126.2336,33.2349],[126.2193,33.2429],[126.2025,33.2455],[126.1823,33.2597],[126.1789,33.268],[126.169,33.2751],[126.1711,33.2885],[126.1917,33.2937],[126.192,33.2984],[126.2298,33.2847],[126.2447,33.273],[126.2428,33.2832],[126.245,33.2883],[126.2791,33.2995],[126.2924,33.3105],[126.2964,33.3219],[126.3059,33.3267],[126.3226,33.3258],[126.3402,33.3436],[126.3675,33.3411],[126.3759,33.3469],[126.4326,33.3411],[126.4376,33.3487],[126.437,33.3548],[126.4456,33.3589],[126.4657,33.36],[126.4741,33.357],[126.4827,33.3597],[126.4904,33.355],[126.4991,33.3598],[126.5066,33.358],[126.5111,33.361],[126.5347,33.3632],[126.5537,33.3737],[126.5692,33.3716],[126.5893,33.3743],[126.6069,33.3822],[126.6249,33.385],[126.6308,33.3931],[126.6527,33.3947],[126.6605,33.402],[126.6694,33.4004],[126.7024,33.4202],[126.7318,33.4267],[126.7414,33.4203],[126.7613,33.4215],[126.7835,33.4349],[126.7886,33.4414],[126.7993,33.4396],[126.8069,33.4443],[126.8221,33.4467],[126.8255,33.4532],[126.8547,33.4633],[126.8845,33.4807],[126.8982,33.483],[126.9049,33.4791],[126.9116,33.4794],[126.9131,33.4727]]]]}}]}